{
  "type": "FeatureCollection",
  "name": "K085A",
  "crs": {
    "type": "name",
    "properties": {
      "name": "urn:ogc:def:crs:OGC:1.3:CRS84"
    }
  },
  "features": [
    {
      "type": "Feature",
      "properties": {
        "event": "K085A",
        "name": "Microwave: Chlorine Monoxide, Scott Base, Antarctica, 1996-Present",
        "principal investigator": "Smale, D.",
        "email": "dan.smale@earthsciences.nz",
        "status": "Active"
      },
      "geometry": {
        "type": "Point",
        "coordinates": [
          166.77,
          -77.85
        ]
      }
    },
    {
      "type": "Feature",
      "properties": {
        "event": "K085A",
        "name": "In Situ Flask and Cylinder Air Sampling: Greenhouse Gases and Isotopes, Antarctica, 1989-Present",
        "principal investigator": "Smale, D.",
        "email": "dan.smale@earthsciences.nz",
        "status": "Active"
      },
      "geometry": {
        "type": "Point",
        "coordinates": [
          166.67,
          -77.83
        ]
      }
    },
    {
      "type": "Feature",
      "properties": {
        "event": "K085A",
        "name": "Total Column Ozone, Arrival Heights, Antarctica, 1987-Present",
        "principal investigator": "Smale, D.",
        "email": "dan.smale@earthsciences.nz",
        "status": "Active"
      },
      "geometry": {
        "type": "Point",
        "coordinates": [
          166.67,
          -77.83
        ]
      }
    },
    {
      "type": "Feature",
      "properties": {
        "event": "K085A",
        "name": "UVVis: Nitrogen Dioxide (NO2), Chlorine Dioxide (OCIO), Bromine Oxide (BrO) and Ozone (O3) Measurements, Antarctica, 1982-Present",
        "principal investigator": "Smale, D.",
        "email": "dan.smale@earthsciences.nz",
        "status": "Active"
      },
      "geometry": {
        "type": "Point",
        "coordinates": [
          166.67,
          -77.83
        ]
      }
    },
    {
      "type": "Feature",
      "properties": {
        "event": "K085A",
        "name": "AERI: Atmospheric Emission Radiation Interferometer Measurements, Scott Base, Antarctica, 2025-Present",
        "principal investigator": "Smale, D.",
        "email": "dan.smale@earthsciences.nz",
        "status": "Active"
      },
      "geometry": {
        "type": "Point",
        "coordinates": [
          166.77,
          -77.85
        ]
      }
    },
    {
      "type": "Feature",
      "properties": {
        "event": "K085A",
        "name": "Ally-Sky Camera Systems (Sky Imagery, Cloud Coverage Measurements), Arrival Heights, 2025-Present",
        "principal investigator": "Smale, D.",
        "email": "dan.smale@earthsciences.nz",
        "status": "Active"
      },
      "geometry": {
        "type": "Point",
        "coordinates": [
          166.67,
          -77.83
        ]
      }
    },
    {
      "type": "Feature",
      "properties": {
        "event": "K085A",
        "name": "CNR4 and SI-411 radiometers: surface radiative balance measurements, Scott Base, Antarctica, 2026-Present",
        "principal investigator": "Smale, D.",
        "email": "dan.smale@earthsciences.nz",
        "status": "Active"
      },
      "geometry": {
        "type": "Point",
        "coordinates": [
          166.77,
          -77.85
        ]
      }
    },
    {
      "type": "Feature",
      "properties": {
        "event": "K085A",
        "name": "SMOL-X: Lidar: Atmospheric Profiles of Ozone, Temperature and Aerosols from the Ground to ~20km, Scott Base, 2026-Present",
        "principal investigator": "Smale, D.",
        "email": "dan.smale@earthsciences.nz",
        "status": "Active"
      },
      "geometry": {
        "type": "Point",
        "coordinates": [
          166.77,
          -77.85
        ]
      }
    },
    {
      "type": "Feature",
      "properties": {
        "event": "K085A",
        "name": "Far- and Mid- Infrared FTS measurements: Greenhouse and Ozone Depleting Gases (O3, HCl, N2O, CH4, HNO3, ClONO2, HCN, HF, OCS, CO, C2H6, CFC-11, CFC-12, COF2 + Others), Antarctica, 2014-Present",
        "principal investigator": "Smale, D.",
        "email": "dan.smale@earthsciences.nz",
        "status": "Active"
      },
      "geometry": {
        "type": "Point",
        "coordinates": [
          166.67,
          -77.83
        ]
      }
    }
  ]
}