{
  "type": "FeatureCollection",
  "name": "K089A",
  "crs": {
    "type": "name",
    "properties": {
      "name": "urn:ogc:def:crs:OGC:1.3:CRS84"
    }
  },
  "features": [
    {
      "type": "Feature",
      "properties": {
        "event": "K089A",
        "name": "Climate Data (Wind Speed and Direction, Air Temperature, Relative Humidity, Barometric Pressure, and Solar Radiation) from Manual Observations and Automatic Weather Stations at Arrival Heights",
        "principal investigator": "Jeremy Rutherford",
        "email": "jeremy.rutherford@earthsciences.n",
        "status": "Active"
      },
      "geometry": {
        "type": "Point",
        "coordinates": [
          166.65,
          -77.8167
        ]
      }
    },
    {
      "type": "Feature",
      "properties": {
        "event": "K089A",
        "name": "Climate Data (Wind Speed and Direction, Air Temperature, Relative Humidity, Barometric Pressure, and Solar Radiation) from Manual Observations and a Automatic Weather Station at Scott Base",
        "principal investigator": "Jeremy Rutherford",
        "email": "jeremy.rutherford@earthsciences.n",
        "status": "Active"
      },
      "geometry": {
        "type": "Point",
        "coordinates": [
          166.75,
          -77.85
        ]
      }
    }
  ]
}