{
  "type": "FeatureCollection",
  "name": "K881B",
  "crs": {
    "type": "name",
    "properties": {
      "name": "urn:ogc:def:crs:OGC:1.3:CRS84"
    }
  },
  "features": [
    {
      "type": "Feature",
      "properties": {
        "event": "K881B",
        "name": "Borehole Ground Temperature Station",
        "site": "Bull Pass",
        "principal investigator": "Katurji, M.",
        "email": "marwan.katurji@canterbury.ac.nz",
        "status": "Active"
      },
      "geometry": {
        "type": "Point",
        "coordinates": [
          161.851167,
          -77.518083
        ]
      }
    },
    {
      "type": "Feature",
      "properties": {
        "event": "K881B",
        "name": "Borehole Ground Temperature Station",
        "site": "Marble Point",
        "principal investigator": "Katurji, M.",
        "email": "marwan.katurji@canterbury.ac.nz",
        "status": "Active"
      },
      "geometry": {
        "type": "Point",
        "coordinates": [
          163.729133,
          -77.407316
        ]
      }
    },
    {
      "type": "Feature",
      "properties": {
        "event": "K881B",
        "name": "Soil and Climate Station",
        "site": "Don Juan Pond",
        "principal investigator": "Katurji, M.",
        "email": "marwan.katurji@canterbury.ac.nz",
        "status": "Active"
      },
      "geometry": {
        "type": "Point",
        "coordinates": [
          161.238778,
          -77.573889
        ]
      }
    },
    {
      "type": "Feature",
      "properties": {
        "event": "K881B",
        "name": "Soil and Climate Station",
        "site": "Granite Harbour",
        "principal investigator": "Katurji, M.",
        "email": "marwan.katurji@canterbury.ac.nz",
        "status": "Active"
      },
      "geometry": {
        "type": "Point",
        "coordinates": [
          162.525611,
          -77.006556
        ]
      }
    },
    {
      "type": "Feature",
      "properties": {
        "event": "K881B",
        "name": "Soil and Climate Station",
        "site": "Marble Point",
        "principal investigator": "Katurji, M.",
        "email": "marwan.katurji@canterbury.ac.nz",
        "status": "Active"
      },
      "geometry": {
        "type": "Point",
        "coordinates": [
          163.682722,
          -77.419583
        ]
      }
    },
    {
      "type": "Feature",
      "properties": {
        "event": "K881B",
        "name": "Soil and Climate Station",
        "site": "Minna Bluff",
        "principal investigator": "Katurji, M.",
        "email": "marwan.katurji@canterbury.ac.nz",
        "status": "Active"
      },
      "geometry": {
        "type": "Point",
        "coordinates": [
          166.766167,
          -78.511556
        ]
      }
    },
    {
      "type": "Feature",
      "properties": {
        "event": "K881B",
        "name": "Soil and Climate Station",
        "site": "Mount Flemming",
        "principal investigator": "Katurji, M.",
        "email": "marwan.katurji@canterbury.ac.nz",
        "status": "Active"
      },
      "geometry": {
        "type": "Point",
        "coordinates": [
          160.290278,
          -77.545194
        ]
      }
    },
    {
      "type": "Feature",
      "properties": {
        "event": "K881B",
        "name": "Soil and Climate Station",
        "site": "Victoria Valley",
        "principal investigator": "Katurji, M.",
        "email": "marwan.katurji@canterbury.ac.nz",
        "status": "Active"
      },
      "geometry": {
        "type": "Point",
        "coordinates": [
          161.600694,
          -77.33094
        ]
      }
    },
    {
      "type": "Feature",
      "properties": {
        "event": "K881B",
        "name": "Soil and Climate Station",
        "site": "Bull Pass",
        "principal investigator": "Katurji, M.",
        "email": "marwan.katurji@canterbury.ac.nz",
        "status": "Active"
      },
      "geometry": {
        "type": "Point",
        "coordinates": [
          161.862694,
          -77.518472
        ]
      }
    },
    {
      "type": "Feature",
      "properties": {
        "event": "K881B",
        "name": "Soil and Climate Station",
        "site": "Bull Pass East",
        "principal investigator": "Katurji, M.",
        "email": "marwan.katurji@canterbury.ac.nz",
        "status": "Active"
      },
      "geometry": {
        "type": "Point",
        "coordinates": [
          162.06475000,
          -77.50219444
        ]
      }
    },
    {
      "type": "Feature",
      "properties": {
        "event": "K881B",
        "name": "AWS",
        "site": "Miers Valley",
        "principal investigator": "Katurji, M.",
        "email": "marwan.katurji@canterbury.ac.nz",
        "status": "Active"
      },
      "geometry": {
        "type": "Point",
        "coordinates": [
          163.794283,
          -78.09805
        ]
      }
    },
    {
      "type": "Feature",
      "properties": {
        "event": "K881B",
        "name": "AWS",
        "site": "Miers Ridge",
        "principal investigator": "Katurji, M.",
        "email": "marwan.katurji@canterbury.ac.nz",
        "status": "Active"
      },
      "geometry": {
        "type": "Point",
        "coordinates": [
          163.863319,
          -78.123205
        ]
      }
    },
    {
      "type": "Feature",
      "properties": {
        "event": "K881B",
        "name": "AWS",
        "site": "Commonwealth Glacier",
        "principal investigator": "Katurji, M.",
        "email": "marwan.katurji@canterbury.ac.nz",
        "status": "Active"
      },
      "geometry": {
        "type": "Point",
        "coordinates": [
          163.281064,
          -77.563987
        ]
      }
    },
    {
      "type": "Feature",
      "properties": {
        "event": "K881B",
        "name": "AWS",
        "site": "Cape Christie",
        "principal investigator": "Katurji, M.",
        "email": "marwan.katurji@canterbury.ac.nz",
        "status": "Active"
      },
      "geometry": {
        "type": "Point",
        "coordinates": [
          169.9847222,
          -72.2972222
        ]
      }
    },
    {
      "type": "Feature",
      "properties": {
        "event": "K881B",
        "name": "AWS",
        "site": "Haystack Mountain",
        "principal investigator": "Katurji, M.",
        "email": "marwan.katurji@canterbury.ac.nz",
        "status": "Active"
      },
      "geometry": {
        "type": "Point",
        "coordinates": [
          162.585,
          -77.05
        ]
      }
    },
    {
      "type": "Feature",
      "properties": {
        "event": "K881B",
        "name": "AWS",
        "site": "Granite Harbour",
        "principal investigator": "Katurji, M.",
        "email": "marwan.katurji@canterbury.ac.nz",
        "status": "Active"
      },
      "geometry": {
        "type": "Point",
        "coordinates": [
          162.5256,
          -77.00655
        ]
      }
    },
    {
      "type": "Feature",
      "properties": {
        "event": "K881B",
        "name": "AWS",
        "site": "Mount Flemming",
        "principal investigator": "Katurji, M.",
        "email": "marwan.katurji@canterbury.ac.nz",
        "status": "Active"
      },
      "geometry": {
        "type": "Point",
        "coordinates": [
          160.29028,
          -77.5452
        ]
      }
    },
    {
      "type": "Feature",
      "properties": {
        "event": "K881B",
        "name": "AWS",
        "site": "Cape Adare Ridge",
        "principal investigator": "Katurji, M.",
        "email": "marwan.katurji@canterbury.ac.nz",
        "status": "Offline"
      },
      "geometry": {
        "type": "Point",
        "coordinates": [
          170.23253,
          -71.30498
        ]
      }
    },
    {
      "type": "Feature",
      "properties": {
        "event": "K881B",
        "name": "AWS",
        "site:": "Cape Adare Beach",
        "principal investigator": "Katurji, M.",
        "email": "marwan.katurji@canterbury.ac.nz",
        "status": "Offline"
      },
      "geometry": {
        "type": "Point",
        "coordinates": [
          170.19580,
          -71.30820
        ]
      }
    }
  ]
}