{"type": "FeatureCollection", "features": [{"type": "Feature", "properties": {"Name": "Southwest Anvers Island and Palmer Basin", "Tipo_apa": "ASMA", "Marine": 0, "Area_km": 3548.53, "Numero_apa": 7}, "geometry": {"type": "Polygon", "coordinates": [[[-63.70896565081133, -64.92745275838034], [-63.76837790311392, -64.9633537214695], [-64.03091299125994, -65.04191932940732], [-64.03960072311244, -65.05008211947838], [-64.09656237004872, -65.08474760860067], [-64.23615548029827, -65.1415617319481], [-64.24333210464006, -65.14266371619372], [-65.00010571058608, -65.13987178600858], [-64.99993380223749, -64.54981672282831], [-64.10090273268747, -64.55002415971695], [-64.10087899903745, -64.57299324454154], [-64.10378029758446, -64.57431869426092], [-64.10719639294359, -64.57768141849304], [-64.11512880598814, -64.58087156270014], [-64.12334618292968, -64.5822656464902], [-64.13526580804351, -64.58720905588797], [-64.14635283374847, -64.58976843383218], [-64.149494698756, -64.59252446455359], [-64.15446187661377, -64.59479435092511], [-64.16601104362275, -64.5966356906255], [-64.17729379335378, -64.59977420670427], [-64.17006612609003, -64.6059982312595], [-64.16865100930376, -64.60825959090016], [-64.16867549285486, -64.6115418609267], [-64.17107167140553, -64.61524093049273], [-64.16848757334131, -64.61728937451214], [-64.16711167002357, -64.6195167434616], [-64.16731416681797, -64.62294521080695], [-64.16945815085984, -64.6255352187938], [-64.16900121212981, -64.62794650816488], [-64.1664236179969, -64.63102682962429], [-64.16560983965387, -64.63384980151281], [-64.16685517511756, -64.63699081137355], [-64.17186991415498, -64.64151181928156], [-64.17382477927427, -64.64552419304833], [-64.17823493657268, -64.65067288098], [-64.18707181438961, -64.65608495628045], [-64.19662356155425, -64.65849621667171], [-64.20290973595921, -64.6622468824315], [-64.213819510343, -64.66595862905115], [-64.21365436417162, -64.66909177420835], [-64.21470127080212, -64.67137150842831], [-64.21751606512747, -64.67390597809387], [-64.22127068644149, -64.6757838667612], [-64.21767105284432, -64.67873394856439], [-64.21636905085809, -64.68169595974909], [-64.21707069804886, -64.68498882239061], [-64.22009285848671, -64.68786072886748], [-64.22905068397557, -64.69125504497953], [-64.24285923412627, -64.69292193569675], [-64.24845914513213, -64.69606380486887], [-64.26161590436477, -64.69978609485959], [-64.26029279264607, -64.70375767286552], [-64.26262689533415, -64.70752142557374], [-64.25344259594715, -64.70640834352335], [-64.2431257378316, -64.70320396258138], [-64.23202281065987, -64.70225659260767], [-64.22330746572341, -64.70299054651389], [-64.20036197083384, -64.70828149516707], [-64.19007864684714, -64.70688546126706], [-64.17865815944486, -64.70789578039863], [-64.16143946835867, -64.7064396503491], [-64.15477650881151, -64.70229943610038], [-64.1474354737171, -64.70020479842759], [-64.13904339851624, -64.69948966301847], [-64.13197291330154, -64.69999734232708], [-64.12594551407348, -64.70137151835183], [-64.12099085348123, -64.7036188748569], [-64.11304585942587, -64.7050475175048], [-64.1035132607202, -64.70862153351939], [-64.09968440055924, -64.71127595511474], [-64.09780557322298, -64.71369491565918], [-64.09181396883105, -64.71760202476743], [-64.0892804384907, -64.72053308663824], [-64.08855537240494, -64.72305886619762], [-64.07346157333028, -64.72507171570761], [-64.06118974527631, -64.73101968820072], [-64.05743254929236, -64.73484306519221], [-64.05708910333875, -64.73780320576968], [-64.05462033821499, -64.74179934238363], [-64.055859507156, -64.74576657356182], [-64.05298472983256, -64.7484730514735], [-64.05225620281692, -64.75157196659045], [-64.04795858366292, -64.75347762581906], [-64.04424786974856, -64.75685024821937], [-64.04185300419837, -64.75779341241318], [-64.03213205552326, -64.75928993920643], [-64.02647934231645, -64.76128502709946], [-64.02263387059459, -64.76394897493032], [-64.0210002076713, -64.76719199543938], [-64.01004647908681, -64.76442360592003], [-63.98372763151924, -64.7626203563121], [-63.97222909597522, -64.76439096635323], [-63.95950805340605, -64.76823351582391], [-63.95448092418866, -64.77038199600234], [-63.951254556768106, -64.772775847095], [-63.945807096871846, -64.77467342216099], [-63.93581519998495, -64.77534125766459], [-63.9253916390336, -64.77861432705248], [-63.91553398653655, -64.77980050188792], [-63.90671201424584, -64.77907747782601], [-63.89057219685217, -64.77981587229763], [-63.87386657854907, -64.77775676039367], [-63.854219914033656, -64.779867228775], [-63.84970692248652, -64.77754420656325], [-63.84447319897326, -64.77601187057272], [-63.83025677069221, -64.77436614741777], [-63.81948335437949, -64.7756225359665], [-63.806884307752654, -64.77526030340788], [-63.79792956789042, -64.77675526724612], [-63.78643484271601, -64.77749223943796], [-63.764674162056814, -64.78319542455375], [-63.76041569844181, -64.7857166094586], [-63.758059435692, -64.78949062169957], [-63.752759141261485, -64.7931366973837], [-63.75074752430797, -64.79552662549813], [-63.74634256259053, -64.79812493364543], [-63.74434821280467, -64.8004584051506], [-63.73708758797604, -64.80311244451431], [-63.73347954724623, -64.80594338324475], [-63.7278266079481, -64.80819578773718], [-63.72434473206291, -64.81085635174934], [-63.72276391139339, -64.81380240631444], [-63.723367447294976, -64.8168388271538], [-63.725740795099455, -64.81946153154314], [-63.730491103477334, -64.82204554092931], [-63.724430678469666, -64.82463174021325], [-63.72097409569873, -64.82790168172022], [-63.713106236520076, -64.82900321491931], [-63.70660870360039, -64.83118559234966], [-63.699851781359605, -64.8351944704543], [-63.697408376610944, -64.83854436692432], [-63.6970808662338, -64.84668150085484], [-63.699120477810695, -64.84968050662862], [-63.70297640603957, -64.85323868888169], [-63.70999759937904, -64.85636485530813], [-63.70896565081133, -64.92745275838034]]]}}, {"type": "Feature", "properties": {"Name": "Admiralty Bay, King George Island", "Tipo_apa": "ASMA", "Marine": 0, "Area_km": 409.54, "Numero_apa": 1}, "geometry": {"type": "Polygon", "coordinates": [[[-58.48817141486192, -62.04235721404514], [-58.48226010585572, -62.03458378112821], [-58.47797330115156, -62.0309238972376], [-58.471960158110456, -62.027260410284725], [-58.463632847895, -62.02494426904522], [-58.44148995876298, -62.02259738356333], [-58.41673634000674, -62.02240449800703], [-58.37008990691399, -62.023500962569464], [-58.34328848112977, -62.02572358089876], [-58.327425159365085, -62.02783972479525], [-58.312092618432615, -62.0329310679004], [-58.30702000263333, -62.03540787081533], [-58.30560855593523, -62.037478972736736], [-58.30001645687771, -62.04200129865839], [-58.29249230272457, -62.046257551021405], [-58.263405684906935, -62.050698467778595], [-58.26173082296366, -62.05173037489914], [-58.26115096022005, -62.053414780121], [-58.26073879920545, -62.06184563880674], [-58.26639586389068, -62.07120597950619], [-58.26877997943658, -62.07783042399737], [-58.26781214300523, -62.086518796716824], [-58.2624529468813, -62.09285662288963], [-58.26127700727744, -62.097133474292754], [-58.272783719390006, -62.10469788834853], [-58.27358576741122, -62.1065168362439], [-58.27378524289715, -62.11144715024037], [-58.27566076948543, -62.11547513907445], [-58.27449599873609, -62.11910349251044], [-58.267753392294686, -62.125047581656546], [-58.26238945802674, -62.13125566358442], [-58.25950720767617, -62.138121003668], [-58.26081970456162, -62.14266609158687], [-58.262710057883965, -62.145786204336815], [-58.2618240097278, -62.149155976942296], [-58.2570151937882, -62.1574107266051], [-58.254922013747766, -62.16346605351356], [-58.254180821857574, -62.16812709029801], [-58.25562040758506, -62.17248475142887], [-58.269552190437516, -62.19006217554192], [-58.468723682444825, -62.23576858497704], [-58.47368175888722, -62.23481810317628], [-58.47447970783656, -62.23337416066951], [-58.47905319101626, -62.233234778356994], [-58.4876584619359, -62.1988563917103], [-58.49597315874903, -62.19800686594526], [-58.51103439208362, -62.19841918687683], [-58.53263001747098, -62.20043846170565], [-58.55817540437009, -62.20151395161538], [-58.57790147464512, -62.20050206207238], [-58.610647297218335, -62.20650608702205], [-58.61564703509578, -62.206640741752544], [-58.63065931212273, -62.2038005828535], [-58.648439241465205, -62.203036416913434], [-58.66538829465793, -62.20110196773081], [-58.67484165071721, -62.19708602347891], [-58.67845708564013, -62.194882656445245], [-58.68096250700529, -62.19215975543387], [-58.68486180763154, -62.186583577590866], [-58.68598186833042, -62.18204381059914], [-58.68404311323639, -62.180097059917514], [-58.67711335087282, -62.17633163013459], [-58.67296476760667, -62.17075130461777], [-58.672425460324426, -62.16465402941212], [-58.673274787985754, -62.15790890857567], [-58.67273101366412, -62.1536277506907], [-58.67024649415294, -62.149345478509424], [-58.66333326972693, -62.142855159801826], [-58.652267395345454, -62.135842720175575], [-58.64784002746247, -62.13376395237252], [-58.63288261414986, -62.131806236053436], [-58.62790663667974, -62.128818292131136], [-58.6232146796041, -62.12440346960858], [-58.61241878113147, -62.11246715046292], [-58.60919035365191, -62.10181794128288], [-58.60727080810509, -62.09792425267045], [-58.598194144739615, -62.08636912210277], [-58.59325181092613, -62.07896931498576], [-58.591304971609915, -62.0741752931673], [-58.589491496154665, -62.07238547643943], [-58.57506314414922, -62.06701280737602], [-58.55378797401796, -62.06438970083751], [-58.5278354544235, -62.05916135936008], [-58.498340593580004, -62.04886241272177], [-58.489263242985295, -62.04391598892048], [-58.48817141486192, -62.04235721404514]]]}}, {"type": "Feature", "properties": {"Name": "McMurdo Dry Valleys, Southern Victoria Land", "Tipo_apa": "ASMA", "Marine": 0, "Area_km": 17945.42, "Numero_apa": 2}, "geometry": {"type": "Polygon", "coordinates": [[[163.84528557213113, -78.19667438214303], [163.8383068879256, -78.19837750645267], [163.82231702735857, -78.19943862336436], [163.81868388282388, -78.2004514698152], [163.78220571667313, -78.2027775588795], [163.76741627750164, -78.2054576097998], [163.68294656158074, -78.20590931710143], [163.66496110065387, -78.20686228097188], [163.65796938265132, -78.20808349548044], [163.6461209129776, -78.20764278796824], [163.61804969496944, -78.21022166273801], [163.57979258527826, -78.21194880309211], [163.5576078404926, -78.21428291422936], [163.53377048286944, -78.21817207650903], [163.5332328987304, -78.21903646843653], [163.51332150988287, -78.22274616428747], [163.50608613198412, -78.226209565829], [163.49208034775964, -78.22991078120343], [163.47419026846183, -78.23660961889354], [163.46089661485362, -78.24300727718261], [163.46148935435377, -78.24500244950491], [163.46595884571005, -78.24971012220689], [163.47075447374115, -78.25641315864928], [163.4776606399777, -78.26023108430869], [163.51830389602583, -78.2669741377083], [163.54713636812772, -78.2661926853652], [163.57551247188565, -78.26415514542828], [163.58702573606524, -78.26437540655934], [163.59676735381598, -78.2657769270641], [163.71546040407264, -78.25330334063909], [163.71446996580178, -78.25251044082567], [163.71746789032997, -78.25029533145282], [163.74508553378647, -78.24461261656741], [163.80733752773114, -78.23572233788511], [163.8396368537773, -78.23212417480488], [163.88258327833873, -78.23231007202465], [163.91347360657934, -78.23557225008143], [163.95009479904067, -78.24425487103758], [163.96336993827646, -78.24997159656651], [163.95564654300262, -78.25446742926309], [163.49923424298984, -78.34399073965353], [162.97620255841207, -78.39953988106132], [162.952115775962, -78.39070293680808], [162.94929807076565, -78.38660996537455], [162.9341145016885, -78.38154060720017], [162.91106420770652, -78.36850450842269], [162.7196791013301, -78.32246031130842], [159.56222759825755, -77.96084373301971], [159.51092607117022, -77.88337007712674], [159.55147448473738, -77.83411822255607], [160.0531011857172, -77.74800943065742], [159.89527615490084, -77.57535310838712], [159.83841561740869, -77.2174947922896], [159.3960691125578, -76.88845756848131], [159.35685490015604, -76.53781708159853], [161.31058394143034, -76.52080435992396], [161.99956426859592, -76.54156231642558], [162.715042159046, -76.63484200744888], [162.70706231456984, -76.63769508253905], [162.70690802100833, -76.63822984707669], [162.70959527565353, -76.63854930356742], [162.7093208574791, -76.63906828439175], [162.7118839163488, -76.63917540499165], [162.70979225884702, -76.64057211286945], [162.69909671557346, -76.63991528463396], [162.6920777440479, -76.64077756311576], [162.68852209638342, -76.64199864865914], [162.68243397632665, -76.6457218152606], [162.67852871866762, -76.64660610403803], [162.67312659923272, -76.64659860865466], [162.66691642378012, -76.64509576942376], [162.66366496782595, -76.64508846977058], [162.65675238339796, -76.6488651920732], [162.65507441066563, -76.65095564500623], [162.645004650885, -76.64987923556124], [162.65063534156272, -76.6514586196289], [162.65429713790314, -76.65413656835585], [162.65844646228237, -76.65478553487117], [162.6654353376101, -76.65404503711], [162.6832881526486, -76.65441155377954], [162.69902082722234, -76.65177099836546], [162.7250207966152, -76.64998661038608], [162.7340549003387, -76.65015376379309], [162.73522894185635, -76.65064234262412], [162.73397741445217, -76.65168810495571], [162.7341162968437, -76.65267909602954], [162.73684719482574, -76.65353385852329], [162.73643486603518, -76.65642590883996], [162.73970055592596, -76.65746282672274], [162.75488346384847, -76.65774517169551], [162.7608025699871, -76.65890521302654], [162.76316751687634, -76.66011848943408], [162.78410230899885, -76.6638111453014], [162.7991334019334, -76.66525261921166], [162.80512984569535, -76.6650389324063], [162.81561318415208, -76.66647300660208], [162.83320611312868, -76.66690855095776], [162.85404949535945, -76.66948742617599], [162.8568573727373, -76.67026476350509], [162.85734621420346, -76.67159248650557], [162.85999950149687, -76.67285191776627], [162.86036747461878, -76.67391195559252], [162.86402897549954, -76.675522237905], [162.88812219659127, -76.67891716455865], [162.90249692422236, -76.68236519286704], [162.90297015573805, -76.68412742938105], [162.90161107000299, -76.68630992291574], [162.9061734418284, -76.68735553499073], [162.90274056050453, -76.68842282726327], [162.9034280205546, -76.68880420260645], [162.902313384621, -76.68965910321081], [162.8964228821341, -76.69142200937058], [162.8944249704773, -76.69246623565296], [162.8943485525391, -76.69328304370752], [162.89830100778246, -76.69603682409694], [162.9024499388437, -76.69651836136362], [162.90260319591712, -76.69789082251603], [162.90766920767567, -76.69871516148439], [162.9118053086891, -76.70088145196486], [162.92970343929957, -76.70118693842261], [162.9458013277117, -76.69637258047284], [162.95364352412122, -76.69742628424002], [162.9549254586427, -76.69813560212376], [162.95404008868059, -76.69875374200306], [162.9590145323814, -76.69969979477486], [162.9595195368246, -76.70052291903345], [162.9518130196972, -76.70140817699352], [162.93902489086994, -76.70085942206023], [162.93513498946982, -76.70172153588855], [162.94117773017322, -76.70395627153418], [162.94384842738953, -76.70680212253325], [162.9382627772474, -76.71093036136403], [162.94085648069245, -76.71225023968377], [162.9450373449189, -76.71271504657578], [162.96840016664683, -76.71301231338457], [162.97854559729583, -76.71228830673076], [162.98257435361654, -76.71349347803637], [162.98246747947192, -76.7158506161257], [162.98426718513596, -76.71723971264073], [162.98153699962066, -76.72006201347811], [162.98422148796342, -76.72147411713938], [162.98101754292108, -76.72432732725198], [162.9866484898944, -76.7263491160209], [163.0000000859525, -76.72824899173163], [162.99999976631696, -76.73303974582183], [162.98898359451474, -76.73413804661597], [162.98181150150117, -76.73770101016878], [162.97094802923937, -76.73940234547953], [162.93882640757195, -76.73985339463944], [162.93240421298043, -76.74117243570875], [162.93246508124852, -76.74185153776628], [162.93602005567993, -76.74251534340334], [162.94384838573592, -76.74607799991514], [162.9494171847273, -76.75031995685634], [162.9514615351688, -76.75328034736799], [162.95404003253208, -76.75476119627538], [162.95304872777143, -76.75572980242346], [162.9530790945254, -76.7577740358492], [162.94957002750263, -76.75952920166246], [162.96315064062986, -76.76273295842823], [162.96873486639757, -76.76530461152079], [162.96881103880182, -76.76606782189016], [162.97199887341378, -76.768181316352], [162.9759684618134, -76.76931727214715], [162.9749295039895, -76.7699583326057], [162.97726344088963, -76.77092016421551], [162.97723407402958, -76.77166763166575], [162.97302188764175, -76.7727051638233], [162.97131325420634, -76.77393362865872], [162.9706573903136, -76.77510048478081], [162.97300654680024, -76.77573434876594], [162.97053535688246, -76.77691653180776], [162.9697719273896, -76.77931247573791], [162.96676697233377, -76.78234847544493], [162.96346967376996, -76.78372231398734], [162.97255029821486, -76.78755159136848], [162.97294669884033, -76.7889478139322], [162.97074836042094, -76.78990221829818], [162.97282331256983, -76.79198497687915], [162.97073440264157, -76.79312883563284], [162.95721514773336, -76.79495961392522], [162.9474037361229, -76.79496711226135], [162.93986594648825, -76.79380772787734], [162.9336850870979, -76.795852675229], [162.93393010398572, -76.79646275998472], [162.9313808468279, -76.79768361329073], [162.9305114151158, -76.79935501340012], [162.94863942971955, -76.80098700142631], [162.95399497042234, -76.80236009506875], [162.95527614397875, -76.80389447754327], [162.95338495202088, -76.80444282218636], [162.95152244129702, -76.80621333124884], [162.95063756671738, -76.8088305167062], [162.95214814383056, -76.80950179154524], [162.95036349074496, -76.81160692473892], [162.93829367108575, -76.81549785531428], [162.93428091583425, -76.81755047194041], [162.92471323912415, -76.81980931049848], [162.9256129275064, -76.82225841184021], [162.92483565775748, -76.82308211134065], [162.92083799679904, -76.82347820691609], [162.9153450914507, -76.8227688777802], [162.91096479172063, -76.82367753511554], [162.9104614163853, -76.82488292026086], [162.9109946648286, -76.82553112888924], [162.91508503386373, -76.82643098958827], [162.91412293117057, -76.82788111841157], [162.9158627287256, -76.82842250488581], [162.91511488704683, -76.82917820080036], [162.91622908743975, -76.82973516351906], [162.91670202178662, -76.83169581114011], [162.90986581329327, -76.83453376827363], [162.91050717827625, -76.83489243540251], [162.9085383812239, -76.83636483275956], [162.9118946931792, -76.83693741304424], [162.90715080877712, -76.83855418410432], [162.908157997594, -76.8395077331163], [162.90766871424543, -76.84085086800931], [162.90237456339392, -76.84247551741508], [162.896163794382, -76.84301024274392], [162.89147920161872, -76.84610023585807], [162.8789357952316, -76.84780147504047], [162.87875363835514, -76.8483045734701], [162.88061571890955, -76.84875486539168], [162.87734954884363, -76.85107434584265], [162.86408957305466, -76.8504486479547], [162.86297612227264, -76.85103621726215], [162.864227501888, -76.85235555909934], [162.85929948213297, -76.85317952747708], [162.856033362374, -76.85155466050003], [162.8596028733339, -76.85031923147314], [162.8589331828146, -76.84960889151259], [162.8493044245921, -76.8488995086311], [162.8375086007599, -76.84690909149234], [162.82865857420225, -76.84442126854782], [162.80485615714758, -76.83521245554657], [162.791320907476, -76.8349985780638], [162.77874655090758, -76.83578536597349], [162.77429216301334, -76.83407574350029], [162.76422133270464, -76.83364117828566], [162.75845251321232, -76.83437391793541], [162.75474543310074, -76.8363573557751], [162.7510833166827, -76.8370820128792], [162.70040840432384, -76.82711826123264], [162.6839588814519, -76.82470745996466], [162.67904669875347, -76.82310527393008], [162.63244617159654, -76.81764966982705], [162.6327829455544, -76.8224176859859], [162.6314089068933, -76.82407400401868], [162.6235971496918, -76.82502712586924], [162.61985716708844, -76.8269729401233], [162.60931399690014, -76.8280106221534], [162.60922300365348, -76.8289718680272], [162.61067207456614, -76.82949073830227], [162.61497506836483, -76.82992521343168], [162.61556946812598, -76.831680470126], [162.62760925397848, -76.8316417249783], [162.62678427122944, -76.83335158669702], [162.62791454962192, -76.8355710012459], [162.6212000558542, -76.83860006706084], [162.60891730946, -76.83947750187977], [162.60862790862467, -76.84048414217965], [162.60015906918923, -76.84173573726939], [162.5908202831038, -76.84176671260812], [162.5882869896475, -76.84014887821824], [162.58631793055068, -76.84019514299654], [162.582748711225, -76.84188787549465], [162.5834808219793, -76.84342953458776], [162.57605014354132, -76.84587869718003], [162.5758814206231, -76.84703104316132], [162.57748387580244, -76.84761103612766], [162.5978234635329, -76.85001409538734], [162.58297731647968, -76.85346206825176], [162.57888832513436, -76.85551445212614], [162.57934520732746, -76.85669717800037], [162.58404419492985, -76.8582921292108], [162.58673108797328, -76.8606720445371], [162.56578079330598, -76.85994719801356], [162.55455038086907, -76.86128229508161], [162.55351251884647, -76.8619309296987], [162.55390958694588, -76.86322747773443], [162.54658504199173, -76.86463910318888], [162.55428957210594, -76.86662333573457], [162.577499594543, -76.86814898078397], [162.59350651878603, -76.8712996192862], [162.59689354740792, -76.87263494807652], [162.59391723769608, -76.87472547881492], [162.58326710619994, -76.8756943473679], [162.5654606398996, -76.8753964253365], [162.5523990175506, -76.87400819756708], [162.53509542105454, -76.87393199125569], [162.51739402373732, -76.8728030187056], [162.49292058092436, -76.87438925877562], [162.4950410944249, -76.87549533699266], [162.51136763219208, -76.87468000615026], [162.51911928916755, -76.87602195210972], [162.51910374101064, -76.87761682613687], [162.5211328116258, -76.88138624140893], [162.52078267271347, -76.88504747094522], [162.513076287209, -76.88887020513089], [162.5166931752261, -76.88903822497664], [162.51943937620237, -76.89020520389491], [162.5302585672832, -76.89050281160509], [162.53248606467707, -76.89230302972918], [162.52246110517035, -76.89449329616308], [162.52146982183524, -76.89635439894099], [162.57867402587746, -76.91034687465934], [162.58441083800912, -76.91218583452704], [162.5865325707815, -76.9136582362074], [162.58654889682572, -76.91486317327794], [162.58441136978954, -76.9164890401537], [162.560944588573, -76.92511700994258], [162.561844179911, -76.92623844850708], [162.5498193665892, -76.92821547763216], [162.5127264516489, -76.93177792604054], [162.43341064325247, -76.93513457797914], [162.3446965217887, -76.94209280311733], [162.2866356231201, -76.95150044068113], [162.29113766243358, -76.95410204537107], [162.28692533586113, -76.95557427758166], [162.29438769761802, -76.95783215784095], [162.30696007403867, -76.95950352513508], [162.31202686784752, -76.9575880735068], [162.3244168379532, -76.95703916681896], [162.33026215658666, -76.95834323139512], [162.3356470984656, -76.95783249701961], [162.3387457035383, -76.9585417355542], [162.34082153185628, -76.95753429740509], [162.3445738652941, -76.95741284367311], [162.3480064389654, -76.95874807125328], [162.33865424189517, -76.95980031078246], [162.33923271574824, -76.95992296653057], [162.3669440382225, -76.95783992559402], [162.37643518180732, -76.95609231593181], [162.3861996653881, -76.95709282922944], [162.3901060462162, -76.95586362631127], [162.40156592860683, -76.95436854846548], [162.40492134422803, -76.95589497534044], [162.41456555706216, -76.9572372515536], [162.40243425751157, -76.9596027618607], [162.4150843430235, -76.9579620984788], [162.4344171012452, -76.95723730866307], [162.42715446533043, -76.96012082332847], [162.42453036872678, -76.96234911249037], [162.41670235090834, -76.96353913609097], [162.41061427901963, -76.96607165731724], [162.41717630093942, -76.96471367878094], [162.42761227639377, -76.96409612352336], [162.44288687359122, -76.96796380839284], [162.4416042203475, -76.96858254579269], [162.44197021274783, -76.96942144205778], [162.4399867167972, -76.97196969980592], [162.43281497905457, -76.97258048833628], [162.42718435126392, -76.97431187644446], [162.42198192768197, -76.97715012131985], [162.4354709459413, -76.9781951951054], [162.43920832966944, -76.97911849169277], [162.44290191883877, -76.981330455375], [162.43788108774953, -76.98408542684119], [162.42926072304533, -76.98387104435685], [162.42680274445428, -76.98482557782717], [162.4151303487691, -76.98203286002204], [162.412354259032, -76.98313861234277], [162.40322833623094, -76.98396357434898], [162.40341083631418, -76.98480269941324], [162.40220648543283, -76.9852447230665], [162.39083873076393, -76.98355833039935], [162.38694819909767, -76.98502299934603], [162.3740843788505, -76.98579436693403], [162.37139857852551, -76.98487127013223], [162.3752293701564, -76.98336786583083], [162.36897223994137, -76.98202568962358], [162.3684986351697, -76.98310892685258], [162.36583002327265, -76.98462635783972], [162.3607789880231, -76.9845125762883], [162.36131315264333, -76.98479407451838], [162.3582159752501, -76.9856262228483], [162.34907565440736, -76.98479472417539], [162.3475654637431, -76.98388635278685], [162.3494264841596, -76.98234565139595], [162.34777866948235, -76.98187216485455], [162.3479617108425, -76.98254349640658], [162.34593171209224, -76.98343652636862], [162.32775895640523, -76.9846262410992], [162.3293906953558, -76.98542071741159], [162.3228606291105, -76.9868624798868], [162.3112340173369, -76.98567209997178], [162.30639555567606, -76.98661849218367], [162.31758096648193, -76.98741125268745], [162.3217472919433, -76.98865491757189], [162.3232874829409, -76.99014290453053], [162.3275299703572, -76.98982243847584], [162.32710264479945, -76.98899037825187], [162.32940714747096, -76.98882301318707], [162.33578527076747, -76.98949399797846], [162.3350827695023, -76.98986814685153], [162.33654842081106, -76.99002811114957], [162.3347934490639, -76.99039475813532], [162.335892905083, -76.99050103256843], [162.34126187278508, -76.98851059393964], [162.34246844968553, -76.98835741806022], [162.34297047517936, -76.98883103939338], [162.34344579173703, -76.98881503156433], [162.34286465681143, -76.98851818573422], [162.34808383540525, -76.98787635794463], [162.3669284812676, -76.98837249475855], [162.37100178351966, -76.98910519712692], [162.36235081919114, -76.99063088556746], [162.36218251759118, -76.99176824087546], [162.3659059456376, -76.99316388770566], [162.36322003636081, -76.99474344688306], [162.3642120897687, -76.9954380320515], [162.3633429170178, -76.9963225417301], [162.36509647357425, -76.99781800090953], [162.36762980414113, -76.99827585041362], [162.36088561864548, -76.99913829170596], [162.36245757840177, -76.99992325361654], [162.35986319640435, -77.00059493106632], [162.35942141868165, -77.00156371819058], [162.36180087409144, -77.00241121328133], [162.3795917674019, -77.00307509830233], [162.41664034962682, -77.00225878809432], [162.42561344028113, -77.0028685717693], [162.42927495568958, -77.00444055451406], [162.4052745249, -77.01205404679125], [162.39222664199252, -77.01722737152292], [162.38325433832986, -77.01894432441419], [162.36616474524584, -77.01919562197936], [162.36152698322582, -77.02008056297062], [162.36331169057004, -77.02133963322642], [162.36628781937395, -77.02183477778932], [162.38177450762527, -77.02209480770595], [162.40829375875833, -77.02011913753589], [162.415389937966, -77.01713543793485], [162.42085222165144, -77.01625850964093], [162.42169129082677, -77.0158617208517], [162.42066919800791, -77.01475547965568], [162.42315719302087, -77.01418289025003], [162.4374844229523, -77.01555658934916], [162.4413451532037, -77.01776082511634], [162.45433061003615, -77.02017234750528], [162.47393832936743, -77.01470163723224], [162.49565115182176, -77.01182609852503], [162.5412912937628, -77.00397452628552], [162.55023188742655, -77.00345627510656], [162.5620722619785, -77.0058749561167], [162.57348621464652, -77.00606533084662], [162.5849454245845, -77.00542473390107], [162.62037669850616, -77.0012967951858], [162.64524906763467, -77.00040406883139], [162.65977562118653, -77.00183818305018], [162.67785564974943, -77.00725574866885], [162.67694126098365, -77.00878899762014], [162.6680288224015, -77.01242877696615], [162.66764745935762, -77.01318409808778], [162.66416901552344, -77.01435065630707], [162.65731806205395, -77.01513647605896], [162.65924059103656, -77.01622019276736], [162.6558846522313, -77.0194929541479], [162.65719613060924, -77.02126353498932], [162.66323863442167, -77.02354445834698], [162.66224681374015, -77.02532961152804], [162.67097561479756, -77.02609978702914], [162.67498789414344, -77.02751175281124], [162.67802379258433, -77.02711494024722], [162.68112073590595, -77.02493332940679], [162.69503907763618, -77.02265122203885], [162.71221861123092, -77.02478835128015], [162.7191320827168, -77.02353639876199], [162.72735592170227, -77.0201339124925], [162.76051338505675, -77.02048469155166], [162.7696380630894, -77.01793693808911], [162.7805789233471, -77.01760824978594], [162.7806084963876, -77.01550342829566], [162.78131085383666, -77.0148088225694], [162.78799469866286, -77.01302358588951], [162.8002933838703, -77.01258076411146], [162.80569580831553, -77.01330517140441], [162.82466134613793, -77.01159669974236], [162.86587464096812, -77.0126801568985], [162.8704831712767, -77.01433603251455], [162.87277277080804, -77.01646372969148], [162.8780526874956, -77.01834060438914], [162.8776549025531, -77.01930234740406], [162.87878383994226, -77.02018784622666], [162.8935398314135, -77.02120983375973], [162.89816261831234, -77.02314753756139], [162.90098544509388, -77.02296454643441], [162.90052779736413, -77.0225750616638], [162.90359540995928, -77.02078971522484], [162.91210954348367, -77.01773059953126], [162.92898505585498, -77.0187150592984], [162.92858897374592, -77.0211483700241], [162.9315337960919, -77.0228041197143], [162.94284058117069, -77.02024125567996], [162.95129405626838, -77.01710481847392], [162.95269749006522, -77.01734178520383], [162.95333893182755, -77.01844736528878], [162.95617617032119, -77.01866185469721], [162.96539232663034, -77.01755542531899], [162.99214224825346, -77.01638802065769], [163.0248106918246, -77.01740287966247], [163.02951106532208, -77.01837871750863], [163.0407103924072, -77.01795961439765], [163.0525657794509, -77.01923384004078], [163.0618892374964, -77.01840264410792], [163.06327815055798, -77.0188219779426], [163.06126452527886, -77.01938621168712], [163.06135611713722, -77.02043899687959], [163.0641624003644, -77.02146963688507], [163.1087647607713, -77.02758742800124], [163.13087451186274, -77.03195214241174], [163.1363681376012, -77.03147108190088], [163.16345174604345, -77.03247066296595], [163.16725200811817, -77.0319594495705], [163.16925049758115, -77.0305019181757], [163.18131965663986, -77.03350085731304], [163.18957443570358, -77.03292115143012], [163.1927342430076, -77.03491959313885], [163.18812545200285, -77.03542383999861], [163.18591295516816, -77.0369108514952], [163.17748991369507, -77.03697228574761], [163.16963162875325, -77.0388182045096], [163.16813700206757, -77.04013076947379], [163.17030299502156, -77.04286238085372], [163.16737425281917, -77.04422727827502], [163.15896639288786, -77.04464684587252], [163.15966807044796, -77.04563126827868], [163.16606146674908, -77.04850737185878], [163.16694579045534, -77.0502782242142], [163.16569470665735, -77.05328388397075], [163.160004446162, -77.05644212475688], [163.1516581337792, -77.0584026788956], [163.15090917944175, -77.05938015120451], [163.15893491064915, -77.06161529133442], [163.16339163088105, -77.06195777298545], [163.16195571550682, -77.06490359635721], [163.15452573479664, -77.0649259633472], [163.15480092941525, -77.06560480946567], [163.15208493517386, -77.06696310303121], [163.12994447175672, -77.0714259204971], [163.12480209898604, -77.0734710263419], [163.12400919255654, -77.07447772839132], [163.12970004586745, -77.07600402085316], [163.13423122879118, -77.07620215510097], [163.1350551037426, -77.0772246920473], [163.13546862911767, -77.08087117454681], [163.14053427823845, -77.08292339754841], [163.13580329840968, -77.08428906130891], [163.13507110628225, -77.08579275663013], [163.13993824017044, -77.08827200577997], [163.14166280753872, -77.09126263836295], [163.15020729275193, -77.0934750663741], [163.15344307393266, -77.09687760488906], [163.15336608541676, -77.09835792298762], [163.16014103896202, -77.10163143130056], [163.17427146089062, -77.10305738269575], [163.20457459932103, -77.10363754973898], [163.21363745721786, -77.10626261188224], [163.21827640627671, -77.10855142802136], [163.21916200218172, -77.10831425979661], [163.21949708202553, -77.1068577106667], [163.21786531612378, -77.10526283018434], [163.21874952911494, -77.10429434717065], [163.22253434194525, -77.10465239674961], [163.23139842691907, -77.10768929943634], [163.23278774268914, -77.10750616037944], [163.23400969011342, -77.10541495933018], [163.23509306861797, -77.10511748092794], [163.23472595127907, -77.10434737009163], [163.24160793278972, -77.10780357235457], [163.2526698242302, -77.11035198718143], [163.25405884068823, -77.11111464846992], [163.25376907742026, -77.11243398816853], [163.2698973734929, -77.11771378995574], [163.2895973189205, -77.12559467077345], [163.29737938466647, -77.1299587871942], [163.29859912116882, -77.13153075134399], [163.28482087779102, -77.1335678116385], [163.2695608605468, -77.13259158068824], [163.23608438386555, -77.12162037286302], [163.24720669842827, -77.1307528714928], [163.24803237294464, -77.1324308129572], [163.24726861155958, -77.1336437125542], [163.24923590575509, -77.13602489439128], [163.24902262468177, -77.13732931013364], [163.2600098993964, -77.1424023974479], [163.2630775261502, -77.14580524371716], [163.25865186007607, -77.14630069587936], [163.25366150619303, -77.14521050053789], [163.23231455067676, -77.13964891469868], [163.2276456849804, -77.13726773120442], [163.2258301735687, -77.13707701990434], [163.22790540331548, -77.1378015482899], [163.2258304695771, -77.13927437671231], [163.23449706563662, -77.14246382977525], [163.23603906479474, -77.14372223766284], [163.23637405057838, -77.14518697102835], [163.24421692023805, -77.14921548947541], [163.25627212663, -77.15210695909931], [163.259612233056, -77.15454882706157], [163.27024747120825, -77.15773817948798], [163.29995784341457, -77.16218533624338], [163.335266552925, -77.1657175403444], [163.36354155887673, -77.17017314166536], [163.37965360472376, -77.17451477526545], [163.38548252552567, -77.17790215078826], [163.3863685670968, -77.18028224041237], [163.388030887655, -77.18184660013466], [163.387680595888, -77.18277711274378], [163.38530069947095, -77.18386031666586], [163.38548270955434, -77.18521872777217], [163.39169266177706, -77.1884766172083], [163.3941491276237, -77.19236017429033], [163.39390587654364, -77.19377107066232], [163.38919103782166, -77.1973192130058], [163.3897709353093, -77.19914994427701], [163.39302047783212, -77.20137064542564], [163.39842112039616, -77.20205726942267], [163.4033960997403, -77.20372030253193], [163.40310659942318, -77.20499409469467], [163.40600640506318, -77.20743566083766], [163.40490678710069, -77.2108230916932], [163.4070589698044, -77.2125545474315], [163.40676925604575, -77.21419486153519], [163.41686912789538, -77.22306873017446], [163.4308470905912, -77.22885901293145], [163.42932167521812, -77.23255164333564], [163.4330287701042, -77.23377275752493], [163.44856223438896, -77.23550404178451], [163.45754958437456, -77.23741171099867], [163.47586074912135, -77.24385046976154], [163.4776453811828, -77.24475120910907], [163.47795072185048, -77.24599494478387], [163.4802084964216, -77.24811596656275], [163.47827178798187, -77.25134255275093], [163.4807899371642, -77.25225802589269], [163.47744768273083, -77.25458513039719], [163.4717411527945, -77.25609578037754], [163.47181737330553, -77.25722495631129], [163.4743186790629, -77.25810259250149], [163.474807581212, -77.25905599004619], [163.4784542438644, -77.25936105728849], [163.4804994421948, -77.26074946149703], [163.4790791240153, -77.26247439107196], [163.4844514824198, -77.2635111679634], [163.49252268249958, -77.26348151543205], [163.49906947971655, -77.26474759505096], [163.50018273359348, -77.26544991834906], [163.50006140240765, -77.26625775230562], [163.49697847330177, -77.269294575043], [163.50647088935597, -77.27380332188584], [163.53001366590325, -77.27624511993328], [163.53027281981613, -77.27738233123942], [163.5281835064937, -77.27967781073764], [163.52406323166812, -77.28072305304396], [163.52326886104157, -77.28178457398674], [163.53169266106457, -77.28814703209338], [163.54266344773413, -77.29335008595388], [163.5356290408992, -77.29804986813073], [163.52702397757926, -77.30015557807862], [163.5254979030807, -77.30114710157095], [163.52584793612664, -77.30213969915576], [163.5323491680771, -77.30419132870077], [163.53572105214295, -77.30614491165623], [163.5459282635261, -77.30868560880518], [163.5605618364707, -77.30733523603483], [163.56382709498934, -77.30602255362778], [163.56101998066563, -77.30615226929302], [163.56286698001273, -77.30480926911964], [163.57008280256622, -77.30197949386333], [163.57434046874735, -77.30152891873291], [163.5796209445728, -77.30232986844855], [163.5805811640929, -77.3032383812915], [163.58029128756522, -77.30394736753946], [163.5775458777354, -77.30505317005486], [163.56777924221606, -77.3064269707069], [163.56451317201356, -77.30768628831807], [163.56437607810292, -77.30827365400218], [163.56721546921005, -77.31056177336615], [163.56675653608113, -77.31154672220566], [163.5644980251224, -77.31241623692013], [163.55969228568617, -77.31263698019914], [163.54770010487462, -77.31062272302347], [163.54202212881367, -77.3118594265768], [163.53918572400656, -77.31405591031344], [163.53811708624744, -77.31644423585526], [163.5318294912439, -77.31940441378254], [163.52900783650642, -77.32192212440967], [163.52957030773632, -77.32464648588736], [163.52906763555808, -77.32494347479349], [163.53335582969726, -77.3295208067387], [163.55120861185276, -77.33368680209519], [163.552002076321, -77.33449573813108], [163.55255204393103, -77.33905770936121], [163.5472104036151, -77.34300248846517], [163.54457089413253, -77.3455964317642], [163.54464781046065, -77.34654989076478], [163.55374099884614, -77.34935758313988], [163.55479458293414, -77.35103568971654], [163.5616457013547, -77.35481221896782], [163.56509466598118, -77.35769647263835], [163.5589898029841, -77.35955821485454], [163.551879611578, -77.36340368227879], [163.5400085245878, -77.36711113096416], [163.53944416837135, -77.36909505174934], [163.54006949212706, -77.37014803664654], [163.5535879393226, -77.37127730794815], [163.55561914349, -77.37201664154425], [163.55525201853052, -77.37327575698004], [163.55903696007286, -77.37159702162052], [163.5711973858455, -77.37239807411625], [163.58676097804633, -77.37609908348414], [163.59474218014824, -77.37996631814549], [163.60410994579786, -77.3823018314779], [163.60453784882876, -77.38286629125552], [163.60160874314246, -77.38388818454311], [163.59063707803983, -77.38585673418615], [163.6003878657213, -77.38645893084173], [163.60410993021944, -77.38812295659295], [163.5989067576644, -77.39163976066938], [163.59513925683717, -77.39277620416394], [163.61372413984506, -77.39598861359153], [163.6141518740832, -77.3966596791538], [163.61335740059965, -77.39763633677507], [163.61575307010438, -77.39830804649635], [163.7056579654103, -77.39450048236395], [163.7141258134099, -77.39489023600487], [163.7213278832812, -77.39672125717911], [163.73249847119354, -77.39694966676014], [163.73907520679998, -77.39820828290624], [163.74352963487337, -77.3999866479721], [163.74653708294787, -77.40339627239855], [163.74598685546033, -77.4051131617316], [163.74194278377715, -77.40763131040826], [163.7355796617785, -77.40982076103037], [163.73423788344368, -77.41072808772589], [163.73352085221882, -77.41276499572461], [163.72802677010358, -77.41479539349932], [163.72741632936956, -77.41585590445993], [163.72938543713315, -77.41772494750039], [163.73731985566295, -77.42058559248676], [163.73638952833383, -77.42193614086179], [163.73666451613497, -77.42285154488614], [163.74084444875814, -77.42529319450908], [163.74938998772845, -77.42857326881925], [163.7610940893581, -77.43131987974138], [163.78121974528233, -77.4339060716999], [163.79182399001544, -77.43432606600211], [163.80502313218676, -77.4332126267326], [163.81718419527311, -77.43078620961982], [163.83367941506577, -77.42949629814703], [163.83589152039445, -77.430641132959], [163.8357859020603, -77.43157932115787], [163.8143466475617, -77.43689719140525], [163.78930656052975, -77.44170380692898], [163.7690132295612, -77.44851660059956], [163.75129629006904, -77.45175986063728], [163.7474523449766, -77.45467332021622], [163.7503365817411, -77.45843465625943], [163.7579647649559, -77.46117405915228], [163.78973414368198, -77.4692836839016], [163.80537456097505, -77.47452517004398], [163.85676530454006, -77.48577891147139], [163.85432378570314, -77.48797603151984], [163.8548583627931, -77.48979983402072], [163.84928821957385, -77.49296588846349], [163.8487233705185, -77.49453015087512], [163.8459165118928, -77.49677319025054], [163.84713752735433, -77.49823754844142], [163.8462982572661, -77.49905404706315], [163.85003575745003, -77.50068682960821], [163.8530579697191, -77.50547050882054], [163.84889251414475, -77.50832369038268], [163.84724471388066, -77.51139034536992], [163.83947680857608, -77.51593039754746], [163.81266854083148, -77.52103414258984], [163.8018636697132, -77.5245594658486], [163.77613932143788, -77.52825138501386], [163.7639925670481, -77.53270719465392], [163.7415769774515, -77.53807834597036], [163.70971636178874, -77.54275513832746], [163.6963807701617, -77.54312856116233], [163.66734353841133, -77.54681401450277], [163.65649353027914, -77.54566206670371], [163.61884988165647, -77.54458643364839], [163.60078390072172, -77.54527303438822], [163.5660396890894, -77.54827884811237], [163.55183377411413, -77.55054482518156], [163.55445938566717, -77.55211618130261], [163.54925489169324, -77.55429094492432], [163.533904520667, -77.55467256525664], [163.52859396420595, -77.55650360724826], [163.5096135971266, -77.55906673741374], [163.50910847452965, -77.55969290046757], [163.51005522018846, -77.56036422912904], [163.50982725299428, -77.56198082808656], [163.5089719329788, -77.56261432389806], [163.4983217988996, -77.56394924964553], [163.50024516377923, -77.56542916837313], [163.5074170143085, -77.56591747002216], [163.5089421426075, -77.56663515621719], [163.50685074524856, -77.56717681337663], [163.50741492810735, -77.56771103902939], [163.50694261310542, -77.56846626519219], [163.51271090001347, -77.56900004732282], [163.51103154020743, -77.57035096848442], [163.50238054623247, -77.57186845337651], [163.50241074389828, -77.5726165950059], [163.5000603568202, -77.57448593443122], [163.50100618826144, -77.57492112692957], [163.51777686069693, -77.57617943859184], [163.5264887768509, -77.57823219513841], [163.5402823256496, -77.57709539142259], [163.56253053686166, -77.57689703907526], [163.57679703129074, -77.57854473189514], [163.61886523274546, -77.58619699401379], [163.68484434356645, -77.6004793159525], [163.69085603923355, -77.60304283972917], [163.69622905932857, -77.60646794660468], [163.69859329519244, -77.61046604717217], [163.6994777942914, -77.61396823833043], [163.70342990677207, -77.6176758467678], [163.70326275251796, -77.61959847509937], [163.70199555350138, -77.62128502666414], [163.70420784123712, -77.62382500497894], [163.7006684176727, -77.62648806122114], [163.70457432110192, -77.62962364831762], [163.7049103132107, -77.63117247846287], [163.699081965433, -77.63436082022753], [163.70381221256756, -77.63853410087111], [163.70049994706042, -77.63966372140585], [163.69972291094888, -77.64111328523776], [163.698135759061, -77.64182229225327], [163.67390425587055, -77.64519504920717], [163.67234846874968, -77.64598068642587], [163.67193556733852, -77.64778162505705], [163.6289215190689, -77.65443430353129], [163.59365791595351, -77.65708917269174], [163.54669216340696, -77.65886657148026], [163.4837499895527, -77.6625364504983], [163.4920048843647, -77.66458901919044], [163.49238612121712, -77.66705284790469], [163.49354589742586, -77.66776230572077], [163.49272138694505, -77.66862498751364], [163.52046282234366, -77.67111165469849], [163.52427743100418, -77.6727063702159], [163.5244905890861, -77.67318728895118], [163.52221618617878, -77.67437008276504], [163.51777665215135, -77.67570443295581], [163.51684575749135, -77.67767333552598], [163.51890555098694, -77.6784749839738], [163.5187079693929, -77.68046529189596], [163.5214697880847, -77.6829829532608], [163.52151506087102, -77.6837083746632], [163.51750245987262, -77.68586723714124], [163.5188140279589, -77.69087994344801], [163.52092021123752, -77.69416771802054], [163.52545160666847, -77.69595315996466], [163.52198833622163, -77.69813510543142], [163.52246046514924, -77.69970732347173], [163.51760843097438, -77.7004930492587], [163.51096983624015, -77.7028889687141], [163.50160204045133, -77.70429988057008], [163.493209521888, -77.70734454434657], [163.49493352082058, -77.70837421561201], [163.49362094032534, -77.71040371870556], [163.481674408718, -77.71202794684598], [163.47599781624177, -77.7145083553037], [163.4758758910887, -77.71553794016859], [163.47480687644827, -77.71598077700801], [163.45913640247855, -77.71945243910399], [163.45922843690275, -77.72077931546221], [163.46040399137644, -77.72164883020204], [163.47314491686208, -77.72338859301107], [163.54037561211658, -77.71784194576979], [163.5658413135565, -77.71774277088387], [163.5879510706402, -77.71653772800484], [163.62158160267512, -77.71647662062489], [163.63546798014605, -77.71530153885925], [163.67141641000683, -77.71444735716538], [163.69427439772764, -77.71222737496323], [163.7227939229395, -77.7118301813362], [163.76754864390452, -77.70976225850825], [163.78854403791775, -77.7073896335368], [163.83442616029407, -77.70437635899323], [163.91114837038631, -77.69562540137778], [163.91316277717092, -77.69284812033155], [163.91880805893703, -77.69127694098364], [163.92405675239672, -77.68860623898499], [163.9431617376864, -77.68670624399566], [163.97529528399127, -77.68052688638433], [164.02367746947607, -77.67624491292447], [164.040870544135, -77.67160573638094], [164.05553040479194, -77.66633838159672], [164.0677860183145, -77.664028927017], [164.09664012006718, -77.66168010796275], [164.11779638975366, -77.6625796160308], [164.1307613642142, -77.6621281271441], [164.16644082902747, -77.65824805046665], [164.19268073603342, -77.6570566480728], [164.21523698596943, -77.65279343430205], [164.24355698140494, -77.65486347106767], [164.28627729452379, -77.66052912767502], [164.2995776419417, -77.66282245468874], [164.30838073326083, -77.66530813520195], [164.32541918017304, -77.66738910784377], [164.33382042242005, -77.67240165987563], [164.33931745685845, -77.67424326938504], [164.3485806742314, -77.67564832364897], [164.36501319523813, -77.67666854195996], [164.38353571841088, -77.67944728791565], [164.38556924379137, -77.6816477508999], [164.39822483380593, -77.68836528129609], [164.40045822680358, -77.69091752873278], [164.40648756398284, -77.69455555355684], [164.41064410335935, -77.69839374136504], [164.4155416287968, -77.70596115214127], [164.418916787714, -77.70969578801704], [164.42286554506978, -77.71668661897499], [164.42574657138312, -77.71855842470195], [164.43579894076723, -77.7219418414368], [164.47875519349662, -77.73162511636617], [164.4886594831485, -77.73264412873996], [164.50643223808294, -77.73236937902334], [164.51804824243152, -77.7343002855199], [164.52124293717839, -77.73595234495917], [164.52040540639194, -77.73808496138408], [164.52080007802482, -77.73898660938896], [164.52998240397275, -77.74320075668973], [164.5301278363975, -77.74404047478251], [164.51499603842333, -77.74962113562691], [164.5148516407213, -77.7506800348092], [164.5186567857362, -77.75178219404295], [164.5195675738075, -77.75279919239304], [164.5193732973413, -77.75413852146518], [164.51396216190258, -77.75748437594608], [164.48777832506707, -77.7595518068175], [164.49369870446841, -77.75978804203257], [164.48912047472203, -77.76129943262447], [164.4904179342966, -77.76271020819735], [164.49665717427865, -77.7631764225489], [164.50030447479165, -77.76252769261443], [164.50200003884848, -77.76302296657079], [164.5021663470627, -77.76234431390604], [164.5187225422909, -77.76034518305156], [164.5198969163039, -77.75936920970429], [164.5234524507079, -77.75980353764565], [164.5246735463684, -77.7590558280017], [164.53256260092456, -77.75978812103315], [164.53541492874137, -77.76084923796569], [164.52024854586864, -77.76482360915992], [164.51565675114404, -77.76457169571832], [164.49288988768612, -77.76808111906662], [164.48796089857214, -77.77073648283903], [164.48686223020758, -77.77221654582621], [164.4864959156523, -77.77333107882042], [164.48933404113146, -77.775703946641], [164.48959421292685, -77.77727453954006], [164.48824959163517, -77.77885474748881], [164.4891971271632, -77.78027324900972], [164.48841834667206, -77.78098329933842], [164.4887838650534, -77.78218100978346], [164.48696932462514, -77.78402653863351], [164.4841616524959, -77.78523978416456], [164.48316919757903, -77.78775840999381], [164.48330717553065, -77.78860502749157], [164.48715295484197, -77.79102281687538], [164.4827722040469, -77.7948306063476], [164.4849103116251, -77.79923966839742], [164.48419211958736, -77.80241344702259], [164.4829710165718, -77.80380982353246], [164.49464455792585, -77.8115614338738], [164.5023185483616, -77.81401853394786], [164.50338806338962, -77.81626117262186], [164.5033574751115, -77.81842051935452], [164.50916994399276, -77.8213503701965], [164.5103906753305, -77.8241579553994], [164.5189213688356, -77.82731590885919], [164.52900652033094, -77.82829334764658], [164.53182907540028, -77.8292315264907], [164.52568060379295, -77.83129100817696], [164.52059937568777, -77.83527386977843], [164.52076609300164, -77.83623539808157], [164.51615902684952, -77.83894353750058], [164.51545659956008, -77.84015667688264], [164.5180200659053, -77.84109514826517], [164.51895239698, -77.8435208278851], [164.51791357558653, -77.84464232203317], [164.502105185662, -77.84816014071797], [164.48748838072703, -77.8526684944014], [164.49928290862036, -77.85584220654509], [164.49772684055063, -77.85607854123782], [164.51043651282552, -77.85863520780534], [164.5150453565784, -77.86062573519004], [164.52290265724022, -77.86190070555473], [164.51565537798035, -77.86236542723393], [164.51454134161133, -77.8630374463357], [164.51715144796452, -77.86409767997259], [164.52598599979356, -77.86522622263382], [164.526733093783, -77.86647070472391], [164.53044151073135, -77.86787450114097], [164.5361948431662, -77.86775925770316], [164.54357842219628, -77.87216206309166], [164.54924106423215, -77.87323731627838], [164.5530549821856, -77.87310811247481], [164.55140709999003, -77.87389329028659], [164.55189625540328, -77.87447312512289], [164.55006350846017, -77.87776978301702], [164.55126955768654, -77.87945514128248], [164.54959090436398, -77.88051608051128], [164.5617208274022, -77.8839037192229], [164.56115659960193, -77.88470462034668], [164.5572964006165, -77.88577254970758], [164.55639720604293, -77.88825202398141], [164.55775428816267, -77.88902265005522], [164.55836428686675, -77.89038876130249], [164.55786138718486, -77.89161715529136], [164.559386427793, -77.89244117389372], [164.55941795459816, -77.89319634397188], [164.55528348877854, -77.89378329488764], [164.55812023728714, -77.89452392885586], [164.55805902592155, -77.89574487259732], [164.559081039264, -77.8964617909187], [164.55810682948555, -77.8971705107143], [164.56190478352318, -77.89926205664702], [164.56089896905766, -77.89994770901212], [164.5627280812513, -77.900512951156], [164.56245370398003, -77.9013295202314], [164.5652011378177, -77.90167985860128], [164.56672736507014, -77.90373181578484], [164.56968740945533, -77.90503661676587], [164.5706778507291, -77.90624278410974], [164.569870797634, -77.90655505168027], [164.57078546024877, -77.90683702320426], [164.57016008923705, -77.90715035596659], [164.57281515545156, -77.90856140108271], [164.57168605607146, -77.90928603457019], [164.5729977229292, -77.91177414509843], [164.5720067496339, -77.91256700366493], [164.5725246429667, -77.91330775599268], [164.5586696786111, -77.9138715653926], [164.54231285592496, -77.91753389275817], [164.53221159946563, -77.91873920486356], [164.53155561534166, -77.92011249873403], [164.52972461834074, -77.92124885056995], [164.52984613974567, -77.92221841990903], [164.53190598410862, -77.92330970120307], [164.53218083509148, -77.92440033667859], [164.52532930379536, -77.92713917491542], [164.525376067279, -77.92852017578532], [164.52880917955662, -77.93022126132448], [164.52853409979053, -77.93152574340469], [164.52569633595553, -77.93431057198615], [164.5234381192076, -77.93481408242828], [164.52458291803498, -77.9355311278327], [164.5188748910725, -77.93597427863743], [164.51847813587662, -77.93639422147987], [164.52188075168291, -77.93661484607232], [164.51770013297596, -77.93740036589647], [164.5253145989843, -77.93685140169771], [164.5276027442293, -77.93777513073145], [164.51928589521208, -77.93957566429567], [164.53006004772885, -77.94002548178096], [164.52334573576164, -77.94051338956025], [164.52873155016772, -77.94174975787004], [164.52435365487872, -77.94095556551481], [164.52146813360966, -77.9412693020704], [164.51803564181816, -77.94022377343869], [164.52273601004637, -77.9419781021766], [164.52200359249716, -77.94327509662472], [164.5245669040059, -77.94371039707578], [164.52395670316852, -77.94444281227135], [164.52859475957513, -77.94429059362837], [164.5278927679729, -77.943145693269], [164.5343022878595, -77.94399226431854], [164.53981025134567, -77.94662419629795], [164.54444847820957, -77.94547256822355], [164.54057351616572, -77.94738752547924], [164.53752161179682, -77.9471356243661], [164.5389849911055, -77.94791461200012], [164.53735289635733, -77.94805180278495], [164.5391547608099, -77.94904284591455], [164.53781233209673, -77.95165214644534], [164.53852845202903, -77.95195805693419], [164.53475893679797, -77.95252218629145], [164.53888032305795, -77.95407825221017], [164.538207533483, -77.95438426687247], [164.5386951706845, -77.95564306393253], [164.5333870701433, -77.95982344004972], [164.52800103188284, -77.96115061295075], [164.53088445543912, -77.9622950606254], [164.53068465969432, -77.96474493855821], [164.52644424868558, -77.96549936727213], [164.5259398501071, -77.96585056940289], [164.52786350376647, -77.96693368940957], [164.52143877617124, -77.96930658633354], [164.52206440806563, -77.96966516498208], [164.52154461916228, -77.97081041596495], [164.5236500281053, -77.97174104367576], [164.52998398570583, -77.97168723883844], [164.53102026871557, -77.97245805433518], [164.52683999197936, -77.97615835831968], [164.5308238182088, -77.97652395636409], [164.53117403841617, -77.97855324859688], [164.52919068902088, -77.98011020502244], [164.52981468888476, -77.98307069135357], [164.52757290215533, -77.98469548884174], [164.52160644034194, -77.98608432138398], [164.52610778315372, -77.98783918205014], [164.52491681200232, -77.9891667027776], [164.5256814662803, -77.98994428306152], [164.525222654728, -77.99109666984442], [164.52380360245414, -77.99166101581514], [164.53074585219434, -77.99532331459399], [164.52967788099258, -77.99721548296263], [164.51972940849595, -77.99964875574412], [164.52050882175135, -78.00157890113262], [164.52235545429892, -78.00211284267232], [164.5210269594463, -78.00363928536956], [164.52293397527234, -78.00620249343314], [164.52029423463247, -78.0076901186293], [164.52044657173812, -78.00863680098927], [164.51751696602082, -78.01041372303318], [164.51744147551938, -78.01142881792016], [164.50810285207254, -78.01510615844548], [164.48584068425774, -78.0205152688776], [164.47210687424504, -78.02231567409669], [164.45973095520853, -78.02494081262432], [164.43508838607036, -78.02541405276709], [164.3780220997465, -78.02911347685927], [164.34742808623406, -78.02884642543464], [164.33267228972176, -78.0307620008739], [164.31407220729338, -78.02894592913633], [164.3000334323295, -78.03050214548517], [164.30516153750807, -78.03104353938336], [164.30761697208874, -78.03210429134279], [164.30665572236066, -78.03237938208048], [164.29325884787895, -78.03243201833953], [164.28483668037103, -78.03118844391648], [164.277359062304, -78.03203628717287], [164.29212944049766, -78.03467579326805], [164.29666216372092, -78.03420217110941], [164.30233691321223, -78.0347978759328], [164.30363543153126, -78.03459920009591], [164.30078135147377, -78.0343394299539], [164.30522182806243, -78.03375980182966], [164.31788620997716, -78.0346299302639], [164.32051134426194, -78.03421754276494], [164.31187369943044, -78.03354663991671], [164.30598493933422, -78.03056294109956], [164.31192006668473, -78.03009052668774], [164.3149112416341, -78.03111263434785], [164.3196257052761, -78.030540571388], [164.31893879843034, -78.02976981032417], [164.3213494930473, -78.0297931386268], [164.32513460085735, -78.03073125206376], [164.32334902565978, -78.03124216735922], [164.3240961520568, -78.03150204625608], [164.33221430837776, -78.03133363869014], [164.33964566807683, -78.0330120824515], [164.34725921570842, -78.0365676535617], [164.3540794236389, -78.03764360238965], [164.35262970111611, -78.03859745776803], [164.35636867721422, -78.04046615835975], [164.3533625216135, -78.04248832743023], [164.35420264013564, -78.04379267226143], [164.34393302611463, -78.04650936202648], [164.34280371933036, -78.04790517683607], [164.34307945150246, -78.04918630578864], [164.35342397348538, -78.05225408477274], [164.37107898611725, -78.05156676366839], [164.37583888672535, -78.05471043200842], [164.37490849933886, -78.05548054340004], [164.37550411556862, -78.05637329358892], [164.38867286314633, -78.05883755480515], [164.40313836187556, -78.06020321264914], [164.40536581941308, -78.06157654510424], [164.41030904359764, -78.06257590149518], [164.41160519065537, -78.06445325794647], [164.415618462038, -78.0656434255549], [164.4152828691636, -78.066596829219], [164.42088343932286, -78.06789378185599], [164.4231568756001, -78.06955664910276], [164.4234011648133, -78.07003050400651], [164.41978448581398, -78.07133491151262], [164.42279072405938, -78.0757289342594], [164.4212483272721, -78.07826283675107], [164.41073680854697, -78.08284732360141], [164.40205334911656, -78.08445794691087], [164.39021249420117, -78.08829554097827], [164.3822162908824, -78.08815808371412], [164.38148446817235, -78.08886773444914], [164.38356004670916, -78.0894166575932], [164.3658439429986, -78.09265948814237], [164.36015237941876, -78.09503945381573], [164.34867798164208, -78.09790821702317], [164.3356017253997, -78.10032708527635], [164.31472801779623, -78.10176086961275], [164.3105020069052, -78.10278271728545], [164.31068350577033, -78.10366839554648], [164.30957065557823, -78.10469790218016], [164.3007963600885, -78.10545387383736], [164.2856598707721, -78.10996986753207], [164.27661251062923, -78.11074031934749], [164.24864191260002, -78.11586040094868], [164.23644992475585, -78.11936243469388], [164.22868273250427, -78.11845408919034], [164.22938584449665, -78.11780520354998], [164.216354581118, -78.11750004650322], [164.21121197352412, -78.11658530002288], [164.20147623615816, -78.11743213187161], [164.2086187934163, -78.11760688038459], [164.2087404962924, -78.11853811065772], [164.20748799469152, -78.11925559464083], [164.21093687100824, -78.12101008277213], [164.21043386255883, -78.12180317300557], [164.20227035813556, -78.12304712210751], [164.21676605704627, -78.1252292575117], [164.22160273138067, -78.13153085846717], [164.2190546237252, -78.13358356591068], [164.2072911251301, -78.13803863832955], [164.20243953019198, -78.13907589253168], [164.20451368775005, -78.13814572158763], [164.19535908430453, -78.13832074589246], [164.18617231667076, -78.1413954478856], [164.1950529249099, -78.14092298388414], [164.19520560647717, -78.14157090754284], [164.1932992714691, -78.1426007977034], [164.1791980988176, -78.14524873876583], [164.1783290396383, -78.14501232176383], [164.18080107706498, -78.14395146234921], [164.17788639991122, -78.14379119578527], [164.16908326419772, -78.14702551017285], [164.15580743039234, -78.14746139713881], [164.14982546702586, -78.1500172936171], [164.13388072331287, -78.15200846471251], [164.11320585140015, -78.15201545060454], [164.1221772062094, -78.15039097159685], [164.12101685303278, -78.1502154447], [164.1033177511437, -78.15109984580968], [164.10029614527434, -78.15192354779977], [164.09268148588146, -78.1521149650684], [164.09320129364622, -78.15252664594372], [164.09022457115742, -78.15368683196824], [164.10699381847544, -78.15237447676992], [164.10133288326028, -78.15413667476606], [164.08767714916434, -78.15527355132159], [164.08454937472104, -78.15631834604146], [164.07240255093458, -78.1577301465413], [164.0680097166041, -78.1577830249257], [164.06759654384635, -78.1574402663825], [164.06913640111932, -78.15664710144843], [164.06739798913085, -78.1565014103296], [164.0444181752746, -78.15754705624471], [164.05831886523492, -78.15778340033955], [164.0451202368785, -78.15811173045965], [164.05230612305402, -78.15917994704178], [164.06359764876925, -78.15764641917153], [164.06057707153118, -78.15727986926375], [164.0616456973503, -78.15698962112685], [164.06445240513142, -78.1579132301893], [164.05882223876816, -78.15964494055775], [164.04899598583145, -78.16069828101195], [164.0478374265885, -78.16184187287446], [164.03479073187395, -78.16276518831255], [164.0329597074412, -78.16390961259239], [164.03501881901093, -78.1654126729526], [164.0275728125616, -78.16807525216365], [164.02394099989607, -78.16813681763402], [164.01992760420922, -78.16646552112873], [164.01709030463883, -78.16620644416342], [164.01853950939167, -78.1654434872337], [164.02204812172963, -78.1655276001188], [164.02210960006678, -78.1650088581151], [164.01965411429185, -78.16451992269839], [164.02020300836924, -78.16361998285258], [164.01918055953715, -78.16335262142735], [164.01634171774967, -78.16362761402321], [164.01597611790416, -78.16294872643105], [164.0120694859857, -78.16374962473134], [164.0153187772216, -78.16381861018357], [164.0138094771597, -78.16437546344794], [164.00546219360132, -78.16516166656612], [164.00442421007176, -78.16590140197113], [164.0108173833454, -78.16562695273065], [164.00514294795505, -78.16678590040543], [164.0101168366902, -78.16638889525143], [164.01422065214024, -78.16846491438217], [164.00219781958808, -78.16831971929959], [164.0018014240412, -78.1691280005982], [164.00906405862807, -78.17015786950206], [164.00559936917023, -78.17153210341586], [163.99905278957607, -78.17176088900865], [163.99812279011545, -78.17205093339376], [163.99896191418225, -78.17270680022104], [163.99542231408378, -78.17300451624205], [163.9960943753988, -78.17367545159537], [163.97871459716248, -78.17492644269493], [163.9773557056958, -78.17475878207978], [163.97885119996056, -78.17462881755543], [163.9783477773161, -78.17439303805028], [163.9714357566284, -78.17433913626095], [163.9776312001896, -78.17230952420539], [163.97456339149167, -78.17174501512683], [163.98263622425097, -78.1701659985858], [163.98606748995616, -78.16857196717352], [163.98333660501237, -78.16844200635485], [163.97889741515584, -78.17044820193469], [163.97236621035486, -78.17151608725473], [163.9689787437688, -78.17303450157887], [163.96621606608025, -78.1729357245057], [163.96495021403516, -78.17312654096881], [163.9672249271896, -78.17341577253862], [163.9577492190236, -78.17469746044745], [163.96270750184405, -78.17488065699627], [163.96528671937824, -78.1738738529369], [163.96826174426957, -78.17386665414614], [163.96560625905178, -78.17449931095354], [163.96673607379148, -78.1747127870403], [163.95887715410967, -78.17578174439875], [163.96456903664225, -78.17652114541139], [163.96250941950635, -78.17836785078057], [163.95707723085178, -78.1795123221285], [163.96192929746135, -78.17919151529529], [163.96015811445355, -78.18026020127405], [163.94645631045594, -78.18148844637905], [163.94506798774688, -78.18170165309375], [163.9503628907207, -78.18175545156247], [163.94401629021888, -78.1829525955491], [163.93986473288925, -78.18289977405941], [163.9407951825198, -78.18341086479786], [163.93312059561887, -78.18362420028402], [163.93566880026324, -78.1838764276484], [163.92500241326817, -78.1853944404579], [163.9237510828394, -78.18524948187122], [163.92448315554682, -78.18459348350933], [163.918273066828, -78.18331194778614], [163.9212342307711, -78.18265484780227], [163.92013538224674, -78.18242641810869], [163.90660174247165, -78.18439430912281], [163.9161381067281, -78.18362436477294], [163.91879206806567, -78.18526487211521], [163.91076579985204, -78.18672980766266], [163.9045868891606, -78.18626402624506], [163.89945920088905, -78.18692813065822], [163.89790409326562, -78.18634788063268], [163.90502904868512, -78.18498286478273], [163.9023887544037, -78.18410501709899], [163.8992614389648, -78.18445586936198], [163.90229919807788, -78.18476819074674], [163.89187582398367, -78.18725613973055], [163.89254671076483, -78.1875459084212], [163.88568075672978, -78.18806437336482], [163.88885389884544, -78.18921690837136], [163.88848941685094, -78.19035341043498], [163.87899769779003, -78.1916731387653], [163.8762043025938, -78.19148296139082], [163.88243039057195, -78.1905900912822], [163.8755946692177, -78.19097154009144], [163.87341301127006, -78.1918796548946], [163.87403875009096, -78.19255799527782], [163.87007126668283, -78.1935655093068], [163.86795078106587, -78.19304642141428], [163.86970528516719, -78.19197077101612], [163.86375491256635, -78.19072697193943], [163.8647921905967, -78.1904908538773], [163.86415068570597, -78.18996444823217], [163.86083984126182, -78.19079614121321], [163.86451694553313, -78.19105543015895], [163.8679656160125, -78.19230639462009], [163.86485185920554, -78.19360386340168], [163.86633496991828, -78.1940498849181], [163.86173973945094, -78.19450429923515], [163.85949664441202, -78.19608332807024], [163.84528557213113, -78.19667438214303]]]}}, {"type": "Feature", "properties": {"Name": "Deception Island", "Tipo_apa": "ASMA", "Marine": 0, "Area_km": 158.56, "Numero_apa": 4}, "geometry": {"type": "Polygon", "coordinates": [[[-60.7526302838389, -62.9490990313754], [-60.75090004674777, -62.945648912325694], [-60.74845717322896, -62.944060167786944], [-60.74172025198592, -62.94179050733266], [-60.73984998611792, -62.940319238122285], [-60.74174346074539, -62.938239850941514], [-60.73652799695112, -62.93579044681671], [-60.73659211491958, -62.9347142426784], [-60.738512349423225, -62.93415316899514], [-60.738803709336246, -62.93318210280851], [-60.735149171307135, -62.93122273195344], [-60.735323623200586, -62.92966468761221], [-60.738195710122675, -62.928396977692785], [-60.7384669505756, -62.926312312637165], [-60.73973497710019, -62.92456100983431], [-60.73743733872264, -62.92363394263443], [-60.74095404272428, -62.92119182943862], [-60.74074119773672, -62.919813204666276], [-60.73635978582258, -62.91928884143125], [-60.73049374912765, -62.91679598669718], [-60.73099544026831, -62.915854916505516], [-60.729984305517675, -62.915033225781656], [-60.72547728149955, -62.91459546368804], [-60.720346085462126, -62.91239211883914], [-60.72015477919573, -62.91070240731282], [-60.71303037964173, -62.90698117021858], [-60.701793866727925, -62.90562701122335], [-60.69493208756768, -62.90314808437991], [-60.69423636420252, -62.901653432036795], [-60.6927056297256, -62.90087648040577], [-60.67772854150294, -62.896927200415824], [-60.67070810291853, -62.89418794190047], [-60.66153073070424, -62.89235585142228], [-60.65177181196608, -62.892720890944574], [-60.63105605979603, -62.89058658269303], [-60.61236655264049, -62.895202360085115], [-60.596007004586404, -62.89607727838444], [-60.59080818727748, -62.897760752237645], [-60.58479845496911, -62.897635046493484], [-60.5745750680511, -62.89507306768576], [-60.56935539413706, -62.89710831094038], [-60.56210262698483, -62.89669472508843], [-60.55425545539184, -62.895070192496256], [-60.55248598153961, -62.895620433782916], [-60.5516263733922, -62.897330941115385], [-60.548836057128284, -62.89883076657305], [-60.54422937469763, -62.897655416397576], [-60.53709656944464, -62.897916173063074], [-60.531684702305014, -62.89716951144354], [-60.52713142837079, -62.8994156473338], [-60.5285037268688, -62.90099142654614], [-60.525377094841915, -62.905506233527774], [-60.51916585774997, -62.91844268613783], [-60.513787715290704, -62.926422983506875], [-60.51363177822216, -62.92786053451047], [-60.50319164360315, -62.94672463232254], [-60.49713014741471, -62.96218977089125], [-60.495848195186646, -62.96334230795256], [-60.49267877070751, -62.96415071516543], [-60.49206271461833, -62.96689110403096], [-60.49314398911036, -62.96873317663867], [-60.49685480215322, -62.97099225133665], [-60.507263416910256, -62.97099730319073], [-60.514031840801216, -62.976922690963306], [-60.51444589516538, -62.977495720489316], [-60.51221508736179, -62.98059960187078], [-60.51262558240325, -62.982328850666086], [-60.51117192319654, -62.98710038956926], [-60.511894352710755, -62.98816141946583], [-60.515861181101265, -62.98946619109811], [-60.521176698745684, -62.9890262039515], [-60.5280512378895, -62.98581878192693], [-60.532591940729226, -62.98556289042089], [-60.53410444987546, -62.98666426466327], [-60.54153537693196, -62.988440246550276], [-60.544440840805365, -62.99027711875104], [-60.54563155077139, -62.99164442096645], [-60.545548635546965, -62.992822839832805], [-60.54929312794028, -63.00099650415889], [-60.5562738880803, -63.00223105706212], [-60.55982908812302, -63.00422727871218], [-60.559739570269215, -63.00610702644667], [-60.55612334399957, -63.00927436793652], [-60.55717939953198, -63.01263120853431], [-60.55918511363796, -63.01353281465493], [-60.56050241923187, -63.01557070819166], [-60.56814672401734, -63.01728784999635], [-60.57456894018483, -63.0160937399566], [-60.579060667150856, -63.014286037644396], [-60.58673818894922, -63.016996365577434], [-60.595610184887214, -63.01876019034833], [-60.606092723729276, -63.02307693471116], [-60.60819828361432, -63.02232280333287], [-60.609024034650275, -63.020814991437504], [-60.61197479092651, -63.02075195716149], [-60.613941105277235, -63.01868843501058], [-60.61756403048334, -63.018004116071694], [-60.62304014397322, -63.01802334727512], [-60.63177246878779, -63.0195704809203], [-60.640015903937474, -63.018873349578364], [-60.6463708497248, -63.015972885250655], [-60.65564164825802, -63.017813519928254], [-60.65920291919214, -63.01753661800368], [-60.6630752235552, -63.015965204322114], [-60.66780032578426, -63.01715562531697], [-60.67070990545777, -63.017045237159365], [-60.67536658148672, -63.01434909461045], [-60.67761774848541, -63.01037278257885], [-60.68590980139165, -63.00422275612556], [-60.69163646399567, -63.00419988533583], [-60.70377748145567, -63.0006301886424], [-60.71506434707582, -63.00007043983664], [-60.72065583800074, -62.99844405838943], [-60.726078917669824, -62.994919583402805], [-60.72838319760692, -62.99040040314101], [-60.727446718405375, -62.989075724537564], [-60.7279494683719, -62.987494956671256], [-60.72914824591246, -62.98491491990529], [-60.73073255734928, -62.98386265802298], [-60.73063418137313, -62.98280883184792], [-60.73550185560058, -62.980974722289325], [-60.736935280104596, -62.9792192691972], [-60.74012694372256, -62.97757023464917], [-60.74076469078013, -62.976442574936605], [-60.739547487357285, -62.97471866718809], [-60.74127570150106, -62.973473745076134], [-60.74141477054165, -62.97172194067768], [-60.74388526947988, -62.968744530516965], [-60.74765970345462, -62.96691573251793], [-60.746663741544054, -62.96550654369849], [-60.749730111609445, -62.96285180188124], [-60.744758172086925, -62.961175761767784], [-60.75167795631538, -62.953237534372605], [-60.75099280630569, -62.95094086145604], [-60.7526302838389, -62.9490990313754]]]}}, {"type": "Feature", "properties": {"Name": "Amundsen-Scott South Pole Station, South Pole", "Tipo_apa": "ASMA", "Marine": 0, "Area_km": 26286.03, "Numero_apa": 5}, "geometry": {"type": "Polygon", "coordinates": [[[92.225512219394, -88.65381085006801], [109.91294983701312, -88.65428199228258], [109.62950823531402, -89.23756569153937], [109.34606668746855, -89.8208493906836], [180.0, -89.82005954234688], [-179.9414592616448, -89.82005934152845], [-18.882907140882352, -89.82175212257557], [-19.36730995917946, -89.23954915304472], [-19.851712755046073, -88.65734618312393], [42.71809475257282, -88.65414645685397], [92.225512219394, -88.65381085006801]]]}}, {"type": "Feature", "properties": {"Name": "Larsemann Hills, East Antarctica", "Tipo_apa": "ASMA", "Marine": 0, "Area_km": 252.54, "Numero_apa": 6}, "geometry": {"type": "Polygon", "coordinates": [[[75.97500000000011, -69.37499999903274], [76.0361100000001, -69.36388999903224], [76.1750000000001, -69.34443999903144], [76.23889000000011, -69.33888999903121], [76.35833000000005, -69.34443999903144], [76.51388999999988, -69.37221999903261], [76.5166699999999, -69.38888999903335], [76.50555999999992, -69.41110999903432], [76.40278000000004, -69.41943999903467], [76.29861000000008, -69.45888999903642], [76.0555600000001, -69.47777999903727], [76.03056000000011, -69.46943999903688], [75.98056000000011, -69.44443999903581], [75.9333300000001, -69.41110999903432], [75.97500000000011, -69.37499999903274]]]}}]}