{
  "type": "FeatureCollection",
  "name": "asp_moorings_planned",
  "crs": {
    "type": "name",
    "properties": {
      "name": "urn:ogc:def:crs:OGC:1.3:CRS84"
    }
  },
  "features": [
    {
      "type": "Feature",
      "properties": {
        "id": null,
        "Name": "ASP Mooring: ANTOS",
        "description": null,
        "timestamp": null,
        "begin": null,
        "end": null,
        "altitudeMode": null,
        "tessellate": -1,
        "extrude": 0,
        "visibility": -1,
        "drawOrder": null,
        "icon": null,
        "Principal Investigator": "Craig Stevens",
        "Email": "craig.stevens@niwa.co.nz",
        "Event": "ASP",
        "Status": "Planned"
      },
      "geometry": {
        "type": "Point",
        "coordinates": [
          171.6293,
          -72.20176666449531,
          0.0
        ]
      }
    },
    {
      "type": "Feature",
      "properties": {
        "id": null,
        "Name": "ASP Mooring: PAM-A1",
        "description": "PAM 1 Iselin Bank (west) 1867 m",
        "timestamp": null,
        "begin": null,
        "end": null,
        "altitudeMode": null,
        "tessellate": -1,
        "extrude": 0,
        "visibility": -1,
        "drawOrder": null,
        "icon": null,
        "Principal Investigator": "Craig Stevens",
        "Email": "craig.stevens@niwa.co.nz",
        "Event": "ASP",
        "Status": "Planned"
      },
      "geometry": {
        "type": "Point",
        "coordinates": [
          179.51215,
          -72.72671666666666,
          0.0
        ]
      }
    },
    {
      "type": "Feature",
      "properties": {
        "id": null,
        "Name": "ASP Mooring: PAM-A2",
        "description": "A2\t\t\nPAM 2 Scott C Seamount\n1038 m",
        "timestamp": null,
        "begin": null,
        "end": null,
        "altitudeMode": null,
        "tessellate": -1,
        "extrude": 0,
        "visibility": -1,
        "drawOrder": null,
        "icon": null,
        "Principal Investigator": "Craig Stevens",
        "Email": "craig.stevens@niwa.co.nz",
        "Event": "ASP",
        "Status": "Planned"
      },
      "geometry": {
        "type": "Point",
        "coordinates": [
          -179.9655333333333,
          -68.33475,
          0.0
        ]
      }
    },
    {
      "type": "Feature",
      "properties": {
        "id": null,
        "Name": "ASP Mooring: PAM-A3",
        "description": "PAM 3 Pacific-Antarctic Ridge\n1629 m",
        "timestamp": null,
        "begin": null,
        "end": null,
        "altitudeMode": null,
        "tessellate": -1,
        "extrude": 0,
        "visibility": -1,
        "drawOrder": null,
        "icon": null,
        "Principal Investigator": "Craig Stevens",
        "Email": "craig.stevens@niwa.co.nz",
        "Event": "ASP",
        "Status": "Planned"
      },
      "geometry": {
        "type": "Point",
        "coordinates": [
          176.1218,
          -63.6673,
          0.0
        ]
      }
    },
    {
      "type": "Feature",
      "properties": {
        "id": null,
        "Name": "ASP Mooring: R2",
        "description": "Long mooring ~600 m - deploy only",
        "timestamp": null,
        "begin": null,
        "end": null,
        "altitudeMode": null,
        "tessellate": -1,
        "extrude": 0,
        "visibility": -1,
        "drawOrder": null,
        "icon": null,
        "Principal Investigator": "Craig Stevens",
        "Email": "craig.stevens@niwa.co.nz",
        "Event": "ASP",
        "Status": "Planned"
      },
      "geometry": {
        "type": "Point",
        "coordinates": [
          173.0878324024845,
          -77.40625640401778,
          0.0
        ]
      }
    },
    {
      "type": "Feature",
      "properties": {
        "id": null,
        "Name": "ASP Mooring: P2",
        "description": "P2\t\tP2, CALM mooring, CA1",
        "timestamp": null,
        "begin": null,
        "end": null,
        "altitudeMode": null,
        "tessellate": -1,
        "extrude": 0,
        "visibility": -1,
        "drawOrder": null,
        "icon": null,
        "Principal Investigator": "Craig Stevens",
        "Email": "craig.stevens@niwa.co.nz",
        "Event": "ASP",
        "Status": "Planned"
      },
      "geometry": {
        "type": "Point",
        "coordinates": [
          172.3026166666667,
          -71.45823333333334,
          0.0
        ]
      }
    },
    {
      "type": "Feature",
      "properties": {
        "id": null,
        "Name": "ASP Mooring: DT/R2",
        "description": "DTB / R2\t\t\t27-Jan-23\t9:27\t553\t\t\t2302DTB\tR2, Drygalski outflow",
        "timestamp": null,
        "begin": null,
        "end": null,
        "altitudeMode": null,
        "tessellate": -1,
        "extrude": 0,
        "visibility": -1,
        "drawOrder": null,
        "icon": null,
        "Principal Investigator": "Craig Stevens",
        "Email": "craig.stevens@niwa.co.nz",
        "Event": "ASP",
        "Status": "Planned"
      },
      "geometry": {
        "type": "Point",
        "coordinates": [
          172.7430666666667,
          -72.32871666666666,
          0.0
        ]
      }
    }
  ]
}