{
  "type": "FeatureCollection",
  "name": "asp_moorings_planned",
  "crs": {
    "type": "name",
    "properties": {
      "name": "urn:ogc:def:crs:OGC:1.3:CRS84"
    }
  },
  "features": [
    {
      "type": "Feature",
      "properties": {
        "id": null,
        "name": "ASP Mooring",
        "measurement": "ANTOS deployment",
        "timestamp": null,
        "begin": null,
        "end": null,
        "altitudeMode": null,
        "tessellate": -1,
        "extrude": 0,
        "visibility": -1,
        "drawOrder": null,
        "icon": null,
        "principal investigator": "Craig Stevens",
        "email": "craig.stevens@niwa.co.nz",
        "event": "ASP",
        "status": "Planned"
      },
      "geometry": {
        "type": "Point",
        "coordinates": [
          171.6293,
          -72.20176666449531,
          0.0
        ]
      }
    },
    {
      "type": "Feature",
      "properties": {
        "id": null,
        "name": "ASP Mooring",
        "measurement": "PAM 1 Iselin Bank (PAM-A1) - 1867 m",
        "timestamp": null,
        "begin": null,
        "end": null,
        "altitudeMode": null,
        "tessellate": -1,
        "extrude": 0,
        "visibility": -1,
        "drawOrder": null,
        "icon": null,
        "principal investigator": "Craig Stevens",
        "email": "craig.stevens@niwa.co.nz",
        "event": "ASP",
        "status": "Planned"
      },
      "geometry": {
        "type": "Point",
        "coordinates": [
          179.51215,
          -72.72671666666666,
          0.0
        ]
      }
    },
    {
      "type": "Feature",
      "properties": {
        "id": null,
        "name": "ASP Mooring",
        "measurement": "PAM 2 Scott C Seamount (PAM-A2)\n1038 m deployment",
        "timestamp": null,
        "begin": null,
        "end": null,
        "altitudeMode": null,
        "tessellate": -1,
        "extrude": 0,
        "visibility": -1,
        "drawOrder": null,
        "icon": null,
        "principal investigator": "Craig Stevens",
        "email": "craig.stevens@niwa.co.nz",
        "event": "ASP",
        "status": "Planned"
      },
      "geometry": {
        "type": "Point",
        "coordinates": [
          -179.9655333333333,
          -68.33475,
          0.0
        ]
      }
    },
    {
      "type": "Feature",
      "properties": {
        "id": null,
        "name": "ASP Mooring",
        "measurement": "PAM 3 Pacific-Antarctic Ridge\n1629 m deployment",
        "timestamp": null,
        "begin": null,
        "end": null,
        "altitudeMode": null,
        "tessellate": -1,
        "extrude": 0,
        "visibility": -1,
        "drawOrder": null,
        "icon": null,
        "principal investigator": "Craig Stevens",
        "email": "craig.stevens@niwa.co.nz",
        "event": "ASP",
        "status": "Planned"
      },
      "geometry": {
        "type": "Point",
        "coordinates": [
          176.1218,
          -63.6673,
          0.0
        ]
      }
    },
    {
      "type": "Feature",
      "properties": {
        "id": null,
        "name": "ASP Mooring",
        "measurement": "Long mooring\n~600 m deployment",
        "timestamp": null,
        "begin": null,
        "end": null,
        "altitudeMode": null,
        "tessellate": -1,
        "extrude": 0,
        "visibility": -1,
        "drawOrder": null,
        "icon": null,
        "principal investigator": "Craig Stevens",
        "email": "craig.stevens@niwa.co.nz",
        "event": "ASP",
        "status": "Planned"
      },
      "geometry": {
        "type": "Point",
        "coordinates": [
          173.0878324024845,
          -77.40625640401778,
          0.0
        ]
      }
    },
    {
      "type": "Feature",
      "properties": {
        "id": null,
        "name": "ASP Mooring",
        "measurement": "P2\t\t CALM mooring (CA1)",
        "timestamp": null,
        "begin": null,
        "end": null,
        "altitudeMode": null,
        "tessellate": -1,
        "extrude": 0,
        "visibility": -1,
        "drawOrder": null,
        "icon": null,
        "principal investigator": "Craig Stevens",
        "email": "craig.stevens@niwa.co.nz",
        "event": "ASP",
        "status": "Planned"
      },
      "geometry": {
        "type": "Point",
        "coordinates": [
          172.3026166666667,
          -71.45823333333334,
          0.0
        ]
      }
    },
    {
      "type": "Feature",
      "properties": {
        "id": null,
        "name": "ASP Mooring",
        "measurement": "DTB, Drygalski outflow (DT/R2)",
        "timestamp": null,
        "begin": null,
        "end": null,
        "altitudeMode": null,
        "tessellate": -1,
        "extrude": 0,
        "visibility": -1,
        "drawOrder": null,
        "icon": null,
        "principal investigator": "Craig Stevens",
        "email": "craig.stevens@niwa.co.nz",
        "event": "ASP",
        "status": "Planned"
      },
      "geometry": {
        "type": "Point",
        "coordinates": [
          172.7430666666667,
          -72.32871666666666,
          0.0
        ]
      }
    }
  ]
}