{
  "type": "FeatureCollection",
  "name": "Campe Sites",
  "crs": {
    "type": "name",
    "properties": {
      "name": "urn:ogc:def:crs:OGC:1.3:CRS84"
    }
  },
  "features": [
    {
      "type": "Feature",
      "properties": {
        "event": "K012",
        "site": "Upper Wright Valley",
        "season": "2024-25"
      },
      "geometry": {
        "type": "Point",
        "coordinates": [
          161.198431,
          -77.600554
        ]
      }
    },
    {
      "type": "Feature",
      "properties": {
        "event": "K012",
        "site": "Mount Flemming",
        "season": "2024-25"
      },
      "geometry": {
        "type": "Point",
        "coordinates": [
          160.2052,
          -77.544407
        ]
      }
    },
    {
      "type": "Feature",
      "properties": {
        "event": "K012",
        "site": "Terra Cotta",
        "season": "2024-25"
      },
      "geometry": {
        "type": "Point",
        "coordinates": [
          161.32664,
          -77.89828
        ]
      }
    },
    {
      "type": "Feature",
      "properties": {
        "event": "K064",
        "season": "2024-25"
      },
      "geometry": {
        "type": "Point",
        "coordinates": [
          163.344722,
          -77.586944
        ]
      }
    }
  ]
}