{
  "type": "FeatureCollection",
  "name": "Campe Sites",
  "crs": {
    "type": "name",
    "properties": {
      "name": "urn:ogc:def:crs:OGC:1.3:CRS84"
    }
  },
  "features": [
    {
      "type": "Feature",
      "properties": {
        "event": "K881",
        "site": "Pyramid Trough",
        "season": "2023-24"
      },
      "geometry": {
        "type": "Point",
        "coordinates": [
          163.4533058,
          -78.29316967
        ]
      }
    },
    {
      "type": "Feature",
      "properties": {
        "event": "K064",
        "season": "2023-24"
      },
      "geometry": {
        "type": "Point",
        "coordinates": [
          163.350144,
          -77.586108
        ]
      }
    }
  ]
}