{
  "type": "FeatureCollection",
  "features": [
    {
      "type": "Feature",
      "properties": {
        "event": "K881B",
        "name": "Soil and Climate Station",
        "site": "Don Juan Pond",
        "principal investigator": "Marwan Katurji",
        "email": "marwan.katurji@canterbury.ac.nz",
        "status": "Planned Removal",
        "information": "https://antcat.antarcticanz.govt.nz/geonetwork/cat/eng/catalog.search#/metadata/6bc04f66-3e79-4591-9030-0016fe8dbd27"
      },
      "geometry": {
        "type": "Point",
        "coordinates": [
          161.238778,
          -77.573889
        ]
      }
    },
    {
      "type": "Feature",
      "properties": {
        "event": "K881B",
        "name": "Soil and Climate Station",
        "site": "Marble Point",
        "principal investigator": "Marwan Katurji",
        "email": "marwan.katurji@canterbury.ac.nz",
        "status": "Planned Removal",
        "information": "https://antcat.antarcticanz.govt.nz/geonetwork/cat/eng/catalog.search#/metadata/6bc04f66-3e79-4591-9030-0016fe8dbd27"
      },
      "geometry": {
        "type": "Point",
        "coordinates": [
          163.682722,
          -77.419583
        ]
      }
    },
    {
      "type": "Feature",
      "properties": {
        "event": "K881B",
        "name": "Soil and Climate Station",
        "site": "Minna Bluff",
        "principal investigator": "Marwan Katurji",
        "email": "marwan.katurji@canterbury.ac.nz",
        "status": "Planned Removal",
        "information": "https://antcat.antarcticanz.govt.nz/geonetwork/cat/eng/catalog.search#/metadata/6bc04f66-3e79-4591-9030-0016fe8dbd27"
      },
      "geometry": {
        "type": "Point",
        "coordinates": [
          166.766167,
          -78.511556
        ]
      }
    },
    {
      "type": "Feature",
      "properties": {
        "event": "K881B",
        "name": "Soil and Climate Station",
        "site": "Bull Pass",
        "principal investigator": "Marwan Katurji",
        "email": "marwan.katurji@canterbury.ac.nz",
        "status": "Planned Removal",
        "information": "https://antcat.antarcticanz.govt.nz/geonetwork/cat/eng/catalog.search#/metadata/6bc04f66-3e79-4591-9030-0016fe8dbd27"
      },
      "geometry": {
        "type": "Point",
        "coordinates": [
          161.862694,
          -77.518472
        ]
      }
    },
    {
      "type": "Feature",
      "properties": {
        "event": "K881B",
        "name": "Soil and Climate Station",
        "site": "Bull Pass East",
        "principal investigator": "Marwan Katurji",
        "email": "marwan.katurji@canterbury.ac.nz",
        "status": "Planned Removal",
        "information": "https://antcat.antarcticanz.govt.nz/geonetwork/cat/eng/catalog.search#/metadata/6bc04f66-3e79-4591-9030-0016fe8dbd27"
      },
      "geometry": {
        "type": "Point",
        "coordinates": [
          162.06475,
          -77.50219444
        ]
      }
    },
    {
      "type": "Feature",
      "properties": {
        "event": "K881B",
        "name": "Borehole Ground Temperature Station",
        "site": "Bull Pass",
        "principal investigator": "Marwan Katurji",
        "email": "marwan.katurji@canterbury.ac.nz",
        "status": "Planned Removal",
        "information": "https://antcat.antarcticanz.govt.nz/geonetwork/cat/eng/catalog.search#/metadata/88d77a12-f1ea-44d2-95f7-bdee9c9cd193"
      },
      "geometry": {
        "type": "Point",
        "coordinates": [
          161.851167,
          -77.518083
        ]
      }
    },
    {
      "type": "Feature",
      "properties": {
        "event": "K881B",
        "name": "Borehole Ground Temperature Station",
        "site": "Marble Point",
        "principal investigator": "Marwan Katurji",
        "email": "marwan.katurji@canterbury.ac.nz",
        "status": "Planned Removal",
        "information": "https://antcat.antarcticanz.govt.nz/geonetwork/cat/eng/catalog.search#/metadata/88d77a12-f1ea-44d2-95f7-bdee9c9cd193"
      },
      "geometry": {
        "type": "Point",
        "coordinates": [
          163.729133,
          -77.407316
        ]
      }
    }
  ]
}