{
  "type": "FeatureCollection",
  "name": "K020A",
  "crs": {
    "type": "name",
    "properties": {
      "name": "urn:ogc:def:crs:OGC:1.3:CRS84"
    }
  },
  "features": [
   {
    "type": "Feature",
    "properties": {
      "event": "K020A",
      "name": "Soil and Permafrost Sampling",
      "description": "Sample surface soils.",
      "site": "Minna Bluff",
      "principal investigator": "McDonald, I.",
      "email": "ian.mcdonald@waikato.ac.nz",
      "status": "Planned"
    },
    "geometry": {
      "type": "Point",
      "coordinates": [
        166.4528,
        -78.5833
      ]
    }
  },
  {
    "type": "Feature",
    "properties": {
      "event": "K020A",
      "name": "Soil and Permafrost Sampling",
      "description": "Permafrost/subsurface soil sampling; including high altitude (>2000m) air sampling.",
      "site": "Minna Bluff",
      "principal investigator": "McDonald, I.",
      "email": "ian.mcdonald@waikato.ac.nz",
      "status": "Planned"
    },
    "geometry": {
      "type": "Point",
      "coordinates": [
        166.4528,
        -78.5833
      ]
    }
  },
  {
    "type": "Feature",
    "properties": {
      "event": "K020A",
      "name": "Soil and Permafrost Sampling",
      "description": "Aerosol sampling at ground level and at high altitude (>2000m).",
      "site": "Minna Bluff",
      "principal investigator": "McDonald, I.",
      "email": "ian.mcdonald@waikato.ac.nz",
      "status": "Planned"
    },
    "geometry": {
      "type": "Point",
      "coordinates": [
        166.4528,
        -78.5833
      ]
    }
  }
  ]
}