{
  "type": "FeatureCollection",
  "name": "K022A",
  "crs": {
    "type": "name",
    "properties": {
      "name": "urn:ogc:def:crs:OGC:1.3:CRS84"
    }
  },
  "features": [
    {
      "type": "Feature",
      "properties": {
        "event": "K022A",
        "name": "Datalogger",
        "description": "Service temperature, humidity, and irradiance monitoirng equipment.",
        "site": "Mount Erebus",
        "principal investigator": "Stephen Noell",
        "email": "stephen.noell@waikato.ac.nz",
        "status": "Active"
      },
      "geometry": {
        "type": "Point",
        "coordinates": [
          167.102103,
          -77.518894
        ]
      }
    }
  ]
}