{
  "type": "FeatureCollection",
  "name": "K026A",
  "crs": {
    "type": "name",
    "properties": {
      "name": "urn:ogc:def:crs:OGC:1.3:CRS84"
    }
  },
  "features": [
	{
      "type": "Feature",
      "properties": {
        "event": "K026A",
        "name": "Terrestrial Ecosystem Mapping",
        "description": "Spectral sampling, biological sampling of vegetation, Aerial hyperspectral imaging.",
		    "site": "Lake Fryxell",
        "principal investigator": "Lee, C.",
        "email": "charles.lee@waikato.ac.nz",
        "status": "Planned"
      },
      "geometry": {
        "type": "Point",
        "coordinates": [
          163.124,
          -77.6063
        ]
      }
    }
  ]
}