{
  "type": "FeatureCollection",
  "name": "K044A",
  "crs": {
    "type": "name",
    "properties": {
      "name": "urn:ogc:def:crs:OGC:1.3:CRS84"
    }
  },
  "features": [
	{
      "type": "Feature",
      "properties": {
        "event": "K044A",
        "name": "Ice Core Collection",
        "description": "Collect a 150 m ice core and a 10 m firn core for ice chemistry and biomarker analysis.",
		    "site": "Upper Priestly Glacier",
        "principal investigator": "Holly Winton",
        "email": "holly.winton@vuw.ac.nz",
        "status": "Planned"
      },
      "geometry": {
        "type": "Point",
        "coordinates": [
          161.584582,
          -74.016793
        ]
      }
    },
    {
      "type": "Feature",
      "properties": {
        "event": "K044A",
        "name": "Snow Pit Sampling",
        "description": "Sample a 2 m snow pit for snow chemistry and biomarker analysis (biomarkers, soluble ions, fluorescence, trace elements, dust).",
        "site": "Upper Priestly Glacier",
        "principal investigator": "Holly Winton",
        "email": "holly.winton@vuw.ac.nz",
        "status": "Planned"
      },
      "geometry": {
        "type": "Point",
        "coordinates": [
          161.584582,
          -74.016793
        ]
      }
    },
    {
      "type": "Feature",
      "properties": {
        "event": "K044A",
        "name": "Snow Surface Sampling",
        "description": "Collect daily surface snow samples for snow chemistry and biomarker analysis.",
        "site": "Upper Priestly Glacier",
        "principal investigator": "Holly Winton",
        "email": "holly.winton@vuw.ac.nz",
        "status": "Planned"
      },
      "geometry": {
        "type": "Point",
        "coordinates": [
          161.584582,
          -74.016793
        ]
      }
    },
    {
      "type": "Feature",
      "properties": {
        "event": "K044A",
        "name": "Meteorological Measurements",
        "description": "Collect meterological data.",
        "site": "Upper Priestly Glacier",
        "principal investigator": "Holly Winton",
        "email": "holly.winton@vuw.ac.nz",
        "status": "Planned"
      },
      "geometry": {
        "type": "Point",
        "coordinates": [
          161.584582,
          -74.016793
        ]
      }
    }
  ]
}