{
  "type": "FeatureCollection",
  "name": "K051A",
  "crs": {
    "type": "name",
    "properties": {
      "name": "urn:ogc:def:crs:OGC:1.3:CRS84"
    }
  },
  "features": [
    {
      "type": "Feature",
      "properties": {
        "event": "K051A",
        "site": "Cape Crozier",
        "name": "Phytoplankton Sampling",
        "description": "Collect water samples to characterise the phytoplankton community.",
        "principal investigator": "Michelle LaRue",
        "email": "michelle.larue@canterbury.ac.nz",
        "status": "Planned",
        "information": "https://antcat.antarcticanz.govt.nz/geonetwork/cat/eng/catalog.search#/metadata/4ed46005-5e8f-4260-882e-c4be6a918c70"
      },
      "geometry": {
        "type": "Point",
        "coordinates": [
          169.2628,
          -77.4562
        ]
      }
    },
    {
      "type": "Feature",
      "properties": {
        "event": "K051A",
        "site": "Cape Crozier",
        "name": "Emperor Penguin and Weddell Seal Physiologial Sampling",
        "description": "Collect physiological samples, including blood, feather, scat, and whisker material, collected from Emperor Penguins and Weddell Seals",
        "principal investigator": "Michelle LaRue",
        "email": "michelle.larue@canterbury.ac.nz",
        "status": "Planned",
        "information": "https://antcat.antarcticanz.govt.nz/geonetwork/cat/eng/catalog.search#/metadata/fe00e01f-fa29-40f5-bde0-8fc335be46d3"
      },
      "geometry": {
        "type": "Point",
        "coordinates": [
          169.2628,
          -77.4562
        ]
      }
    },
    {
      "type": "Feature",
      "properties": {
        "event": "K051A",
        "site": "Cape Crozier",
        "name": "Weddell Seal and Emperor Penguin Movement Tracking",
        "description": "Tag and satellite track Weddell Seals and Emperor Penguins.",
        "principal investigator": "Michelle LaRue",
        "email": "michelle.larue@canterbury.ac.nz",
        "status": "Planned",
        "information": "https://antcat.antarcticanz.govt.nz/geonetwork/cat/eng/catalog.search#/metadata/2906d947-6245-47b4-9dd2-2cebb023c932"
      },
      "geometry": {
        "type": "Point",
        "coordinates": [
          169.2628,
          -77.4562
        ]
      }
    }
  ]
}