{
  "type": "FeatureCollection",
  "name": "K053A",
  "crs": {
    "type": "name",
    "properties": {
      "name": "urn:ogc:def:crs:OGC:1.3:CRS84"
    }
  },
  "features": [
	{
      "type": "Feature",
      "properties": {
        "event": "K053A",
        "name": "Pack-Ice Survey",
        "description": "EM-bird to measure sea ice thickness over transects along the Antarctic coastline between Scott Base and DDU.",
        "principal investigator": "Rack, W.",
		    "site": "Dumont D'Urville",
        "email": "wolfgang.rack@canterbury.ac.nz",
        "status": "Planned"
      },
      "geometry": {
        "type": "Point",
        "coordinates": [
          139.822222,
          -66.705278
        ]
      }
    },
	{
      "type": "Feature",
      "properties": {
        "event": "K053A",
        "name": "Pack-Ice Survey",
        "description": "EM-bird to measure sea ice thickness over transects along the Antarctic coastline between Scott Base and DDU.",
		    "site": "D85 Skiway",
        "principal investigator": "Rack, W.",
        "email": "wolfgang.rack@canterbury.ac.nz",
        "status": "Planned"
      },
      "geometry": {
        "type": "Point",
        "coordinates": [
          134.145833,
          -70.425
        ]
      }
    },
	{
      "type": "Feature",
      "properties": {
        "event": "K053A",
        "name": "Pack-Ice Survey, MZS (sea ice)",
        "description": "EM-bird to measure sea ice thickness over transects along the Antarctic coastline between Scott Base and DDU.",
		    "site": "MZS (sea ice)",
        "principal investigator": "Rack, W.",
        "email": "wolfgang.rack@canterbury.ac.nz",
        "status": "Planned"
      },
      "geometry": {
        "type": "Point",
        "coordinates": [
          164.123763,
          -74.672483
        ]
      }
    },
	{
      "type": "Feature",
      "properties": {
        "event": "K053A",
        "name": "Pack-Ice Survey",
        "description": "EM-bird to measure sea ice thickness over transects along the Antarctic coastline between Scott Base and DDU.",
		    "site": "Concordia",
        "principal investigator": "Rack, W.",
        "email": "wolfgang.rack@canterbury.ac.nz",
        "status": "Planned"
      },
      "geometry": {
        "type": "Point",
        "coordinates": [
          123.353847,
          -75.106978
        ]
      }
    }
  ]
}