{
  "type": "FeatureCollection",
  "name": "K053A",
  "crs": {
    "type": "name",
    "properties": {
      "name": "urn:ogc:def:crs:OGC:1.3:CRS84"
    }
  },
  "features": [
	{
      "type": "Feature",
      "properties": {
        "event": "K053A",
        "name": "Pack-Ice Survey",
        "description": "EM-bird to measure sea ice thickness over transects along the Antarctic coastline between Scott Base and DDU.",
		    "site": "Mario Zucchelli Station",
        "principal investigator": "Wolfgang Rack",
        "email": "wolfgang.rack@canterbury.ac.nz",
        "status": "Planned"
      },
      "geometry": {
        "type": "Point",
        "coordinates": [
          164.123763,
          -74.672483
        ]
      }
    }
  ]
}