{
  "type": "FeatureCollection",
  "name": "K055A",
  "crs": {
    "type": "name",
    "properties": {
      "name": "urn:ogc:def:crs:OGC:1.3:CRS84"
    }
  },
  "features": [
    {
      "type": "Feature",
      "properties": {
        "event": "K055A",
        "name": "Microrain Radar Instrument",
        "description": "Snowfall and vertical wind measurements, 2018-Present",
        "principal investigator": "McDonald, A.",
        "email": "adrian.mcdonald@canterbury.ac.nz",
        "status": "Active"
      },
      "geometry": {
        "type": "Point",
        "coordinates": [
          166.77,
          -77.85
        ]
      }
    },
    {
      "type": "Feature",
      "properties": {
        "event": "K055A",
        "name": "Middle Frequency Radar",
        "description": "Dynamics and Ionisation in the Antarctic Middle Atmosphere from Scott Base, 1982-Present",
        "principal investigator": "McDonald, A.",
        "email": "adrian.mcdonald@canterbury.ac.nz",
        "status": "Active"
      },
      "geometry": {
        "type": "Point",
        "coordinates": [
          166.75,
          -77.85
        ]
      }
    }
  ]
}