{
    "type": "FeatureCollection",
    "name": "K055A",
    "crs": {
        "type": "name",
        "properties": {
            "name": "urn:ogc:def:crs:OGC:1.3:CRS84"
        }
    },
    "features": [
        {
            "type": "Feature",
            "properties": {
                "event": "K055A",
                "name": "Microrain Radar Instrument",
                "description": "Snowfall and vertical wind measurements.",
                "site": "Scott Base",
                "principal investigator": "McDonald, A.",
                "email": "adrian.mcdonald@canterbury.ac.nz",
                "status": "Active",
                "information": "https://antcat.antarcticanz.govt.nz/geonetwork/cat/eng/catalog.search#/metadata/17a29315-96bd-4939-93ab-75c73139b3c0"
            },
            "geometry": {
                "type": "Point",
                "coordinates": [166.77, -77.85]
            }
        },
        {
            "type": "Feature",
            "properties": {
                "event": "K055A",
                "name": "Middle Frequency Radar",
                "description": "Dynamics and ionisation in the middle atmosphere.",
                "site": "Scott Base",
                "principal investigator": "McDonald, A.",
                "email": "adrian.mcdonald@canterbury.ac.nz",
                "status": "Active",
                "information": "https://antcat.antarcticanz.govt.nz/geonetwork/cat/eng/catalog.search#/metadata/214d8f22-4b32-48a5-8920-29371b560d5e"
            },
            "geometry": {
                "type": "Point",
                "coordinates": [166.77, -77.85]
            }
        }
    ]
}
