{
    "type": "FeatureCollection",
    "name": "K060A",
    "crs": {
        "type": "name",
        "properties": {
            "name": "urn:ogc:def:crs:OGC:1.3:CRS84"
        }
    },
    "features": [
        {
            "type": "Feature",
            "properties": {
                "event": "K060A",
                "name": "Very Low Frequency Radio Sensor",
                "description": "Lightning discharges.",
                "site": "Scott Base",
                "principal investigator": "Rodger, C.",
                "email": "craig.rodger@otago.ac.nz",
                "status": "Active",
                "information": "https://antcat.antarcticanz.govt.nz/geonetwork/cat/eng/catalog.search#/metadata/a998b777-ba36-4562-99fc-4ae4d21039cd"
            },
            "geometry": {
                "type": "Point",
                "coordinates": [166.77, -77.85]
            }
        }
    ]
}
