    {
        "type": "FeatureCollection",
        "name": "K082A_CAPE_EVANS",
        "crs": {
            "type": "name",
            "properties": {
                "name": "urn:ogc:def:crs:OGC:1.3:CRS84"
            }
        },
        "features": [
        {
        "type": "Feature",
        "properties": {
            "event": "K082A",
            "name": "Benthic Lander",
            "description": "Recovery of benthic lander measuring seafloor gas flux.",
            "site": "Cape Evans",
            "principal investigator": "Seabrook. S.",
            "email": "sarah.seabrook@otago.ac.nz",
            "status": "Active"
        },
        "geometry": {
            "type": "Point",
            "coordinates": [
                166.411694,
                -77.635842
            ]
        }
    },
    {
        "type": "Feature",
        "properties": {
            "event": "K082A",
            "name": "Flow Meter and Osmosampler Deployment",
            "description": "Sample biogeochemical variability.",
            "site": "Cape Evans",
            "principal investigator": "Seabrook. S.",
            "email": "sarah.seabrook@otago.ac.nz",
            "status": "Planned"
        },
        "geometry": {
            "type": "Point",
            "coordinates": [
                166.411694,
                -77.635842
            ]
        }
    },
    {
        "type": "Feature",
        "properties": {
            "event": "K082A",
            "name": "WalkTEM Surveys",
            "description": "Terrestrial mapping/sampling.",
            "site": "Cape Evans",
            "principal investigator": "Seabrook. S.",
            "email": "sarah.seabrook@otago.ac.nz",
            "status": "Planned"
        },
        "geometry": {
            "type": "Point",
            "coordinates": [
                166.411694,
                -77.635842
            ]
        }
    },
    {
        "type": "Feature",
        "properties": {
            "event": "K082A",
            "name": "ROV and Diver Surveys",
            "description": "Sample and survey seep/groundwater discharge.",
            "site": "Cape Evans",
            "principal investigator": "Seabrook. S.",
            "email": "sarah.seabrook@otago.ac.nz",
            "status": "Planned"
        },
        "geometry": {
            "type": "Point",
            "coordinates": [
                166.411694,
                -77.635842
            ]
        }
    },
    {
        "type": "Feature",
        "properties": {
            "event": "K082A",
            "name": "Acoustic Echousounder Measurements",
            "description": "To measure Water column acoustics.",
            "site": "Cape Evans",
            "principal investigator": "Seabrook. S.",
            "email": "sarah.seabrook@otago.ac.nz",
            "status": "Planned"
        },
        "geometry": {
            "type": "Point",
            "coordinates": [
                166.411694,
                -77.635842
            ]
        }
    },
    {
        "type": "Feature",
        "properties": {
            "event": "K082A",
            "name": "ADCP Measurements",
            "description": "To measure water flow direction and speed.",
            "site": "Cape Evans",
            "principal investigator": "Seabrook. S.",
            "email": "sarah.seabrook@otago.ac.nz",
            "status": "Planned"
        },
        "geometry": {
            "type": "Point",
            "coordinates": [
                166.411694,
                -77.635842
            ]
        }
    }
    ]
}