{
  "type": "FeatureCollection",
  "name": "K082A",
  "crs": {
    "type": "name",
    "properties": {
      "name": "urn:ogc:def:crs:OGC:1.3:CRS84"
    }
  },
  "features": [
    {
      "type": "Feature",
      "properties": {
        "event": "K082A",
        "name": "Water Sampling",
        "description": "Measuring isotope, genetic, and associated analysis.",
        "site": "Blood Falls/Lake Bonney",
        "principal investigator": "Sarah Seabrook",
        "email": "sarah.seabrook@otago.ac.nz",
        "status": "Planned"
      },
      "geometry": {
        "type": "Point",
        "coordinates": [
          162.2745,
          -77.7195
        ]
      }
    },
    {
      "type": "Feature",
      "properties": {
        "event": "K082A",
        "name": "Lake Physical Measurements",
        "description": "ADCP (currents), temperature, salinity, oxygen, CO2, methane, turbidity, radon, and other proxies.",
        "site": "Lake Bonney",
        "principal investigator": "Sarah Seabrook",
        "email": "sarah.seabrook@otago.ac.nz",
        "status": "Planned"
      },
      "geometry": {
        "type": "Point",
        "coordinates": [
          162.2745,
          -77.7195
        ]
      }
    }
  ]
}