{
  "type": "FeatureCollection",
  "name": "K082A",
  "crs": {
    "type": "name",
    "properties": {
      "name": "urn:ogc:def:crs:OGC:1.3:CRS84"
    }
  },
  "features": [
    {
      "type": "Feature",
      "properties": {
        "event": "K082A",
        "name": "Benthic Lander",
        "description": "Gas Flux Measurements",
        "site": "Granite Harbour",
        "principal investigator": "Seabrook. S.",
        "email": "sarah.seabrook@otago.ac.nz",
        "status": "Active"
      },
      "geometry": {
        "type": "Point",
        "coordinates": [
          162.9004,
          -76.9044
        ]
      }
    },
    {
      "type": "Feature",
      "properties": {
        "event": "K082A",
        "name": "Benthic Lander ",
        "description": "Gas Flux Measurements",
        "site": "Cape Evans",
        "principal investigator": "Seabrook. S.",
        "email": "sarah.seabrook@otago.ac.nz",
        "status": "Active"
      },
      "geometry": {
        "type": "Point",
        "coordinates": [
          166.411694,
          -77.635842
        ]
      }
    }
  ]
}