{
    "type": "FeatureCollection",
    "name": "K082A",
    "crs": {
        "type": "name",
        "properties": {
            "name": "urn:ogc:def:crs:OGC:1.3:CRS84"
        }
    },
    "features": [
    {
        "type": "Feature",
        "properties": {
        "event": "K082A",
        "name": "Water Sampling",
        "description": "Measuring isotope, genetic, and associated analysis.",
        "site": "McMurdo Sound",
        "principal investigator": "Sarah Seabrook",
        "email": "sarah.seabrook@otago.ac.nz",
        "status": "Planned"
        },
        "geometry": {
            "type": "Point",
            "coordinates": [
                165,
                -77.5
            ]
        }
    },
    {
        "type": "Feature",
        "properties": {
            "event": "K082A",
            "name": "Sediment Coring and Porewater Collection",
            "description": "Measure biogeochemical parameters.",
            "site": "McMurdo Sound",
            "principal investigator": "Sarah Seabrook",
            "email": "sarah.seabrook@otago.ac.nz",
            "status": "Planned"
        },
        "geometry": {
            "type": "Point",
            "coordinates": [
                165,
                -77.5
            ]
        }
    },
    {
        "type": "Feature",
        "properties": {
            "event": "K082A",
            "name": "Sediment Sampling",
            "description": "Isotope, genetic, and associated analysis.",
            "site": "McMurdo Sound",
            "principal investigator": "Sarah Seabrook",
            "email": "sarah.seabrook@otago.ac.nz",
            "status": "Planned"
        },
        "geometry": {
            "type": "Point",
            "coordinates": [
                165,
                -77.5
            ]
        }
    },
    {
        "type": "Feature",
        "properties": {
            "event": "K082A",
            "name": "ROV",
            "description": "Explore and sample area.",
            "site": "McMurdo Sound",
            "principal investigator": "Sarah Seabrook",
            "email": "sarah.seabrook@otago.ac.nz",
            "status": "Planned"
        },
        "geometry": {
            "type": "Point",
            "coordinates": [
                165,
                -77.5
            ]
        }
    },
    {
        "type": "Feature",
        "properties": {
            "event": "K082A",
            "name": "Flow Meters and Osmosamplers",
            "description": "To sample biogeochemical variability.",
            "site": "McMurdo Sound",
            "principal investigator": "Sarah Seabrook",
            "email": "sarah.seabrook@otago.ac.nz",
            "status": "Planned"
        },
        "geometry": {
            "type": "Point",
            "coordinates": [
                165,
                -77.5
            ]
        }
    },
    {
        "type": "Feature",
        "properties": {
            "event": "K082A",
            "name": "Drop Cam Deployment",
            "description": "To visualise region.",
            "site": "McMurdo Sound",
            "principal investigator": "Sarah Seabrook",
            "email": "sarah.seabrook@otago.ac.nz",
            "status": "Planned"
        },
        "geometry": {
            "type": "Point",
            "coordinates": [
                165,
                -77.5
            ]
        }
    },
    {
        "type": "Feature",
        "properties": {
            "event": "K082A",
            "name": "Diffusion Sandwiches",
            "description": "To sample biogeochemical parameters.",
            "site": "McMurdo Sound",
            "principal investigator": "Sarah Seabrook",
            "email": "sarah.seabrook@otago.ac.nz",
            "status": "Planned"
        },
        "geometry": {
            "type": "Point",
            "coordinates": [
                165,
                -77.5
            ]
        }
    },
    {
        "type": "Feature",
        "properties": {
            "event": "K082A",
            "name": "Oceanographic Sensor Deployment",
            "description": "To measure temperature, salinity, oxygen, CO2, methane, turbidity, radon, and other proxies.",
            "site": "McMurdo Sound",
            "principal investigator": "Sarah Seabrook",
            "email": "sarah.seabrook@otago.ac.nz",
            "status": "Planned"
        },
        "geometry": {
            "type": "Point",
            "coordinates": [
                165,
                -77.5
            ]
        }
    },
    {
        "type": "Feature",
        "properties": {
            "event": "K082A",
            "name": "Acoustic Echosounder Measurements",
            "description": "To measure water column acoustics.",
            "site": "Cinder Cones, Turtle Rock, Arrival Heights, Cape Barne and other opportunistic seeps",
            "principal investigator": "Sarah Seabrook",
            "email": "sarah.seabrook@otago.ac.nz",
            "status": "Planned"
        },
        "geometry": {
            "type": "Point",
            "coordinates": [
                165,
                -77.5
            ]
        }
    },
    {
        "type": "Feature",
        "properties": {
            "event": "K082A",
            "name": "ADCP Measurements",
            "description": "To measure water speed and direction.",
            "site": "Cinder Cones, Turtle Rock, Arrival Heights, Cape Barne and other opportunistic seeps",
            "principal investigator": "Sarah Seabrook",
            "email": "sarah.seabrook@otago.ac.nz",
            "status": "Planned"
        },
        "geometry": {
            "type": "Point",
            "coordinates": [
                165,
                -77.5
            ]
        }
    }
    ]
}