{
    "type": "FeatureCollection",
    "name": "K082A",
    "crs": {
        "type": "name",
        "properties": {
            "name": "urn:ogc:def:crs:OGC:1.3:CRS84"
        }
    },
    "features": [
    {
        "type": "Feature",
        "properties": {
            "event": "K082A",
            "name": "Benthic Lander Recovery",
            "description": "Recovery of benthic lander measuring seafloor gas flux.",
            "site": "Granite Harbour",
            "principal investigator": "Seabrook. S.",
            "email": "sarah.seabrook@otago.ac.nz",
            "status": "Active"
        },
        "geometry": {
            "type": "Point",
            "coordinates": [
                162.9004,
                -76.9044
            ]
        }
    },
    {
        "type": "Feature",
        "properties": {
            "event": "K082A",
            "name": "ADCP Measurements",
            "description": "To measure water flow direction and speed.",
            "site": "Granite Harbour",
            "principal investigator": "Seabrook. S.",
            "email": "sarah.seabrook@otago.ac.nz",
            "status": "Planned"
        },
        "geometry": {
            "type": "Point",
            "coordinates": [
                162.9004,
                -76.9044
            ]
        }
    },
    {
        "type": "Feature",
        "properties": {
            "event": "K082A",
            "name": "Acoustic Echousounder Measurements",
            "description": "To measure Water column acoustics.",
            "site": "Granite Harbour",
            "principal investigator": "Seabrook. S.",
            "email": "sarah.seabrook@otago.ac.nz",
            "status": "Planned"
        },
        "geometry": {
            "type": "Point",
            "coordinates": [
                162.9004,
                -76.9044
            ]
        }
    }
    ]
}