{
  "type": "FeatureCollection",
  "name": "K082A",
  "crs": {
    "type": "name",
    "properties": {
      "name": "urn:ogc:def:crs:OGC:1.3:CRS84"
    }
  },
  "features": [
	{
      "type": "Feature",
      "properties": {
        "event": "K082A",
        "name": "WalkTEM Electromagnetic Surveys",
        "description": "Terrestrial mapping/sampling.",
        "site": "Lake Fryxell/Coral Ridge",
        "principal investigator": "Sarah Seabrook",
        "email": "sarah.seabrook@otago.ac.nz",
        "status": "Planned"
      },
      "geometry": {
        "type": "Point",
        "coordinates": [
          163.10617,
          -77.61567
        ]
      }
    },
    {
      "type": "Feature",
      "properties": {
        "event": "K082A",
        "name": "Lake Physical Measurements",
        "description": "ADCP (currents), temperature, salinity, oxygen, CO2, methane, turbidity, radon, and other proxies.",
        "site": "Lake Fryxell",
        "principal investigator": "Sarah Seabrook",
        "email": "sarah.seabrook@otago.ac.nz",
        "status": "Planned"
      },
      "geometry": {
        "type": "Point",
        "coordinates": [
          163.10617,
          -77.61567
        ]
      }
    }
  ]
}
