{
    "type": "FeatureCollection",
    "name": "K085A",
    "crs": {
        "type": "name",
        "properties": {
            "name": "urn:ogc:def:crs:OGC:1.3:CRS84"
        }
    },
    "features": [
        {
            "type": "Feature",
            "properties": {
                "event": "K085A",
                "name": "Microwave Chlorine Monoxide Millimeter Wave Spectrometer",
                "description": "Chlorine monoxide.",
                "site": "Scott Base",
                "principal investigator": "Smale, D.",
                "email": "dan.smale@earthsciences.nz",
                "status": "Active",
                "information": "https://antcat.antarcticanz.govt.nz/geonetwork/cat/eng/catalog.search#/metadata/1b0d1890-8a20-4e54-aff7-932546bab84e"

            },
            "geometry": {
                "type": "Point",
                "coordinates": [166.77, -77.85]
            }
        },
        {
            "type": "Feature",
            "properties": {
                "event": "K085A",
                "name": "AERI: Atmospheric Emission Radiation Interferometer",
                "description": "Atmospheric down-welling thermal infrared radiance.",
                "site": "Scott Base",
                "principal investigator": "Smale, D.",
                "email": "dan.smale@earthsciences.nz",
                "status": "Active",
                "information": "https://antcat.antarcticanz.govt.nz/geonetwork/cat/eng/catalog.search#/metadata/73a18188-9d88-4d86-aa9a-34811fadd519"

            },
            "geometry": {
                "type": "Point",
                "coordinates": [166.77, -77.85]
            }
        },
        {
            "type": "Feature",
            "properties": {
                "event": "K085A",
                "name": "CNR4 and SI-411 Radiometers",
                "description": "Surface radiative balance.",
                "site": "Scott Base",
                "principal investigator": "Smale, D.",
                "email": "dan.smale@earthsciences.nz",
                "status": "Active",
                "information": "https://antcat.antarcticanz.govt.nz/geonetwork/cat/eng/catalog.search#/metadata/6173cfab-f441-40fb-9a76-17946b5b2981"
            },
            "geometry": {
                "type": "Point",
                "coordinates": [166.77, -77.85]
            }
        },
        {
            "type": "Feature",
            "properties": {
                "event": "K085A",
                "name": "SMOL-X: Lidar",
                "description": "Atmospheric profiles of ozone, temperature and aerosols.",
                "site": "Scott Base",
                "principal investigator": "Smale, D.",
                "email": "dan.smale@earthsciences.nz",
                "status": "Active",
                "information": "https://antcat.antarcticanz.govt.nz/geonetwork/cat/eng/catalog.search#/metadata/1dbada55-aa32-4781-9fe4-c809b5abfec4"
            },
            "geometry": {
                "type": "Point",
                "coordinates": [166.77, -77.85]
            }
        }
    ]
}
