{
    "type": "FeatureCollection",
    "name": "K085A",
    "crs": {
        "type": "name",
        "properties": {
            "name": "urn:ogc:def:crs:OGC:1.3:CRS84"
        }
    },
    "features": [
        {
            "type": "Feature",
            "properties": {
                "event": "K085A",
                "name": "In Situ Flask and Cylinder Air Sampling",
                "description": "Measurement of greenhouse gases and isotopes.",
                "site": "Arrival Heights",
                "principal investigator": "Smale, D.",
                "email": "dan.smale@earthsciences.nz",
                "status": "Active",
                "information": "https://antcat.antarcticanz.govt.nz/geonetwork/cat/eng/catalog.search#/metadata/c912b420-66fc-4724-ae9a-c452fca9e09c"
            },
            "geometry": {
                "type": "Point",
                "coordinates": [
                    166.67,
                    -77.83
                ]
            }
        },
        {
            "type": "Feature",
            "properties": {
                "event": "K085A",
                "name": "Dobson Spectrophotometer",
                "description": "Measurement of total column ozone measurements.",
                "site": "Arrival Heights",
                "principal investigator": "Smale, D.",
                "email": "dan.smale@earthsciences.nz",
                "status": "Active",
                "information": "https://antcat.antarcticanz.govt.nz/geonetwork/cat/eng/catalog.search#/metadata/ea482f08-ee91-4cf5-a570-5526e378cdeb"
            },
            "geometry": {
                "type": "Point",
                "coordinates": [
                    166.67,
                    -77.83
                ]
            }
        },
        {
            "type": "Feature",
            "properties": {
                "event": "K085A",
                "name": "Airyx & Envimeas Instruments",
                "description": "Measurement of nitrogen dioxide, chlorine dioxide, bromine oxide, ozone.",
                "site": "Arrival Heights",
                "principal investigator": "Smale, D.",
                "email": "dan.smale@earthsciences.nz",
                "status": "Active",
                "information": "https://antcat.antarcticanz.govt.nz/geonetwork/cat/eng/catalog.search#/metadata/0fd089eb-d4aa-4b02-8707-90107aa81e4c"
            },
            "geometry": {
                "type": "Point",
                "coordinates": [
                    166.67,
                    -77.83
                ]
            }
        },
        {
            "type": "Feature",
            "properties": {
                "event": "K085A",
                "name": "Ally-Sky Camera Systems",
                "description": "Sky imagery and cloud coverage measurements.",
                "site": "Arrival Heights",
                "principal investigator": "Smale, D.",
                "email": "dan.smale@earthsciences.nz",
                "status": "Active",
                "information": "https://antcat.antarcticanz.govt.nz/geonetwork/cat/eng/catalog.search#/metadata/cd8e7960-f192-49b3-bf2b-0be7cabf8053"
            },
            "geometry": {
                "type": "Point",
                "coordinates": [
                    166.67,
                    -77.83
                ]
            }
        },
        {
            "type": "Feature",
            "properties": {
                "event": "K085A",
                "name": "Far- and Mid- Infrared FTS Measurements",
                "description": "Measurement of greenhouse and Ozone Depleting Gases (O3, HCl, N2O, CH4, HNO3, ClONO2, HCN, HF, OCS, CO, C2H6, CFC-11, CFC-12, COF2 + Others).",
                "site": "Arrival Heights",
                "principal investigator": "Smale, D.",
                "email": "dan.smale@earthsciences.nz",
                "status": "Active",
                "information": "https://antcat.antarcticanz.govt.nz/geonetwork/cat/eng/catalog.search#/metadata/6a7b389a-c8e9-4c56-b603-0f179bac90ab"
            },
            "geometry": {
                "type": "Point",
                "coordinates": [
                    166.67,
                    -77.83
                ]
            }
        },
        {
            "type": "Feature",
            "properties": {
                "event": "K085A",
                "name": "Microwave Chlorine Monoxide Millimeter Wave Spectrometer",
                "description": "Chlorine monoxide.",
                "site": "Scott Base",
                "principal investigator": "Smale, D.",
                "email": "dan.smale@earthsciences.nz",
                "status": "Active",
                "information": "https://antcat.antarcticanz.govt.nz/geonetwork/cat/eng/catalog.search#/metadata/1b0d1890-8a20-4e54-aff7-932546bab84e"

            },
            "geometry": {
                "type": "Point",
                "coordinates": [166.77, -77.85]
            }
        },
        {
            "type": "Feature",
            "properties": {
                "event": "K085A",
                "name": "AERI: Atmospheric Emission Radiation Interferometer",
                "description": "Atmospheric down-welling thermal infrared radiance.",
                "site": "Scott Base",
                "principal investigator": "Smale, D.",
                "email": "dan.smale@earthsciences.nz",
                "status": "Active",
                "information": "https://antcat.antarcticanz.govt.nz/geonetwork/cat/eng/catalog.search#/metadata/73a18188-9d88-4d86-aa9a-34811fadd519"

            },
            "geometry": {
                "type": "Point",
                "coordinates": [166.77, -77.85]
            }
        },
        {
            "type": "Feature",
            "properties": {
                "event": "K085A",
                "name": "CNR4 and SI-411 Radiometers",
                "description": "Surface radiative balance.",
                "site": "Scott Base",
                "principal investigator": "Smale, D.",
                "email": "dan.smale@earthsciences.nz",
                "status": "Active",
                "information": "https://antcat.antarcticanz.govt.nz/geonetwork/cat/eng/catalog.search#/metadata/6173cfab-f441-40fb-9a76-17946b5b2981"
            },
            "geometry": {
                "type": "Point",
                "coordinates": [166.77, -77.85]
            }
        },
        {
            "type": "Feature",
            "properties": {
                "event": "K085A",
                "name": "SMOL-X: Lidar",
                "description": "Atmospheric profiles of ozone, temperature and aerosols.",
                "site": "Scott Base",
                "principal investigator": "Smale, D.",
                "email": "dan.smale@earthsciences.nz",
                "status": "Active",
                "information": "https://antcat.antarcticanz.govt.nz/geonetwork/cat/eng/catalog.search#/metadata/1dbada55-aa32-4781-9fe4-c809b5abfec4"
            },
            "geometry": {
                "type": "Point",
                "coordinates": [166.77, -77.85]
            }
        }
    ]
}
