{
    "type": "FeatureCollection",
    "name": "K102A",
    "crs": {
        "type": "name",
        "properties": {
            "name": "urn:ogc:def:crs:OGC:1.3:CRS84"
        }
    },
    "features": [
        {
            "type": "Feature",
            "properties": {
                "event": "K102A",
                "name": "Geomagnetic Instrument",
                "description": "Magnetic field.",
                "site": "Scott Base",
                "principal investigator": "Petersen, T.",
                "email": "t.petersen@gns.cri.nz",
                "status": "Active",
                "information": "https://antcat.antarcticanz.govt.nz/geonetwork/cat/eng/catalog.search#/metadata/0f54761a-fbf1-4da0-bf84-3e24c42d144e"
            },
            "geometry": {
                "type": "Point",
                "coordinates": [166.77, -77.85]
            }
        }
    ]
}
