{
  "type": "FeatureCollection",
  "name": "K102A",
  "crs": {
    "type": "name",
    "properties": {
      "name": "urn:ogc:def:crs:OGC:1.3:CRS84"
    }
  },
  "features": [
  {
    "type": "Feature",
    "properties": {
      "event": "K102A",
      "name": "Geomagnetic Instrument",
      "site": "Arrival Heights",
      "principal investigator": "Tanja Petersen",
      "email": "t.petersen@gns.cri.nz",
      "status": "Active",
      "information": "https://antcat.antarcticanz.govt.nz/geonetwork/cat/eng/catalog.search#/metadata/0f54761a-fbf1-4da0-bf84-3e24c42d144e"
    },
    "geometry": {
      "type": "Point",
      "coordinates": [
        166.67,
        -77.83
        ]
      }
    },
    {
      "type": "Feature",
      "properties": {
        "event": "K102A",
        "name": "Geomagnetic Instrument",
        "site": "Astro A",
        "principal investigator": "Tanja Petersen",
        "email": "t.petersen@gns.cri.nz",
        "status": "Active",
        "information": "https://antcat.antarcticanz.govt.nz/geonetwork/cat/eng/catalog.search#/metadata/0f54761a-fbf1-4da0-bf84-3e24c42d144e"
      },
      "geometry": {
        "type": "Point",
        "coordinates": [
          161.67,
          -77.52
        ]
      }
    },
    {
      "type": "Feature",
      "properties": {
        "event": "K102A",
        "name": "Geomagnetic Instrument",
        "site": "Vanda Granite",
        "description": "Magnetic field measurements.",
        "principal investigator": "Tanja Petersen",
        "email": "t.petersen@gns.cri.nz",
        "status": "Active",
        "information": "https://antcat.antarcticanz.govt.nz/geonetwork/cat/eng/catalog.search#/metadata/0f54761a-fbf1-4da0-bf84-3e24c42d144e"
      },
      "geometry": {
        "type": "Point",
        "coordinates": [
          161.704,
          -77.523
        ]
      }
    },
    {
      "type": "Feature",
      "properties": {
        "event": "K102A",
        "name": "Geomagnetic Instrument",
        "site": "Vanda Weir",
        "principal investigator": "Tanja Petersen",
        "email": "t.petersen@gns.cri.nz",
        "status": "Active",
        "information": "https://antcat.antarcticanz.govt.nz/geonetwork/cat/eng/catalog.search#/metadata/0f54761a-fbf1-4da0-bf84-3e24c42d144e"
      },
      "geometry": {
        "type": "Point",
        "coordinates": [
          161.696,
          -77.524
        ]
      }
    },
    {
      "type": "Feature",
      "properties": {
        "event": "K102A",
        "name": "Geomagnetic Instrument",
        "site": "Lake Vanda",
        "principal investigator": "Tanja Petersen",
        "email": "t.petersen@gns.cri.nz",
        "status": "Active",
        "information": "https://antcat.antarcticanz.govt.nz/geonetwork/cat/eng/catalog.search#/metadata/0f54761a-fbf1-4da0-bf84-3e24c42d144e"
      },
      "geometry": {
        "type": "Point",
        "coordinates": [
          161.67,
          -77.52
        ]
      }
    },
    {
      "type": "Feature",
      "properties": {
        "event": "K102A",
        "name": "Geomagnetic Instrument",
        "site": "Cape Evans",
        "principal investigator": "Tanja Petersen",
        "email": "t.petersen@gns.cri.nz",
        "status": "Active",
        "information": "https://antcat.antarcticanz.govt.nz/geonetwork/cat/eng/catalog.search#/metadata/0f54761a-fbf1-4da0-bf84-3e24c42d144e"
      },
      "geometry": {
        "type": "Point",
        "coordinates": [
          166.417,
          -77.637
        ]
      }
    }
  ]
}