{
  "type": "FeatureCollection",
  "name": "K170A",
  "crs": {
    "type": "name",
    "properties": {
      "name": "urn:ogc:def:crs:OGC:1.3:CRS84"
    }
  },
  "features": [
	{
      "type": "Feature",
      "properties": {
        "event": "K170A",
        "name": "Antarctic Heritage Trust",
        "description": "Hut maintenance and repair.",
		    "site": "Cape Evans",
        "principal investigator": "TBC",
        "email": "TBC",
        "status": "Planned"
      },
      "geometry": {
        "type": "Point",
        "coordinates": [
          166.419,
          -77.6366
        ]
      }
    },
		{
      "type": "Feature",
      "properties": {
        "event": "K170A",
        "name": "Antarctic Heritage Trust",
        "description": "Hut maintenance and repair.",
        "site": "Cape Royds",
        "principal investigator": "TBC",
        "email": "TBC",
        "status": "Planned"
      },
      "geometry": {
        "type": "Point",
        "coordinates": [
          166.17198,
          -77.55296
        ]
      }
    },
		{
      "type": "Feature",
      "properties": {
        "event": "K170A",
        "name": "Antarctic Heritage Trust",
        "description": "Hut maintenance and repair.",
        "site": "Cape Adare",
        "principal investigator": "TBC",
        "email": "TBC",
        "status": "Planned"
      },
      "geometry": {
        "type": "Point",
        "coordinates": [
          170.193592,
          -71.30897
        ]
      }
    }
  ]
}