{
  "type": "FeatureCollection",
  "name": "K500A",
  "crs": {
    "type": "name",
    "properties": {
      "name": "urn:ogc:def:crs:OGC:1.3:CRS84"
    }
  },
    "features": [
      {
        "type": "Feature",
        "properties": {
          "event": "K500A",
          "name": "PAMS Fluorometer",
          "description": "To measure chlorophyll fluorescence.",
          "site": "Scott Base",
          "principal investigator": "Green, T.G.A.",
          "email": "greentga@waikato.ac.nz",
          "status": "Active",
          "information": "https://antcat.antarcticanz.govt.nz/geonetwork/cat/eng/catalog.search#/metadata/bb9fb8dc-fd91-4b7d-80f7-5621b38df3fb"
        },
        "geometry": {
          "type": "Point",
          "coordinates": [
              166.77,
              -77.85
          ]
        }
      }
    ]
  }