{
    "type": "FeatureCollection",
    "name": "K860A",
    "crs": {
        "type": "name",
        "properties": {
            "name": "urn:ogc:def:crs:OGC:1.3:CRS84"
        }
    },
    "features": [
        {
            "type": "Feature",
            "properties": {
                "event": "K860A",
                "name": "Adelie Penguin Census",
                "site": "Cape Royds",
                "description": "To monitor Adelie breeding populations.",
                "principal investigator": "Dean Anderson",
                "email": "AndersonD@landcareresearch.co.nz",
                "status": "Planned"
            },
            "geometry": {
                "type": "Point",
                "coordinates": [
                    166.1628556,
                    -77.55434444
                ]
            }
        },
        {
            "type": "Feature",
            "properties": {
                "event": "K860A",
                "name": "Adelie Penguin Census",
                "site": "Cape Crozier East",
                "description": "To monitor Adelie breeding populations.",
                "principal investigator": "Dean Anderson",
                "email": "AndersonD@landcareresearch.co.nz",
                "status": "Planned"
            },
            "geometry": {
                "type": "Point",
                "coordinates": [
                    169.2889028,
                    -77.46284167
                ]
            }
        },
        {
            "type": "Feature",
            "properties": {
                "event": "K860A",
                "name": "Adelie Penguin Census",
                "site": "Cape Crozier West",
                "description": "To monitor Adelie breeding populations.",
                "principal investigator": "Dean Anderson",
                "email": "AndersonD@landcareresearch.co.nz",
                "status": "Planned"
            },
            "geometry": {
                "type": "Point",
                "coordinates": [
                    169.2399194,
                    -77.4556
                ]
            }
        },
        {
            "type": "Feature",
            "properties": {
                "event": "K860A",
                "name": "Adelie Penguin Census",
                "site":"Cape Bird North",
                "description": "To monitor Adelie breeding populations.",
                "principal investigator": "Dean Anderson",
                "email": "AndersonD@landcareresearch.co.nz",
                "status": "Planned"
            },
            "geometry": {
                "type": "Point",
                "coordinates": [
                    166.4475917,
                    -77.21396667
                ]
            }
        },
        {
            "type": "Feature",
            "properties": {
                "event": "K860A",
                "name": "Adelie Penguin Census",
                "site": "Cape Bird Middle",
                "description": "To monitor Adelie breeding populations.",
                "principal investigator": "Dean Anderson",
                "email": "AndersonD@landcareresearch.co.nz",
                "status": "Planned"
            },
            "geometry": {
                "type": "Point",
                "coordinates": [
                    166.4186,
                    -77.23001944
                ]
            }
        },
        {
            "type": "Feature",
            "properties": {
                "event": "K860A",
                "name": "Adelie Penguin Census",
                "site": "Cape Bird South",
                "description": "To monitor Adelie breeding populations.",
                "principal investigator": "Dean Anderson",
                "email": "AndersonD@landcareresearch.co.nz",
                "status": "Planned"
            },
            "geometry": {
                "type": "Point",
                "coordinates": [
                    166.37725,
                    -77.25994444
                ]
            }
        }
    ]
}