{
  "type": "FeatureCollection",
  "name": "K862A",
  "crs": {
    "type": "name",
    "properties": {
      "name": "urn:ogc:def:crs:OGC:1.3:CRS84"
    }
  },
  "features": [
    {
      "type": "Feature",
      "properties": {
        "event": "K862A",
        "site": "Kamb Ice Stream 2",
        "name": "ApRES",
        "description": "To measure ice shelf basal melt.",
        "principal investigator": "Levy, R.",
        "email": "r.levy@gns.cri.nz",
        "status": "Active",
        "information": "https://antcat.antarcticanz.govt.nz/geonetwork/cat/eng/catalog.search#/metadata/038c2e99-953e-4d0f-bbcc-999c30fb87e3"
      },
      "geometry": {
        "type": "Point",
        "coordinates": [
          -152.240079969754,
          -82.4753964196359
        ]
      }
    }
  ]
}