{
  "type": "FeatureCollection",
  "name": "K862A",
  "crs": {
    "type": "name",
    "properties": {
      "name": "urn:ogc:def:crs:OGC:1.3:CRS84"
    }
  },
  "features": [
    {
      "type": "Feature",
      "properties": {
        "event": "K862A", 
        "site": "Crary Ice Rise",
        "name": "GNSS and Total Station Geodetic Stations",
        "principal investigator": "Levy, R.",
        "email": "r.levy@gns.cri.nz",
        "status": "Active"
      },
      "geometry": {
        "type": "Point",
        "coordinates": [
          -172.625911,
          -83.026673
        ]
      }
    },
    {
      "type": "Feature",
      "properties": {
        "event": "K862A", 
        "site": "Crary Ice Rise",
        "name": "ApRES",
        "principal investigator": "Levy, R.",
        "email": "r.levy@gns.cri.nz",
        "status": "Active"
      },
      "geometry": {
        "type": "Point",
        "coordinates": [
          -172.625911,
          -83.026673
        ]
      }
    }
  ]
}