{
  "type": "FeatureCollection",
  "name": "K865A",
  "crs": {
    "type": "name",
    "properties": {
      "name": "urn:ogc:def:crs:OGC:1.3:CRS84"
    }
  },
  "features": [
    {
      "type": "Feature",
      "properties": {
        "event": "K865A",
        "name": "GNSS Receiver",
        "desription": "To measure ice shelf movement.",
        "site": "1",
        "principal investigator": "Alanna Alevropoulos-Borrill",
        "email": "alanna.alevropoulosborrill@vuw.ac.nz",
        "status": "Active",
        "information": "https://antcat.antarcticanz.govt.nz/geonetwork/cat/eng/catalog.search#/metadata/4440567a-5147-418a-98a9-1176f9f581be"
      },
      "geometry": {
        "type": "Point",
        "coordinates": [
          171.305442197011,
          -77.4800091460952
        ]
      }
    },
    {
      "type": "Feature",
      "properties": {
        "event": "K865A",
        "name": "GNSS Receiver",
        "desription": "To measure ice shelf movement.",
        "site": "2",
        "principal investigator": "Alanna Alevropoulos-Borrill",
        "email": "alanna.alevropoulosborrill@vuw.ac.nz",
        "status": "Active",
        "information": "https://antcat.antarcticanz.govt.nz/geonetwork/cat/eng/catalog.search#/metadata/4440567a-5147-418a-98a9-1176f9f581be"
      },
      "geometry": {
        "type": "Point",
        "coordinates": [
          168.957111039335,
          -78.0103711919417
        ]
      }
    },
    {
      "type": "Feature",
      "properties": {
        "event": "K865A",
        "name": "GNSS Receiver",
        "desription": "To measure ice shelf movement.",
        "principal investigator": "Alanna Alevropoulos-Borrill",
        "email": "alanna.alevropoulosborrill@vuw.ac.nz",
        "status": "Active",
        "site": "3",
        "information": "https://antcat.antarcticanz.govt.nz/geonetwork/cat/eng/catalog.search#/metadata/4440567a-5147-418a-98a9-1176f9f581be"
      },
      "geometry": {
        "type": "Point",
        "coordinates": [
          -180.0,
          -78.98826
        ]
      }
    },
    {
      "type": "Feature",
      "properties": {
        "event": "K865A",
        "name": "GNSS Receiver",
        "desription": "To measure ice shelf movement.",
        "principal investigator": "Alanna Alevropoulos-Borrill",
        "email": "alanna.alevropoulosborrill@vuw.ac.nz",
        "status": "Active",
        "site": "4",
        "information": "https://antcat.antarcticanz.govt.nz/geonetwork/cat/eng/catalog.search#/metadata/4440567a-5147-418a-98a9-1176f9f581be"
      },
      "geometry": {
        "type": "Point",
        "coordinates": [
          173.534068,
          -80.296614
        ]
      }
    },
    {
      "type": "Feature",
      "properties": {
        "event": "K865A",
        "name": "GNSS Receiver",
        "desription": "To measure ice shelf movement.",
        "site": "5",
        "principal investigator": "Alanna Alevropoulos-Borrill",
        "email": "alanna.alevropoulosborrill@vuw.ac.nz",
        "status": "Active",
        "information": "https://antcat.antarcticanz.govt.nz/geonetwork/cat/eng/catalog.search#/metadata/4440567a-5147-418a-98a9-1176f9f581be"
      },
      "geometry": {
        "type": "Point",
        "coordinates": [
          169.90343674044,
          -78.6025272193672
        ]
      }
    },
    {
      "type": "Feature",
      "properties": {
        "event": "K865A",
        "name": "GNSS Receiver",
        "desription": "To measure ice shelf movement.",
        "site": "6",
        "principal investigator": "Alanna Alevropoulos-Borrill",
        "email": "alanna.alevropoulosborrill@vuw.ac.nz",
        "status": "Active",
        "information": "https://antcat.antarcticanz.govt.nz/geonetwork/cat/eng/catalog.search#/metadata/4440567a-5147-418a-98a9-1176f9f581be"
      },
      "geometry": {
        "type": "Point",
        "coordinates": [
          174.712381294673,
          -78.1702053389386
        ]
      }
    }
  ]
}