{
  "type": "FeatureCollection",
  "name": "k872b_active",
  "crs": {
    "type": "name",
    "properties": {
      "name": "urn:ogc:def:crs:OGC:1.3:CRS84"
    }
  },
  "features": [
    {
      "type": "Feature",
      "properties": {
        "id": null,
        "Name": "ApRES Site: RD01",
        "description": "null",
        "timestamp": null,
        "begin": null,
        "end": null,
        "altitudeMode": null,
        "tessellate": -1,
        "extrude": 0,
        "visibility": -1,
        "drawOrder": null,
        "icon": null,
        "latitude": -77.464872,
        "longitude": 170.134565,
        "Site": "K872B",
        "Principal Investigator": "Craig Stewart",
        "Email": "craig.stewart@niwa.co.nz",
        "Event": "K872B",
        "Status": "Active"
      },
      "geometry": {
        "type": "Point",
        "coordinates": [
          170.134565,
          -77.464872
        ]
      }
    },
    {
      "type": "Feature",
      "properties": {
        "id": null,
        "Name": "ApRES Site: RD02",
        "description": "null",
        "timestamp": null,
        "begin": null,
        "end": null,
        "altitudeMode": null,
        "tessellate": -1,
        "extrude": 0,
        "visibility": -1,
        "drawOrder": null,
        "icon": null,
        "latitude": -77.63243,
        "longitude": 170.261147,
        "Site": "K872B",
        "Principal Investigator": "Craig Stewart",
        "Email": "craig.stewart@niwa.co.nz",
        "Event": "K872B",
        "Status": "Active"
      },
      "geometry": {
        "type": "Point",
        "coordinates": [
          170.261147,
          -77.63243
        ]
      }
    },
    {
      "type": "Feature",
      "properties": {
        "id": null,
        "Name": "ApRES Site: RD03",
        "description": "null",
        "timestamp": null,
        "begin": null,
        "end": null,
        "altitudeMode": null,
        "tessellate": -1,
        "extrude": 0,
        "visibility": -1,
        "drawOrder": null,
        "icon": null,
        "latitude": -77.904175,
        "longitude": 170.122108,
        "Site": "K872B",
        "Principal Investigator": "Craig Stewart",
        "Email": "craig.stewart@niwa.co.nz",
        "Event": "K872B",
        "Status": "Active"
      },
      "geometry": {
        "type": "Point",
        "coordinates": [
          170.122108,
          -77.904175
        ]
      }
    },
    {
      "type": "Feature",
      "properties": {
        "id": null,
        "Name": "ApRES Site: RD04",
        "description": null,
        "timestamp": null,
        "begin": null,
        "end": null,
        "altitudeMode": null,
        "tessellate": -1,
        "extrude": 0,
        "visibility": -1,
        "drawOrder": null,
        "icon": null,
        "latitude": -78.2046,
        "longitude": 169.3944,
        "Site": "K872B",
        "Principal Investigator": "Craig Stewart",
        "Email": "craig.stewart@niwa.co.nz",
        "Event": "K872B",
        "Status": "Active"
      },
      "geometry": {
        "type": "Point",
        "coordinates": [
          169.3944,
          -78.2046
        ]
      }
    },
    {
      "type": "Feature",
      "properties": {
        "id": null,
        "Name": "ApRES: RD05",
        "description": null,
        "timestamp": null,
        "begin": null,
        "end": null,
        "altitudeMode": null,
        "tessellate": -1,
        "extrude": 0,
        "visibility": -1,
        "drawOrder": null,
        "icon": null,
        "latitude": -78.681,
        "longitude": 168.74,
        "Site": "K872B",
        "Principal Investigator": "Craig Stewart",
        "Email": "craig.stewart@niwa.co.nz",
        "Event": "K872B",
        "Status": "Active"
      },
      "geometry": {
        "type": "Point",
        "coordinates": [
          168.74,
          -78.681
        ]
      }
    },
    {
      "type": "Feature",
      "properties": {
        "id": null,
        "Name": "ApRES Site:: RD06",
        "description": null,
        "timestamp": null,
        "begin": null,
        "end": null,
        "altitudeMode": null,
        "tessellate": -1,
        "extrude": 0,
        "visibility": -1,
        "drawOrder": null,
        "icon": null,
        "latitude": -77.4866,
        "longitude": 169.5601,
        "Site": "K872B",
        "Principal Investigator": "Craig Stewart",
        "Email": "craig.stewart@niwa.co.nz",
        "Event": "K872B",
        "Status": "Active"
      },
      "geometry": {
        "type": "Point",
        "coordinates": [
          169.5601,
          -77.4866
        ]
      }
    },
    {
      "type": "Feature",
      "properties": {
        "id": null,
        "Name": "ApRES Site: RD07",
        "description": null,
        "timestamp": null,
        "begin": null,
        "end": null,
        "altitudeMode": null,
        "tessellate": -1,
        "extrude": 0,
        "visibility": -1,
        "drawOrder": null,
        "icon": null,
        "latitude": -77.793043,
        "longitude": 168.960822,
        "Site": "K872B",
        "Principal Investigator": "Craig Stewart",
        "Email": "craig.stewart@niwa.co.nz",
        "Event": "K872B",
        "Status": "Active"
      },
      "geometry": {
        "type": "Point",
        "coordinates": [
          168.960822,
          -77.793043
        ]
      }
    },
    {
      "type": "Feature",
      "properties": {
        "id": null,
        "Name": "ApRES Site: RD08",
        "description": null,
        "timestamp": null,
        "begin": null,
        "end": null,
        "altitudeMode": null,
        "tessellate": -1,
        "extrude": 0,
        "visibility": -1,
        "drawOrder": null,
        "icon": null,
        "latitude": -77.844936,
        "longitude": 167.22977,
        "Site": "K872B",
        "Principal Investigator": "Craig Stewart",
        "Email": "craig.stewart@niwa.co.nz",
        "Event": "K872B",
        "Status": "Active"
      },
      "geometry": {
        "type": "Point",
        "coordinates": [
          167.22977,
          -77.844936
        ]
      }
    },
    {
      "type": "Feature",
      "properties": {
        "id": null,
        "Name": "ApRES Site: RD09",
        "description": null,
        "timestamp": null,
        "begin": null,
        "end": null,
        "altitudeMode": null,
        "tessellate": -1,
        "extrude": 0,
        "visibility": -1,
        "drawOrder": null,
        "icon": null,
        "latitude": -77.980512,
        "longitude": 167.904868,
        "Site": "K872B",
        "Principal Investigator": "Craig Stewart",
        "Email": "craig.stewart@niwa.co.nz",
        "Event": "K872B",
        "Status": "Active"
      },
      "geometry": {
        "type": "Point",
        "coordinates": [
          167.904868,
          -77.980512
        ]
      }
    },
    {
      "type": "Feature",
      "properties": {
        "id": null,
        "Name": "ApRES Site: RD10",
        "description": null,
        "timestamp": null,
        "begin": null,
        "end": null,
        "altitudeMode": null,
        "tessellate": -1,
        "extrude": 0,
        "visibility": -1,
        "drawOrder": null,
        "icon": null,
        "latitude": -77.416537,
        "longitude": 170.708992,
        "Site": "K872B",
        "Principal Investigator": "Craig Stewart",
        "Email": "craig.stewart@niwa.co.nz",
        "Event": "K872B",
        "Status": "Active"
      },
      "geometry": {
        "type": "Point",
        "coordinates": [
          170.708992,
          -77.416537
        ]
      }
    },
    {
      "type": "Feature",
      "properties": {
        "id": null,
        "Name": "ApRES Site: RD11",
        "description": null,
        "timestamp": null,
        "begin": null,
        "end": null,
        "altitudeMode": null,
        "tessellate": -1,
        "extrude": 0,
        "visibility": -1,
        "drawOrder": null,
        "icon": null,
        "latitude": -77.423263,
        "longitude": 171.527977,
        "Site": "K872B",
        "Principal Investigator": "Craig Stewart",
        "Email": "craig.stewart@niwa.co.nz",
        "Event": "K872B",
        "Status": "Active"
      },
      "geometry": {
        "type": "Point",
        "coordinates": [
          171.527977,
          -77.423263
        ]
      }
    },
    {
      "type": "Feature",
      "properties": {
        "id": null,
        "Name": "ApRES Site: RD12",
        "description": null,
        "timestamp": null,
        "begin": null,
        "end": null,
        "altitudeMode": null,
        "tessellate": -1,
        "extrude": 0,
        "visibility": -1,
        "drawOrder": null,
        "icon": null,
        "latitude": -78.018062,
        "longitude": 171.65441,
        "Site": "K872B",
        "Principal Investigator": "Craig Stewart",
        "Email": "craig.stewart@niwa.co.nz",
        "Event": "K872B",
        "Status": "Active"
      },
      "geometry": {
        "type": "Point",
        "coordinates": [
          171.65441,
          -78.018062
        ]
      }
    }
  ]
}