{
  "type": "FeatureCollection",
  "name": "K872B",
  "crs": {
    "type": "name",
    "properties": {
      "name": "urn:ogc:def:crs:OGC:1.3:CRS84"
    }
  },
  "features": [
    {
      "type": "Feature",
      "properties": {
        "event": "K872B",
        "name": "ApRES",
        "description": "To measure ice shelf basal melt.",
        "site": "RD01",
        "principal investigator": "Stewart, C.",
        "email": "craig.stewart@niwa.co.nz",
        "status": "Active"
      },
      "geometry": {
        "type": "Point",
        "coordinates": [
          170.134565,
          -77.464872
        ]
      }
    },
    {
      "type": "Feature",
      "properties": {
        "event": "K872B",
        "name": "ApRES",
        "description": "To measure ice shelf basal melt.",
        "principal investigator": "Stewart, C.",
        "site": "RD08",
        "email": "craig.stewart@niwa.co.nz",
        "status": "Active"
      },
      "geometry": {
        "type": "Point",
        "coordinates": [
          167.2133156,
          -77.84560349
        ]
      }
    },
    {
      "type": "Feature",
      "properties": {
        "event": "K872B",
        "name": "ApRES",
        "description": "To measure ice shelf basal melt.",
        "site": "RD02",
        "principal investigator": "Stewart, C.",
        "email": "craig.stewart@niwa.co.nz",
        "status": "Active"
      },
      "geometry": {
        "type": "Point",
        "coordinates": [
          170.261147,
          -77.63243
        ]
      }
    },
    {
      "type": "Feature",
      "properties": {
        "event": "K872B",
        "name": "ApRES",
        "description": "To measure ice shelf basal melt.",
        "site": "RD03",
        "principal investigator": "Stewart, C.",
        "email": "craig.stewart@niwa.co.nz",
        "status": "Active"
      },
      "geometry": {
        "type": "Point",
        "coordinates": [
          170.122108,
          -77.904175
        ]
      }
    },
    {
      "type": "Feature",
      "properties": {
        "event": "K872B",
        "name": "ApRES",
        "description": "To measure ice shelf basal melt.",
        "site": "RD05a",
        "principal investigator": "Stewart, C.",
        "email": "craig.stewart@niwa.co.nz",
        "status": "Active"
      },
      "geometry": {
        "type": "Point",
        "coordinates": [
          168.74,
          -78.681
        ]
      }
    },
    {
      "type": "Feature",
      "properties": {
        "event": "K872B",
        "name": "ApRES",
        "description": "To measure ice shelf basal melt.",
        "site": "RD06",
        "principal investigator": "Stewart, C.",
        "email": "craig.stewart@niwa.co.nz",
        "status": "Active"
      },
      "geometry": {
        "type": "Point",
        "coordinates": [
          169.5601,
          -77.4866
        ]
      }
    },
    {
      "type": "Feature",
      "properties": {
        "event": "K872B",
        "name": "ApRES",
        "description": "To measure ice shelf basal melt.",
        "principal investigator": "Stewart, C.",
        "site": "RD12",
        "email": "craig.stewart@niwa.co.nz",
        "status": "Active"
      },
      "geometry": {
        "type": "Point",
        "coordinates": [
          171.65441,
          -78.018062
        ]
      }
    },
    {
      "type": "Feature",
      "properties": {
        "event": "K872B",
        "name": "ApRES",
        "description": "To measure ice shelf basal melt.",
        "site": "RD11",
        "principal investigator": "Stewart, C.",
        "email": "craig.stewart@niwa.co.nz",
        "status": "Active"
      },
      "geometry": {
        "type": "Point",
        "coordinates": [
          171.527977,
          -77.423263
        ]
      }
    },
    {
      "type": "Feature",
      "properties": {
        "event": "K872B",
        "name": "ApRES",
        "description": "To measure ice shelf basal melt.",
        "site": "RD10",
        "principal investigator": "Stewart, C.",
        "email": "craig.stewart@niwa.co.nz",
        "status": "Active"
      },
      "geometry": {
        "type": "Point",
        "coordinates": [
          170.708992,
          -77.416537
        ]
      }
    },
    {
      "type": "Feature",
      "properties": {
        "event": "K872B",
        "description": "To measure ice shelf basal melt.",
        "name": "ApRES",
        "site": "RD09",
        "principal investigator": "Stewart, C.",
        "email": "craig.stewart@niwa.co.nz",
        "status": "Active"
      },
      "geometry": {
        "type": "Point",
        "coordinates": [
          167.904868,
          -77.980512
        ]
      }
    },
    {
      "type": "Feature",
      "properties": {
        "event": "K872B",
        "name": "ApRES",
        "description": "To measure ice shelf basal melt.",
        "site": "RD07",
        "principal investigator": "Stewart, C.",
        "email": "craig.stewart@niwa.co.nz",
        "status": "Active"
      },
      "geometry": {
        "type": "Point",
        "coordinates": [
          168.960822,
          -77.793043
        ]
      }
    },
    {
      "type": "Feature",
      "properties": {
        "event": "K872B",
        "name": "ApRES",
        "description": "To measure ice shelf basal melt.",
        "site": "RD04",
        "principal investigator": "Stewart, C.",
        "email": "craig.stewart@niwa.co.nz",
        "status": "Active"
      },
      "geometry": {
        "type": "Point",
        "coordinates": [
          169.3944,
          -78.2046
        ]
      }
    }
  ]
}