{
  "type": "FeatureCollection",
  "name": "apres_sites",
  "crs": {
    "type": "name",
    "properties": {
      "name": "urn:ogc:def:crs:OGC:1.3:CRS84"
    }
  },
  "features": [
    {
      "type": "Feature",
      "properties": {
        "id": null,
        "Name": null,
        "description": null,
        "timestamp": null,
        "begin": null,
        "end": null,
        "altitudeMode": null,
        "tessellate": -1,
        "extrude": 0,
        "visibility": -1,
        "drawOrder": null,
        "icon": null,
        "Site": "K872B",
        "Principal Investigator": "Craig Stewart",
        "Email": "craig.stewart@niwa.co.nz",
        "Status": "Wishlist"
      },
      "geometry": {
        "type": "Point",
        "coordinates": [
          177.8548,
          -78.0313,
          0.0
        ]
      }
    },
    {
      "type": "Feature",
      "properties": {
        "id": null,
        "Name": null,
        "description": null,
        "timestamp": null,
        "begin": null,
        "end": null,
        "altitudeMode": null,
        "tessellate": -1,
        "extrude": 0,
        "visibility": -1,
        "drawOrder": null,
        "icon": null,
        "Site": "K872B",
        "Principal Investigator": "Craig Stewart",
        "Email": "craig.stewart@niwa.co.nz",
        "Status": "Wishlist"
      },
      "geometry": {
        "type": "Point",
        "coordinates": [
          -176.272,
          -78.4576,
          0.0
        ]
      }
    },
    {
      "type": "Feature",
      "properties": {
        "id": null,
        "Name": null,
        "description": null,
        "timestamp": null,
        "begin": null,
        "end": null,
        "altitudeMode": null,
        "tessellate": -1,
        "extrude": 0,
        "visibility": -1,
        "drawOrder": null,
        "icon": null,
        "Site": "K872B",
        "Principal Investigator": "Craig Stewart",
        "Email": "craig.stewart@niwa.co.nz",
        "Status": "Wishlist"
      },
      "geometry": {
        "type": "Point",
        "coordinates": [
          -170.64,
          -78.583,
          0.0
        ]
      }
    },
    {
      "type": "Feature",
      "properties": {
        "id": null,
        "Name": null,
        "description": null,
        "timestamp": null,
        "begin": null,
        "end": null,
        "altitudeMode": null,
        "tessellate": -1,
        "extrude": 0,
        "visibility": -1,
        "drawOrder": null,
        "icon": null,
        "Site": "K872B",
        "Principal Investigator": "Craig Stewart",
        "Email": "craig.stewart@niwa.co.nz",
        "Status": "Wishlist"
      },
      "geometry": {
        "type": "Point",
        "coordinates": [
          -161.129,
          -78.6505,
          0.0
        ]
      }
    },
    {
      "type": "Feature",
      "properties": {
        "id": null,
        "Name": null,
        "description": null,
        "timestamp": null,
        "begin": null,
        "end": null,
        "altitudeMode": null,
        "tessellate": -1,
        "extrude": 0,
        "visibility": -1,
        "drawOrder": null,
        "icon": null,
        "Site": "K872B",
        "Principal Investigator": "Craig Stewart",
        "Email": "craig.stewart@niwa.co.nz",
        "Status": "Wishlist"
      },
      "geometry": {
        "type": "Point",
        "coordinates": [
          163.0203,
          -80.0759,
          0.0
        ]
      }
    },
    {
      "type": "Feature",
      "properties": {
        "id": null,
        "Name": null,
        "description": null,
        "timestamp": null,
        "begin": null,
        "end": null,
        "altitudeMode": null,
        "tessellate": -1,
        "extrude": 0,
        "visibility": -1,
        "drawOrder": null,
        "icon": null,
        "Site": "K872B",
        "Principal Investigator": "Craig Stewart",
        "Email": "craig.stewart@niwa.co.nz",
        "Status": "Wishlist"
      },
      "geometry": {
        "type": "Point",
        "coordinates": [
          167.5482,
          -79.5041,
          0.0
        ]
      }
    },
    {
      "type": "Feature",
      "properties": {
        "id": null,
        "Name": null,
        "description": null,
        "timestamp": null,
        "begin": null,
        "end": null,
        "altitudeMode": null,
        "tessellate": -1,
        "extrude": 0,
        "visibility": -1,
        "drawOrder": null,
        "icon": null,
        "Site": "K872B",
        "Principal Investigator": "Craig Stewart",
        "Email": "craig.stewart@niwa.co.nz",
        "Status": "Wishlist"
      },
      "geometry": {
        "type": "Point",
        "coordinates": [
          165.0888,
          -82.2265,
          0.0
        ]
      }
    },
    {
      "type": "Feature",
      "properties": {
        "id": null,
        "Name": null,
        "description": null,
        "timestamp": null,
        "begin": null,
        "end": null,
        "altitudeMode": null,
        "tessellate": -1,
        "extrude": 0,
        "visibility": -1,
        "drawOrder": null,
        "icon": null,
        "Site": "K872B",
        "Principal Investigator": "Craig Stewart",
        "Email": "craig.stewart@niwa.co.nz",
        "Status": "Wishlist"
      },
      "geometry": {
        "type": "Point",
        "coordinates": [
          173.1831,
          -83.5037,
          0.0
        ]
      }
    },
    {
      "type": "Feature",
      "properties": {
        "id": null,
        "Name": null,
        "description": null,
        "timestamp": null,
        "begin": null,
        "end": null,
        "altitudeMode": null,
        "tessellate": -1,
        "extrude": 0,
        "visibility": -1,
        "drawOrder": null,
        "icon": null,
        "Site": "K872B",
        "Principal Investigator": "Craig Stewart",
        "Email": "craig.stewart@niwa.co.nz",
        "Status": "Wishlist"
      },
      "geometry": {
        "type": "Point",
        "coordinates": [
          174.4619,
          -80.6583,
          0.0
        ]
      }
    },
    {
      "type": "Feature",
      "properties": {
        "id": null,
        "Name": null,
        "description": null,
        "timestamp": null,
        "begin": null,
        "end": null,
        "altitudeMode": null,
        "tessellate": -1,
        "extrude": 0,
        "visibility": -1,
        "drawOrder": null,
        "icon": null,
        "Site": "K872B",
        "Principal Investigator": "Craig Stewart",
        "Email": "craig.stewart@niwa.co.nz",
        "Status": "Wishlist"
      },
      "geometry": {
        "type": "Point",
        "coordinates": [
          -150.78,
          -80.7856,
          0.0
        ]
      }
    },
    {
      "type": "Feature",
      "properties": {
        "id": null,
        "Name": null,
        "description": null,
        "timestamp": null,
        "begin": null,
        "end": null,
        "altitudeMode": null,
        "tessellate": -1,
        "extrude": 0,
        "visibility": -1,
        "drawOrder": null,
        "icon": null,
        "Site": "K872B",
        "Principal Investigator": "Craig Stewart",
        "Email": "craig.stewart@niwa.co.nz",
        "Status": "Wishlist"
      },
      "geometry": {
        "type": "Point",
        "coordinates": [
          -150.266,
          -79.969,
          0.0
        ]
      }
    },
    {
      "type": "Feature",
      "properties": {
        "id": null,
        "Name": null,
        "description": null,
        "timestamp": null,
        "begin": null,
        "end": null,
        "altitudeMode": null,
        "tessellate": -1,
        "extrude": 0,
        "visibility": -1,
        "drawOrder": null,
        "icon": null,
        "Site": "K872B",
        "Principal Investigator": "Craig Stewart",
        "Email": "craig.stewart@niwa.co.nz",
        "Status": "Wishlist"
      },
      "geometry": {
        "type": "Point",
        "coordinates": [
          -152.479,
          -82.4704,
          0.0
        ]
      }
    },
    {
      "type": "Feature",
      "properties": {
        "id": null,
        "Name": null,
        "description": null,
        "timestamp": null,
        "begin": null,
        "end": null,
        "altitudeMode": null,
        "tessellate": -1,
        "extrude": 0,
        "visibility": -1,
        "drawOrder": null,
        "icon": null,
        "Site": "K872B",
        "Principal Investigator": "Craig Stewart",
        "Email": "craig.stewart@niwa.co.nz",
        "Status": "Wishlist"
      },
      "geometry": {
        "type": "Point",
        "coordinates": [
          -156.305,
          -82.6286,
          0.0
        ]
      }
    },
    {
      "type": "Feature",
      "properties": {
        "id": null,
        "Name": null,
        "description": null,
        "timestamp": null,
        "begin": null,
        "end": null,
        "altitudeMode": null,
        "tessellate": -1,
        "extrude": 0,
        "visibility": -1,
        "drawOrder": null,
        "icon": null,
        "Site": "K872B",
        "Principal Investigator": "Craig Stewart",
        "Email": "craig.stewart@niwa.co.nz",
        "Status": "Wishlist"
      },
      "geometry": {
        "type": "Point",
        "coordinates": [
          -166.54,
          -84.0552,
          0.0
        ]
      }
    }
  ]
}