{
  "type": "FeatureCollection",
  "name": "K872B",
  "crs": {
    "type": "name",
    "properties": {
      "name": "urn:ogc:def:crs:OGC:1.3:CRS84"
    }
  },
  "features": [
    {
      "type": "Feature",
      "properties": {
        "event": "K872B",
        "name": "ApRES",
        "principal investigator": "Stewart, C.",
        "email": "craig.stewart@niwa.co.nz",
        "status": "Active"
      },
      "geometry": {
        "type": "Point",
        "coordinates": [
          170.134565,
          -77.464872
        ]
      }
    },
    {
      "type": "Feature",
      "properties": {
        "event": "K872B",
        "name": "ApRES",
        "principal investigator": "Stewart, C.",
        "email": "craig.stewart@niwa.co.nz",
        "status": "Active"
      },
      "geometry": {
        "type": "Point",
        "coordinates": [
          170.261147,
          -77.63243
        ]
      }
    },
    {
      "type": "Feature",
      "properties": {
        "event": "K872B",
        "name": "ApRES",
        "principal investigator": "Stewart, C.",
        "email": "craig.stewart@niwa.co.nz",
        "status": "Active"
      },
      "geometry": {
        "type": "Point",
        "coordinates": [
          170.122108,
          -77.904175
        ]
      }
    },
    {
      "type": "Feature",
      "properties": {
        "event": "K872B",
        "name": "ApRES",
        "principal investigator": "Stewart, C.",
        "email": "craig.stewart@niwa.co.nz",
        "status": "Active"
      },
      "geometry": {
        "type": "Point",
        "coordinates": [
          167.22977,
          -77.844936
        ]
      }
    },
    {
      "type": "Feature",
      "properties": {
        "event": "K872B",
        "name": "ApRES",
        "principal investigator": "Stewart, C.",
        "email": "craig.stewart@niwa.co.nz",
        "status": "Active"
      },
      "geometry": {
        "type": "Point",
        "coordinates": [
          168.74,
          -78.681
        ]
      }
    },
    {
      "type": "Feature",
      "properties": {
        "event": "K872B",
        "name": "ApRES",
        "principal investigator": "Stewart, C.",
        "email": "craig.stewart@niwa.co.nz",
        "status": "Active"
      },
      "geometry": {
        "type": "Point",
        "coordinates": [
          169.5601,
          -77.4866
        ]
      }
    },
    {
      "type": "Feature",
      "properties": {
        "event": "K872B",
        "name": "ApRES",
        "principal investigator": "Stewart, C.",
        "email": "craig.stewart@niwa.co.nz",
        "status": "Active"
      },
      "geometry": {
        "type": "Point",
        "coordinates": [
          171.65441,
          -78.018062
        ]
      }
    },
    {
      "type": "Feature",
      "properties": {
        "event": "K872B",
        "name": "ApRES",
        "principal investigator": "Stewart, C.",
        "email": "craig.stewart@niwa.co.nz",
        "status": "Active"
      },
      "geometry": {
        "type": "Point",
        "coordinates": [
          171.527977,
          -77.423263
        ]
      }
    },
    {
      "type": "Feature",
      "properties": {
        "event": "K872B",
        "name": "ApRES",
        "principal investigator": "Stewart, C.",
        "email": "craig.stewart@niwa.co.nz",
        "status": "Active"
      },
      "geometry": {
        "type": "Point",
        "coordinates": [
          170.708992,
          -77.416537
        ]
      }
    },
    {
      "type": "Feature",
      "properties": {
        "event": "K872B",
        "name": "ApRES",
        "principal investigator": "Stewart, C.",
        "email": "craig.stewart@niwa.co.nz",
        "status": "Active"
      },
      "geometry": {
        "type": "Point",
        "coordinates": [
          167.904868,
          -77.980512
        ]
      }
    },
    {
      "type": "Feature",
      "properties": {
        "event": "K872B",
        "name": "ApRES",
        "principal investigator": "Stewart, C.",
        "email": "craig.stewart@niwa.co.nz",
        "status": "Active"
      },
      "geometry": {
        "type": "Point",
        "coordinates": [
          168.960822,
          -77.793043
        ]
      }
    },
    {
      "type": "Feature",
      "properties": {
        "event": "K872B",
        "name": "ApRES",
        "principal investigator": "Stewart, C.",
        "email": "craig.stewart@niwa.co.nz",
        "status": "Active"
      },
      "geometry": {
        "type": "Point",
        "coordinates": [
          169.3944,
          -78.2046
        ]
      }
    }
  ]
}