{
    "type": "FeatureCollection",
    "name": "K881B",
    "crs": {
        "type": "name",
        "properties": {
            "name": "urn:ogc:def:crs:OGC:1.3:CRS84"
        }
    },
    "features": [
        {
            "type": "Feature",
            "properties": {
                "event": "K881B",
                "name": "Soil and Climate Station",
                "site": "Scott Base",
                "principal investigator": "Katurji, M.",
                "email": "marwan.katurji@canterbury.ac.nz",
                "status": "Active"
            },
            "geometry": {
                "type": "Point",
                "coordinates": [166.77, -77.85]
            }
        }
    ]
}
