{
  "type": "FeatureCollection",
  "name": "K881B",
  "crs": {
    "type": "name",
    "properties": {
      "name": "urn:ogc:def:crs:OGC:1.3:CRS84"
    }
  },
  "features": [
    {
      "type": "Feature",
      "properties": {
        "event": "K881B",
        "name": "Soil and Climate Station",
        "site": "Granite Harbour",
        "principal investigator": "Katurji, M.",
        "email": "marwan.katurji@canterbury.ac.nz",
        "status": "Active",
        "information": "https://antcat.antarcticanz.govt.nz/geonetwork/cat/eng/catalog.search#/metadata/6bc04f66-3e79-4591-9030-0016fe8dbd27"
      },
      "geometry": {
        "type": "Point",
        "coordinates": [
          162.525611,
          -77.006556
        ]
      }
    },
    {
      "type": "Feature",
      "properties": {
        "event": "K881B",
        "name": "Soil and Climate Station",
        "site": "Mount Flemming",
        "principal investigator": "Katurji, M.",
        "email": "marwan.katurji@canterbury.ac.nz",
        "status": "Active",
        "information": "https://antcat.antarcticanz.govt.nz/geonetwork/cat/eng/catalog.search#/metadata/6bc04f66-3e79-4591-9030-0016fe8dbd27"
      },
      "geometry": {
        "type": "Point",
        "coordinates": [
          160.290278,
          -77.545194
        ]
      }
    },
    {
      "type": "Feature",
      "properties": {
        "event": "K881B",
        "name": "Soil and Climate Station",
        "site": "Victoria Valley",
        "principal investigator": "Katurji, M.",
        "email": "marwan.katurji@canterbury.ac.nz",
        "status": "Active",
        "information": "https://antcat.antarcticanz.govt.nz/geonetwork/cat/eng/catalog.search#/metadata/6bc04f66-3e79-4591-9030-0016fe8dbd27"
      },
      "geometry": {
        "type": "Point",
        "coordinates": [
          161.600694,
          -77.33094
        ]
      }
    },
    {
      "type": "Feature",
      "properties": {
        "event": "K881B",
        "name": "AWS",
        "site": "Miers Valley",
        "principal investigator": "Katurji, M.",
        "email": "marwan.katurji@canterbury.ac.nz",
        "status": "Active",
        "information": "https://antcat.antarcticanz.govt.nz/geonetwork/cat/eng/catalog.search#/metadata/2b8c0319-8b3d-41a6-a586-38393e22696a"
      },
      "geometry": {
        "type": "Point",
        "coordinates": [
          163.794283,
          -78.09805
        ]
      }
    },
    {
      "type": "Feature",
      "properties": {
        "event": "K881B",
        "name": "AWS",
        "site": "Miers Ridge",
        "principal investigator": "Katurji, M.",
        "email": "marwan.katurji@canterbury.ac.nz",
        "status": "Active",
        "information": "https://antcat.antarcticanz.govt.nz/geonetwork/cat/eng/catalog.search#/metadata/2b8c0319-8b3d-41a6-a586-38393e22696a"
      },
      "geometry": {
        "type": "Point",
        "coordinates": [
          163.863319,
          -78.123205
        ]
      }
    },
    {
      "type": "Feature",
      "properties": {
        "event": "K881B",
        "name": "AWS",
        "site": "Commonwealth Glacier",
        "principal investigator": "Katurji, M.",
        "email": "marwan.katurji@canterbury.ac.nz",
        "status": "Active",
        "information": "https://antcat.antarcticanz.govt.nz/geonetwork/cat/eng/catalog.search#/metadata/2b8c0319-8b3d-41a6-a586-38393e22696a"
      },
      "geometry": {
        "type": "Point",
        "coordinates": [
          163.281064,
          -77.563987
        ]
      }
    },
    {
      "type": "Feature",
      "properties": {
        "event": "K881B",
        "name": "AWS",
        "site": "Cape Christie",
        "principal investigator": "Katurji, M.",
        "email": "marwan.katurji@canterbury.ac.nz",
        "status": "Active",
        "information": "https://antcat.antarcticanz.govt.nz/geonetwork/cat/eng/catalog.search#/metadata/2b8c0319-8b3d-41a6-a586-38393e22696a"
      },
      "geometry": {
        "type": "Point",
        "coordinates": [
          169.9847222,
          -72.2972222
        ]
      }
    },
    {
      "type": "Feature",
      "properties": {
        "event": "K881B",
        "name": "AWS",
        "site": "Haystack Mountain",
        "principal investigator": "Katurji, M.",
        "email": "marwan.katurji@canterbury.ac.nz",
        "status": "Active",
        "information": "https://antcat.antarcticanz.govt.nz/geonetwork/cat/eng/catalog.search#/metadata/2b8c0319-8b3d-41a6-a586-38393e22696a"
      },
      "geometry": {
        "type": "Point",
        "coordinates": [
          162.585,
          -77.05
        ]
      }
    },
    {
      "type": "Feature",
      "properties": {
        "event": "K881B",
        "name": "AWS",
        "site": "Granite Harbour",
        "principal investigator": "Katurji, M.",
        "email": "marwan.katurji@canterbury.ac.nz",
        "status": "Active",
        "information": "https://antcat.antarcticanz.govt.nz/geonetwork/cat/eng/catalog.search#/metadata/2b8c0319-8b3d-41a6-a586-38393e22696a"
      },
      "geometry": {
        "type": "Point",
        "coordinates": [
          162.5256,
          -77.00655
        ]
      }
    },
    {
      "type": "Feature",
      "properties": {
        "event": "K881B",
        "name": "AWS",
        "site": "Mount Flemming",
        "principal investigator": "Katurji, M.",
        "email": "marwan.katurji@canterbury.ac.nz",
        "status": "Active",
        "information": "https://antcat.antarcticanz.govt.nz/geonetwork/cat/eng/catalog.search#/metadata/2b8c0319-8b3d-41a6-a586-38393e22696a"
      },
      "geometry": {
        "type": "Point",
        "coordinates": [
          160.29028,
          -77.5452
        ]
      }
    },
    {
      "type": "Feature",
      "properties": {
        "event": "K881B",
        "name": "AWS",
        "site": "Cape Adare Ridge",
        "principal investigator": "Katurji, M.",
        "email": "marwan.katurji@canterbury.ac.nz",
        "status": "Offline",
        "information": "https://antcat.antarcticanz.govt.nz/geonetwork/cat/eng/catalog.search#/metadata/819fea93-da68-4a32-8639-6474217034ec"
      },
      "geometry": {
        "type": "Point",
        "coordinates": [
          170.23253,
          -71.30498
        ]
      }
    }
  ]
}