{
  "type": "FeatureCollection",
  "name": "K882B",
  "crs": {
    "type": "name",
    "properties": {
      "name": "urn:ogc:def:crs:OGC:1.3:CRS84"
    }
  },
    "features": [
      {
        "type": "Feature",
        "properties": {
          "event": "K882B",
          "name": "Hauwai20 Automatic Sampler",
          "description": "To determine present-day spatial and temporal variability in key ecosystem characteristics across land-coast-ocean communities and attribute biological patterns to key environmental drivers.",
          "site": "Scott Base",
          "principal investigator": "Charlie Lee",
          "email": "charles.lee@waikato.ac.nz",
          "status": "Planned"
        },
        "geometry": {
          "type": "Point",
          "coordinates": [
            166.77,
            -77.85
          ]
        }
      }
    ]
  }