{
  "type": "FeatureCollection",
  "name": "K884A",
  "crs": {
    "type": "name",
    "properties": {
      "name": "urn:ogc:def:crs:OGC:1.3:CRS84"
    }
  },
  "features": [
    {
      "type": "Feature",
      "properties": {
        "event": "K884A",
        "name": "Sponge Timelapse Imagery, CTD, Dissolved Oxygen, and pH Logger Deployment, McMurdo Sound, Antarctica, 2024-2025",
        "principal investigator": "Ian Hawes",
        "email": "ian.hawes@waikato.ac.nz",
        "status": "Active",
        "information": "https://antcat.antarcticanz.govt.nz/geonetwork/cat/eng/catalog.search#/metadata/b84fe66e-4c46-48aa-ae31-a4fbb6c24fb8"
      },
      "geometry": {
        "type": "Point",
        "coordinates": [
          166.637389,
          -77.842227
        ]
      }
    }
  ]
}