{
  "type": "FeatureCollection",
  "name": "K891A",
  "crs": {
    "type": "name",
    "properties": {
      "name": "urn:ogc:def:crs:OGC:1.3:CRS84"
    }
  },
  "features": [
    {
      "type": "Feature",
      "properties": {
        "event": "K891A",
        "name": "AWS",
        "principal investigator": "Smith, I.J.",
        "email": "inga.smith@otago.ac.nz",
        "status": "Active"
      },
      "geometry": {
        "type": "Point",
        "coordinates": [
          166.648457,
          -77.868009
        ]
      }
    },
    {
      "type": "Feature",
      "properties": {
        "event": "K891A",
        "name": "Sea Ice Mass Balance Station",
        "description": "To record ice temperature profiles and snow depths.",
        "principal investigator": "Smith, I.J.",
        "email": "inga.smith@otago.ac.nz",
        "status": "Active",
        "information": "https://antcat.antarcticanz.govt.nz/geonetwork/cat/eng/catalog.search#/metadata/79234cb5-401a-48de-9d58-0f65b881fb7a"
      },
      "geometry": {
        "type": "Point",
        "coordinates": [
          166.648457,
          -77.868009
        ]
      }
    }
  ]
}



