{
  "type": "FeatureCollection",
  "name": "K891A",
  "crs": {
    "type": "name",
    "properties": {
      "name": "urn:ogc:def:crs:OGC:1.3:CRS84"
    }
  },
  "features": [
    {
      "type": "Feature",
      "properties": {
        "event": "K891A",
        "name": "Sea Ice Mass Balance Station",
        "description": "To record ice temperature profiles and snow depths.",
        "principal investigator": "Smith, I.J.",
        "email": "inga.smith@otago.ac.nz",
        "status": "Planned"
      },
      "geometry": {
        "type": "Point",
        "coordinates": [
          166.648457,
          -77.868009
        ]
      }
    },
    {
      "type": "Feature",
      "properties": {
        "event": "K891A",
        "name": "Sea Ice Core Sampling",
        "description": "To carry out physical and chemical property analysis (e.g., salinity, density, structure, isotopes).",
        "principal investigator": "Smith, I.J.",
        "email": "inga.smith@otago.ac.nz",
        "status": "Planned"
      },
      "geometry": {
        "type": "Point",
        "coordinates": [
          166.648457,
          -77.868009
        ]
      }
    },
    {
      "type": "Feature",
      "properties": {
        "event": "K891A",
        "name": "Sea Water Sampling",
        "description": "To carry out physical and chemical property analysis (e.g., salinity, density, structure, isotopes).",
        "principal investigator": "Smith, I.J.",
        "email": "inga.smith@otago.ac.nz",
        "status": "Planned"
      },
      "geometry": {
        "type": "Point",
        "coordinates": [
          166.648457,
          -77.868009
        ]
      }
    },
    {
      "type": "Feature",
      "properties": {
        "event": "K891A",
        "name": "Snow sampling",
        "description": "To carry out physical and chemical property analysis (e.g., salinity, density, structure, isotopes).",
        "principal investigator": "Smith, I.J.",
        "email": "inga.smith@otago.ac.nz",
        "status": "Planned"
      },
      "geometry": {
        "type": "Point",
        "coordinates": [
          166.648457,
          -77.868009
        ]
      }
    },
    {
      "type": "Feature",
      "properties": {
        "event": "K891A",
        "name": "AWS Install",
        "description": "Install two new AWS.",
        "principal investigator": "Smith, I.J.",
        "email": "inga.smith@otago.ac.nz",
        "status": "Planned"
      },
      "geometry": {
        "type": "Point",
        "coordinates": [
          166.648457,
          -77.868009
        ]
      }
    },
        {
          "type": "Feature",
          "properties": {
            "event": "K891A",
            "name": "Ice-Ocean-Buoy Deployment",
            "description": "To measure sea-ice-ocean physical measurements.",
            "principal investigator": "Smith, I.J.",
            "email": "inga.smith@otago.ac.nz",
            "status": "Planned"
          },
          "geometry": {
            "type": "Point",
            "coordinates": [
              166.648457,
              -77.868009
            ]
          }
        },
        {
          "type": "Feature",
          "properties": {
            "event": "K891A",
            "name": "LASSITOS-EM Deployment",
            "description": "To measure sea ice.",
            "principal investigator": "Smith, I.J.",
            "email": "inga.smith@otago.ac.nz",
            "status": "Planned"
          },
          "geometry": {
            "type": "Point",
            "coordinates": [
              166.648457,
              -77.868009
            ]
          }
        },
        {
          "type": "Feature",
          "properties": {
            "event": "K891A",
            "name": "Sea Ice Measurent Instrument Buoy Deployment",
            "description": "Two buoys to be deployed.",
            "principal investigator": "Smith, I.J.",
            "email": "inga.smith@otago.ac.nz",
            "status": "Planned"
          },
          "geometry": {
            "type": "Point",
            "coordinates": [
              166.648457,
              -77.868009
            ]
          }
        },
        {
          "type": "Feature",
          "properties": {
            "event": "K891A",
            "name": "Sea Ice Tracker/SVP Deployment",
            "description": "To monitor sea ice breakout and drift.",
            "principal investigator": "Smith, I.J.",
            "email": "inga.smith@otago.ac.nz",
            "status": "Planned"
          },
          "geometry": {
            "type": "Point",
            "coordinates": [
              166.648457,
              -77.868009
            ]
          }
        }
  ]
}



