{
    "type": "FeatureCollection",
    "name": "K893A",
    "crs": {
        "type": "name",
        "properties": {
            "name": "urn:ogc:def:crs:OGC:1.3:CRS84"
        }
    },
    "features": [
        {
            "type": "Feature",
            "properties": {
                "event": "K893A",
                "name": "AWS Install",
                "description": "To measure energy balance gradients with elevation by installing one automatic weather station and auxiliary environmental measurements.",
                "site": "Pyramid Trough",
                "principal investigator": "MacDonnell, S.",
                "email": "shelly.macdonnell@canterbury.ac.nz",
                "status": "Planned"
            },
            "geometry": {
                "type": "Point",
                "coordinates": [
                    163.453306,
                    -78.295703
                ]
            }
        },
        {
            "type": "Feature",
            "properties": {
                "event": "K893A",
                "name": "Soil Moisture Sensors and Stream Pressure Transducers Install",
                "description": "To evaluate wetness distribution and hydrological connectivity.",
                "site": "Pyramid Trough",
                "principal investigator": "MacDonnell, S.",
                "email": "shelly.macdonnell@canterbury.ac.nz",
                "status": "Planned"
            },
            "geometry": {
                "type": "Point",
                "coordinates": [
                    163.453306,
                    -78.295703
                ]
            }
        },
        {
            "type": "Feature",
            "properties": {
                "event": "K893A",
                "name": "Discharge Gauging Sensor Install",
                "description": "To measure stream discharge.",
                "site": "Pyramid Trough",
                "principal investigator": "MacDonnell, S.",
                "email": "shelly.macdonnell@canterbury.ac.nz",
                "status": "Planned"
            },
            "geometry": {
                "type": "Point",
                "coordinates": [
                    163.453306,
                    -78.295703
                ]
            }
        },
        {
            "type": "Feature",
            "properties": {
                "event": "K893A",
                "name": "Snow Distribution",
                "description": "To measure and monitor snow distribution with elevation using drones and automatic cameras.",
                "site": "Pyramid Trough",
                "principal investigator": "MacDonnell, S.",
                "email": "shelly.macdonnell@canterbury.ac.nz",
                "status": "Planned"
            },
            "geometry": {
                "type": "Point",
                "coordinates": [
                    163.453306,
                    -78.295703
                ]
            }
        },
        {
            "type": "Feature",
            "properties": {
                "event": "K893A",
                "name": "Snow and Water Sampling",
                "description": "For isotope analysis.",
                "site": "Pyramid Trough",
                "principal investigator": "MacDonnell, S.",
                "email": "shelly.macdonnell@canterbury.ac.nz",
                "status": "Planned"
            },
            "geometry": {
                "type": "Point",
                "coordinates": [
                    163.453306,
                    -78.295703
                ]
            }
        }
    ]
}
