{
  "type": "FeatureCollection",
  "name": "K893A",
  "crs": {
    "type": "name",
    "properties": {
      "name": "urn:ogc:def:crs:OGC:1.3:CRS84"
    }
  },
  "features": [
    {
        "type": "Feature",
        "properties": {
          "event": "K893A",
          "name": "AWS Install",
          "description": "Install automatic weather station and auxiliary environmental measurements.",
          "site": "Wright Lower Glacier",
          "principal investigator": "MacDonnell, S..",
          "email": "shelly.macdonnell@canterbury.ac.nz",
          "status": "Planned"
        },
        "geometry": {
          "type": "Point",
          "coordinates": [
        162.650667,
        -77.442667
          ]
        }
      },
    {
      "type": "Feature",
      "properties": {
        "event": "K893A",
        "name": "Snow and Water Sampling",
        "description": "Sampling for isotope analysis.",
        "site": "Wright Lower Glacier",
        "principal investigator": "MacDonnell, S..",
        "email": "shelly.macdonnell@canterbury.ac.nz",
        "status": "Planned"
      },
      "geometry": {
        "type": "Point",
        "coordinates": [
        162.650667,
        -77.442667
        ]
      }
    },
    {
      "type": "Feature",
      "properties": {
        "event": "K893A",
        "name": "Snow, Firn and/or Ice Core Sampling",
        "description": "",
        "site": "Wright Lower Glacier",
        "principal investigator": "MacDonnell, S..",
        "email": "shelly.macdonnell@canterbury.ac.nz",
        "status": "Planned"
      },
      "geometry": {
        "type": "Point",
        "coordinates": [
        162.650667,
        -77.442667
        ]
      }
    },
    {
      "type": "Feature",
      "properties": {
        "event": "K893A",
        "name": "Glacier Albedo Survey",
        "description": "",
        "site": "Wright Lower Glacier",
        "principal investigator": "MacDonnell, S..",
        "email": "shelly.macdonnell@canterbury.ac.nz",
        "status": "Planned"
      },
      "geometry": {
        "type": "Point",
        "coordinates": [
          162.650667,
          -77.442667
        ]
      }
    },
    {
      "type": "Feature",
      "properties": {
        "event": "K893A",
        "name": "Glacier Mass Balance Measurements",
        "description": "",
        "site": "Wright Lower Glacier",
        "principal investigator": "MacDonnell, S..",
        "email": "shelly.macdonnell@canterbury.ac.nz",
        "status": "Planned"
      },
      "geometry": {
        "type": "Point",
        "coordinates": [
        162.650667,
        -77.442667
        ]
      }
    },
    {
      "type": "Feature",
      "properties": {
        "event": "K893A",
        "name": "Cryoconite Mapping",
        "description": "Map and monitor cryoconite hole development.",
        "site": "Wright Lower Glacier",
        "principal investigator": "MacDonnell, S..",
        "email": "shelly.macdonnell@canterbury.ac.nz",
        "status": "Planned"
      },
      "geometry": {
        "type": "Point",
        "coordinates": [
        162.650667,
        -77.442667
        ]
      }
    },
    {
      "type": "Feature",
      "properties": {
        "event": "K893A",
        "name": "Snow Distribution",
        "description": "To measure and monitor snow distribution with elevation using drones and automatic cameras.",
        "site": "Wright Lower Glacier",
        "principal investigator": "MacDonnell, S..",
        "email": "shelly.macdonnell@canterbury.ac.nz",
        "status": "Planned"
      },
      "geometry": {
        "type": "Point",
        "coordinates": [
        162.650667,
        -77.442667
        ]
      }
    }
  ]
}