{
  "type": "FeatureCollection",
  "name": "K894A",
  "crs": {
    "type": "name",
    "properties": {
      "name": "urn:ogc:def:crs:OGC:1.3:CRS84"
    }
  },
  "features": [
    {
      "type": "Feature",
      "properties": {
        "event": "K894A",
        "name": "Datalogger and Sensor Arrays",
        "description": "Install a datalogger and sensor arrays on the Lake Vanda ice and in the moat region to measure heat flux within the lake-ice system.",
        "site": "Lake Vanda",
        "principal investigator": "Hawes, I.",
        "email": "ian.hawes@waikato.ac.nz",
        "status": "Planned"
      },
      "geometry": {
        "type": "Point",
        "coordinates": [
          161.675517,
          -77.527067
        ]
      }
    },
    {
      "type": "Feature",
      "properties": {
        "event": "K894A",
        "name": "Plant Community Photosynthesis",
        "description": "Test the suitability of pulse amplitude fluorometry for identification of active photosynthesis within a range of plant communities.",
        "site": "Lake Vanda",
        "principal investigator": "Hawes, I.",
        "email": "ian.hawes@waikato.ac.nz",
        "status": "Planned"
      },
      "geometry": {
        "type": "Point",
        "coordinates": [
          161.675517,
          -77.527067
        ]
      }
    },
    {
      "type": "Feature",
      "properties": {
        "event": "K894A",
        "name": "Lake Ice and Water Column Measurements",
        "description": "Undertake a series of vertical and horizontal profiles in Lake Vanda to determine temporal and spatial variability in ice thickness and transparency and water column temperature.",
        "site": "Lake Vanda",
        "principal investigator": "Hawes, I.",
        "email": "ian.hawes@waikato.ac.nz",
        "status": "Planned"
      },
      "geometry": {
        "type": "Point",
        "coordinates": [
          161.675517,
          -77.527067
        ]
      }
    },
    {
      "type": "Feature",
      "properties": {
        "event": "K894A",
        "name": "Lake Bathymetry",
        "description": "Use an autonomous surface vessel (ASV) and an RPAS to map the extent and bathymetry of the Lake Vanda moat zone at a time close to its maximum extent.",
        "site": "Lake Vanda",
        "principal investigator": "Hawes, I.",
        "email": "ian.hawes@waikato.ac.nz",
        "status": "Planned"
      },
      "geometry": {
        "type": "Point",
        "coordinates": [
          161.675517,
          -77.527067
        ]
      }
    },
    {
      "type": "Feature",
      "properties": {
        "event": "K894A",
        "name": "Lake Level Monitoring",
        "description": "To establish a new benchmark at Lake Vanda to allow ongoing monitoring of lake level rise.",
        "site": "Pyramid Trough",
        "principal investigator": "Hawes, I.",
        "email": "ian.hawes@waikato.ac.nz",
        "status": "Planned"
      },
      "geometry": {
        "type": "Point",
        "coordinates": [
          163.453306,
          -78.295703
        ]
      }
    },
    {
      "type": "Feature",
      "properties": {
        "event": "K894A",
        "name": "Sensor Transect Deployment",
        "description": "To record soil temperature and summer water content.",
        "site": "Pyramid Trough",
        "principal investigator": "Hawes, I.",
        "email": "ian.hawes@waikato.ac.nz",
        "status": "Planned"
      },
      "geometry": {
        "type": "Point",
        "coordinates": [
          163.453306,
          -78.295703
        ]
      }
    },
    {
      "type": "Feature",
      "properties": {
        "event": "K894A",
        "name": "Vegetation Transects",
        "description": "To establish a series of transects through natural wetness gradients in the Pyramid Trough wetlands and document the vegetation present and the elevation.",
        "site": "Pyramid Trough",
        "principal investigator": "Hawes, I.",
        "email": "ian.hawes@waikato.ac.nz",
        "status": "Planned"
      },
      "geometry": {
        "type": "Point",
        "coordinates": [
          163.453306,
          -78.295703
        ]
      }
    },
    {
      "type": "Feature",
      "properties": {
        "event": "K894A",
        "name": "Cyanobacterial Reflectance Measurements",
        "description": "Use robotic and manual techniques to assess the spectral reflectance of cyanobacterial and moss communities at the Boulder Pavement and Pyramid Trough.",
        "site": "Pyramid Trough",
        "principal investigator": "Hawes, I.",
        "email": "ian.hawes@waikato.ac.nz",
        "status": "Planned"
      },
      "geometry": {
        "type": "Point",
        "coordinates": [
          163.453306,
          -78.295703
        ]
      }
    }
  ]
}
