{
  "type": "FeatureCollection",
  "name": "SCOTTBASE",
  "crs": {
    "type": "name",
    "properties": {
      "name": "urn:ogc:def:crs:OGC:1.3:CRS84"
    }
  },
    "features": [
      {
        "type": "Feature",
        "properties": {
          "event": "",
          "name": "PAMS Fluorometer",
          "measurement": "Chlorophyll fluorescence",
          "site": "Scott Base",
          "principal investigator": "Green, T.G.A.",
          "email": "greentga@waikato.ac.nz",
          "status": "Active"
        },
        "geometry": {
          "type": "Point",
          "coordinates": [
              166.77,
              -77.85
          ]
        }
      },
    {
      "type": "Feature",
      "properties": {
        "event": "K055A",
        "name": "Microrain Radar Instrument",
        "measurement": "Snowfall and vertical wind measurements",
        "site": "Scott Base",
        "principal investigator": "McDonald, A.",
        "email": "adrian.mcdonald@canterbury.ac.nz",
        "status": "Active"
      },
      "geometry": {
        "type": "Point",
        "coordinates": [
          166.77,
          -77.85
        ]
      }
    },
    {
      "type": "Feature",
      "properties": {
        "event": "K055A",
        "name": "Middle Frequency Radar",
        "measurement": "Dynamics and ionisation in the middle atmosphere",
        "site": "Scott Base",
        "principal investigator": "McDonald, A.",
        "email": "adrian.mcdonald@canterbury.ac.nz",
        "status": "Active"
      },
      "geometry": {
        "type": "Point",
        "coordinates": [
          166.77,
          -77.85
        ]
      }
    },
    {
      "type": "Feature",
      "properties": {
        "event": "K060A",
        "name": "Very Low Frequency Radio Sensor",
        "measurement": "Lightning discharges",
        "site": "Scott Base",
        "principal investigator": "Rodger, C.",
        "email": "craig.rodger@otago.ac.nz",
        "status": "Active"
      },
      "geometry": {
        "type": "Point",
        "coordinates": [
          166.77,
          -77.85
        ]
      }
    },
        {
          "type": "Feature",
          "properties": {
            "event": "K085A",
            "name": "Microwave Chlorine Monoxide Millimeter Wave Spectrometer",
            "site": "Scott Base",
            "measurement": "Chlorine monoxide",
            "principal investigator": "Smale, D.",
            "email": "dan.smale@earthsciences.nz",
            "status": "Active"
          },
          "geometry": {
            "type": "Point",
            "coordinates": [
              166.77,
              -77.85
            ]
          }
        },
        {
          "type": "Feature",
          "properties": {
            "event": "K085A",
            "name": "AERI: Atmospheric Emission Radiation Interferometer",
            "measurement": "Atmospheric down-welling thermal infrared radiance",
            "site": "Scott Base",
            "principal investigator": "Smale, D.",
            "email": "dan.smale@earthsciences.nz",
            "status": "Active"
          },
          "geometry": {
            "type": "Point",
            "coordinates": [
              166.77,
              -77.85
            ]
          }
        },

        {
          "type": "Feature",
          "properties": {
            "event": "K085A",
            "name": "CNR4 and SI-411 Radiometers",
            "measurement": "Surface radiative balance",
            "site": "Scott Base",
            "principal investigator": "Smale, D.",
            "email": "dan.smale@earthsciences.nz",
            "status": "Active"
          },
          "geometry": {
            "type": "Point",
            "coordinates": [
              166.77,
              -77.85
            ]
          }
        },
        {
          "type": "Feature",
          "properties": {
            "event": "K085A",
            "name": "SMOL-X: Lidar",
            "measurement": "Atmospheric profiles of ozone, temperature and aerosols",
            "site": "Scott Base",
            "principal investigator": "Smale, D.",
            "email": "dan.smale@earthsciences.nz",
            "status": "Active"
          },
          "geometry": {
            "type": "Point",
            "coordinates": [
              166.77,
              -77.85
            ]
          }
        },
        {
          "type": "Feature",
          "properties": {
            "event": "K089A",
            "name": "AWS",
            "site": "Scott Base",
            "principal investigator": "Jeremy Rutherford",
            "email": "jeremy.rutherford@earthsciences.nz",
            "status": "Active"
          },
          "geometry": {
            "type": "Point",
            "coordinates": [
              166.77,
              -77.85
            ]
          }
        },
        {
          "type": "Feature",
          "properties": {
            "event": "K102A",
            "name": "Geomagnetic Instrument",
            "site": "Scott Base",
            "measurement": "Magnetic field",
            "principal investigator": "Petersen, T.",
            "email": "t.petersen@gns.cri.nz",
            "status": "Active"
          },
          "geometry": {
            "type": "Point",
            "coordinates": [
              166.77,
              -77.85
            ]
          }
        },
        {
          "type": "Feature",
          "properties": {
            "event": "K150A",
            "name": "Tide Gauge",
            "measurement": "Sea level",
            "site": "Scott Base",
            "principal investigator": "Collett, D.",
            "email": "dcollett@linz.govt.nz",
            "status": "Active"
          },
          "geometry": {
            "type": "Point",
            "coordinates": [
              166.77,
              -77.85
            ]
          }
        },
        {
          "type": "Feature",
          "properties": {
            "event": "K150A",
            "name": "GNSS Station",
            "site": "Scott Base",
            "principal investigator": "Collett, D.",
            "email": "dcollett@linz.govt.nz",
            "status": "Active"
          },
          "geometry": {
            "type": "Point",
            "coordinates": [
              166.77,
              -77.85
            ]
          }
        },
        {
          "type": "Feature",
          "properties": {
            "event": "K881B",
            "name": "Soil and Climate Station",
            "site": "Scott Base",
            "principal investigator": "Katurji, M.",
            "email": "marwan.katurji@canterbury.ac.nz",
            "status": "Active"
          },
          "geometry": {
            "type": "Point",
            "coordinates": [
              166.77,
              -77.85
            ]
          }
        }
  ]
}